Y,M,D,HH,MM,BOROUGH_x,LATITUDE_x,LONGITUDE_x,STREET NAME,CROSS STREET NAME,OFF STREET NAME,NUMBER OF PERSONS INJURED,NUMBER OF PERSONS KILLED,temperature_2m (°C),precipitation (mm),rain (mm),cloudcover_low (%),windspeed_10m (km/h),winddirection_10m (°),BOROUGH_y,VOL,DIRECTION,LATITUDE_y,LONGITUDE_y
2020,1,25,10,0,STATEN ISLAND,40.6094,-74.09011,RICHMOND ROAD,NARROWS ROAD NORTH,,0.0,0,3.8,0.0,0.0,100.0,19.0,57.0,STATEN ISLAND,128,EB,40.57493710006232,-74.12851259356368
2020,1,26,11,0,STATEN ISLAND,40.582756,-74.13041,ROCKLAND AVENUE,MANOR ROAD,,0.0,0,1.6,0.0,0.0,1.0,9.3,257.0,STATEN ISLAND,97,SB,40.57715435361448,-74.12720771647955
2020,1,26,14,45,STATEN ISLAND,40.60545,-74.092636,RICHMOND ROAD,EDGAR PLACE,,0.0,0,3.0,0.0,0.0,1.0,12.1,253.0,STATEN ISLAND,208,EB,40.57585382162095,-74.12453631691666
2020,3,8,11,30,BRONX,40.88337,-73.85956,EAST 220 STREET,BARNES AVENUE,,0.0,0,0.1,0.0,0.0,0.0,8.7,275.0,BRONX,20,WB,40.883876661313685,-73.86114503383025
2020,8,17,10,0,,40.67983,-73.9583,ATLANTIC AVENUE,,,2.0,0,18.4,0.0,0.0,4.0,5.4,312.0,BROOKLYN,174,EB,40.68885244014025,-73.98986741081302
2020,8,17,0,30,BROOKLYN,40.686928,-73.98484,ATLANTIC AVENUE,BOND STREET,,2.0,0,20.8,0.0,0.0,39.0,15.1,18.0,BROOKLYN,27,WB,40.68885244014025,-73.98986741081302
2020,8,18,16,30,,40.524,-74.186104,HYLAN BOULEVARD,,,0.0,0,25.5,0.0,0.0,0.0,7.1,294.0,STATEN ISLAND,242,NB,40.57609346237429,-74.10401140778116
2020,8,18,18,45,BROOKLYN,40.676838,-73.91831,ATLANTIC AVENUE,DEWEY PLACE,,1.0,0,27.0,0.0,0.0,0.0,9.7,270.0,BROOKLYN,222,WB,40.68885244014025,-73.98986741081302
2020,8,18,9,15,BROOKLYN,40.68777,-73.98701,ATLANTIC AVENUE,HOYT STREET,,0.0,0,18.5,0.0,0.0,0.0,5.4,270.0,BROOKLYN,199,EB,40.68885244014025,-73.98986741081302
2020,8,18,7,30,,40.686085,-73.982666,ATLANTIC AVENUE,,,1.0,0,20.0,0.9,0.9,0.0,10.4,256.0,BROOKLYN,176,EB,40.68885244014025,-73.98986741081302
2020,8,19,22,45,BROOKLYN,40.677338,-73.927536,ATLANTIC AVENUE,ROCHESTER AVENUE,,0.0,0,23.2,0.0,0.0,2.0,5.4,20.0,BROOKLYN,124,EB,40.68885244014025,-73.98986741081302
2020,8,19,22,45,QUEENS,40.690357,-73.84109,ATLANTIC AVENUE,104 STREET,,2.0,0,23.2,0.0,0.0,2.0,5.4,20.0,BROOKLYN,124,EB,40.68885244014025,-73.98986741081302
2020,8,19,13,0,STATEN ISLAND,40.597633,-74.07388,HYLAN BOULEVARD,LINWOOD AVENUE,,2.0,0,20.6,0.0,0.0,0.0,6.9,81.0,STATEN ISLAND,243,SB,40.56623560520637,-74.11412171339194
2020,8,19,17,0,BROOKLYN,40.690468,-73.9879,SMITH STREET,LIVINGSTON STREET,,1.0,0,20.7,0.8,0.8,45.0,6.0,57.0,BROOKLYN,96,NB,40.69020633545153,-73.98807038526087
2020,8,19,16,30,BROOKLYN,40.679367,-73.879715,ATLANTIC AVENUE,HALE AVENUE,,0.0,0,20.3,0.9,0.9,11.0,4.2,31.0,BROOKLYN,260,WB,40.68885244014025,-73.98986741081302
2020,8,19,12,30,BROOKLYN,40.67619,-73.9081,ATLANTIC AVENUE,EASTERN PARKWAY,,0.0,0,20.3,0.0,0.0,0.0,7.6,71.0,BROOKLYN,163,EB,40.68885244014025,-73.98986741081302
2020,8,19,1,0,BROOKLYN,40.686646,-73.97982,SCHERMERHORN STREET,3 AVENUE,,0.0,0,25.0,0.0,0.0,0.0,4.2,301.0,BROOKLYN,3,WB,40.69006294593323,-73.98886713624586
2020,8,20,23,0,,40.68777,-73.98701,ATLANTIC AVENUE,,,0.0,0,24.4,0.0,0.0,0.0,6.7,164.0,BROOKLYN,127,WB,40.68885244014025,-73.98986741081302
2020,8,20,9,0,BROOKLYN,40.688786,-73.98358,LIVINGSTON STREET,BOND STREET,,0.0,0,18.0,0.0,0.0,0.0,11.6,355.0,BROOKLYN,89,EB,40.690323777064215,-73.98751843237258
2020,8,20,19,15,STATEN ISLAND,40.553486,-74.13179,HYLAN BOULEVARD,JUSTIN AVENUE,,1.0,0,25.2,0.0,0.0,0.0,3.8,253.0,STATEN ISLAND,209,NB,40.56618577732628,-74.11397795795065
2020,8,21,11,30,STATEN ISLAND,40.59861,-74.080765,HYLAN BOULEVARD,MALLORY AVENUE,,0.0,0,20.0,0.0,0.0,4.0,11.1,245.0,STATEN ISLAND,230,NB,40.56618577732628,-74.11397795795065
2020,8,21,12,0,,40.68987,-73.988304,SCHERMERHORN STREET,,,0.0,0,20.4,0.0,0.0,0.0,9.2,249.0,BROOKLYN,45,WB,40.69006294593323,-73.98886713624586
2020,8,21,12,30,,40.681126,-73.96446,ATLANTIC AVENUE,,,0.0,0,20.4,0.0,0.0,0.0,9.2,249.0,BROOKLYN,173,EB,40.68885244014025,-73.98986741081302
2020,8,21,12,45,,40.684002,-73.86343,ATLANTIC AVENUE,,,1.0,0,20.4,0.0,0.0,0.0,9.2,249.0,BROOKLYN,222,WB,40.68885244014025,-73.98986741081302
2020,8,21,5,30,,40.68134,-73.96549,ATLANTIC AVENUE,,,0.0,0,20.2,0.0,0.0,0.0,10.1,207.0,BROOKLYN,76,EB,40.68885244014025,-73.98986741081302
2020,8,22,18,30,QUEENS,40.66563,-73.73921,SUNRISE HIGHWAY,BROOKVILLE BOULEVARD,,0.0,0,28.7,0.0,0.0,4.0,10.0,229.0,QUEENS,475,WB,40.665531153728885,-73.72879888422096
2020,8,22,0,0,BROOKLYN,40.688213,-73.919815,BROADWAY,MADISON STREET,,0.0,0,25.9,0.0,0.0,1.0,9.6,193.0,BRONX,85,NB,40.91097951979918,-73.89662353670386
2020,8,22,11,45,BROOKLYN,40.676243,-73.9091,ATLANTIC AVENUE,MONACO PLACE,,0.0,0,22.9,0.0,0.0,0.0,6.2,249.0,BROOKLYN,257,WB,40.68885244014025,-73.98986741081302
2020,8,22,13,15,,40.69477,-73.8248,ATLANTIC AVENUE,,,0.0,0,23.7,0.0,0.0,0.0,9.1,236.0,BROOKLYN,202,EB,40.68885244014025,-73.98986741081302
2020,8,22,12,0,,40.69304,-73.924446,GREENE AVENUE,,,0.0,0,23.2,0.0,0.0,0.0,7.2,233.0,BROOKLYN,42,NB,40.70420109704923,-73.91340525592425
2020,8,22,20,30,BROOKLYN,40.67553,-73.90163,ATLANTIC AVENUE,HINSDALE STREET,,1.0,0,29.1,0.4,0.4,4.0,10.4,224.0,BROOKLYN,157,WB,40.68885244014025,-73.98986741081302
2020,8,22,14,45,QUEENS,40.66528,-73.735596,SOUTH CONDUIT AVENUE,243 STREET,,1.0,0,24.6,0.0,0.0,0.0,8.5,242.0,QUEENS,652,EB,40.66534629165069,-73.72884972179746
2020,8,23,3,30,,40.686977,-73.96352,GREENE AVENUE,,,0.0,0,24.3,0.0,0.0,0.0,9.4,238.0,BROOKLYN,7,NB,40.70420109704923,-73.91340525592425
2020,8,23,21,45,BROOKLYN,40.69285,-73.90355,DECATUR STREET,IRVING AVENUE,,0.0,0,27.5,0.0,0.0,7.0,11.8,168.0,QUEENS,21,NB,40.69415986862387,-73.90207203886553
2020,8,23,21,45,BROOKLYN,40.67911,-73.880615,ATLANTIC AVENUE,HIGHLAND PLACE,,0.0,0,27.5,0.0,0.0,7.0,11.8,168.0,BROOKLYN,197,EB,40.68885244014025,-73.98986741081302
2020,8,23,2,30,BROOKLYN,40.654312,-73.91759,LINDEN BOULEVARD,CHURCH AVENUE,,5.0,0,25.3,0.0,0.0,0.0,10.2,222.0,QUEENS,18,WB,40.67045279104683,-73.85705429845902
2020,8,23,11,15,,40.754276,-73.90902,BROADWAY,,,0.0,0,22.6,0.0,0.0,48.0,4.9,216.0,BRONX,96,NB,40.91097951979918,-73.89662353670386
2020,8,23,19,0,,40.68199,-73.90887,BROADWAY,,,1.0,0,27.8,0.0,0.0,10.0,9.4,178.0,BRONX,114,NB,40.91097951979918,-73.89662353670386
2020,8,23,0,45,,40.86769,-73.92122,BROADWAY,,,0.0,0,26.5,0.0,0.0,0.0,9.2,206.0,BRONX,46,SB,40.91097951979918,-73.89662353670386
2020,8,23,0,30,QUEENS,40.689472,-73.8442,ATLANTIC AVENUE,100 STREET,,0.0,0,26.5,0.0,0.0,0.0,9.2,206.0,BROOKLYN,123,EB,40.68885244014025,-73.98986741081302
2020,8,23,0,0,BRONX,40.839767,-73.905396,WEBSTER AVENUE,CLAREMONT PARKWAY,,0.0,0,26.5,0.0,0.0,0.0,9.2,206.0,BRONX,45,SB,40.899997608955886,-73.86187498270343
2020,8,23,10,45,,40.81053,-73.96207,BROADWAY,,,3.0,0,22.7,0.0,0.0,43.0,3.3,264.0,BRONX,82,NB,40.91097951979918,-73.89662353670386
2020,8,24,0,0,,40.688995,-73.78581,LINDEN BOULEVARD,BREWER BOULEVARD,,0.0,0,25.8,0.0,0.0,0.0,6.8,177.0,BROOKLYN,17,EB,40.67006119081688,-73.85746016799304
2020,8,24,12,0,QUEENS,40.753284,-73.90691,BROADWAY,NORTHERN BOULEVARD,,0.0,0,24.1,0.0,0.0,0.0,4.8,222.0,BRONX,132,NB,40.91097951979918,-73.89662353670386
2020,8,24,13,15,QUEENS,40.748314,-73.70955,UNION TURNPIKE,263 STREET,,3.0,0,24.7,0.0,0.0,0.0,6.1,225.0,QUEENS,95,WB,40.752412901306805,-73.70190998615158
2020,8,24,19,15,BROOKLYN,40.675632,-73.89878,ATLANTIC AVENUE,GEORGIA AVENUE,,0.0,0,29.9,0.0,0.0,1.0,11.5,238.0,BROOKLYN,146,EB,40.68300864160691,-73.86667078272325
2020,8,24,19,15,,40.6792,-73.9553,ATLANTIC AVENUE,,,0.0,0,29.9,0.0,0.0,1.0,11.5,238.0,BROOKLYN,146,EB,40.68300864160691,-73.86667078272325
2020,8,24,8,45,BROOKLYN,40.681686,-73.871574,ATLANTIC AVENUE,CRESCENT STREET,,0.0,0,23.5,0.0,0.0,0.0,5.6,207.0,QUEENS,167,WB,40.68329762666034,-73.8661351866307
2020,8,24,21,30,,40.69304,-73.924446,GREENE AVENUE,,,1.0,0,30.6,0.0,0.0,0.0,12.3,238.0,BROOKLYN,21,NB,40.70420109704923,-73.91340525592425
2020,8,24,11,0,BROOKLYN,40.666595,-73.87176,LINDEN BOULEVARD,FOUNTAIN AVENUE,,0.0,1,23.5,0.0,0.0,0.0,4.9,234.0,QUEENS,53,WB,40.67045279104683,-73.85705429845902
2020,8,25,17,45,QUEENS,40.67699,-73.74308,MERRICK BOULEVARD,227 STREET,,0.0,0,29.8,0.0,0.0,12.0,17.9,279.0,QUEENS,237,EB,40.67409541387648,-73.7279640410026
2020,8,25,9,0,QUEENS,40.666332,-73.81056,SOUTH CONDUIT AVENUE,130 STREET,,1.0,0,23.4,0.0,0.0,0.0,10.0,257.0,QUEENS,362,EB,40.66534629165069,-73.72884972179746
2020,8,25,18,45,,40.84091,-73.904755,WEBSTER AVENUE,,,0.0,0,30.4,0.0,0.0,7.0,17.5,279.0,BRONX,72,SB,40.899997608955886,-73.86187498270343
2020,8,25,14,15,,40.693863,-73.92971,BROADWAY,,,1.0,0,26.2,0.0,0.0,0.0,13.0,273.0,BRONX,123,NB,40.91097951979918,-73.89662353670386
2020,8,25,21,45,QUEENS,40.68701,-73.774864,MERRICK BOULEVARD,FOCH BOULEVARD,,0.0,0,31.5,1.0,1.0,1.0,17.0,291.0,QUEENS,64,EB,40.67409541387648,-73.7279640410026
2020,8,25,16,30,,40.853245,-73.83529,HUTCHINSON RIVER PARKWAY,,,1.0,0,29.1,0.0,0.0,1.0,15.5,270.0,BRONX,734,SB,40.8890008993706,-73.81532348425235
2020,8,25,19,45,MANHATTAN,40.83468,-73.944435,BROADWAY,WEST 158 STREET,,0.0,0,31.6,0.0,0.0,2.0,17.7,275.0,BRONX,111,NB,40.91097951979918,-73.89662353670386
2020,8,25,19,0,,40.677773,-73.93587,ATLANTIC AVENUE,,,1.0,0,31.6,0.0,0.0,2.0,17.7,275.0,BROOKLYN,149,EB,40.68300864160691,-73.86667078272325
2020,8,25,19,0,BROOKLYN,40.694313,-73.93052,BROADWAY,DODWORTH STREET,,0.0,0,31.6,0.0,0.0,2.0,17.7,275.0,BRONX,114,SB,40.91097951979918,-73.89662353670386
2020,8,25,7,30,QUEENS,40.665386,-73.74493,SOUTH CONDUIT AVENUE,231 STREET,,4.0,0,24.0,0.0,0.0,0.0,11.2,249.0,QUEENS,300,EB,40.66534629165069,-73.72884972179746
2020,8,26,12,45,,40.658577,-73.89063,LINDEN BOULEVARD,,,1.0,0,21.0,0.0,0.0,0.0,13.6,328.0,QUEENS,250,WB,40.67035947308133,-73.85701982900666
2020,8,26,16,15,BRONX,40.904503,-73.896416,BROADWAY,MOSHOLU AVENUE,,1.0,0,23.5,0.0,0.0,0.0,19.1,311.0,BRONX,134,SB,40.91097951979918,-73.89662353670386
2020,8,26,13,0,,40.68766,-73.85058,ATLANTIC AVENUE,,,1.0,0,21.2,0.0,0.0,0.0,15.9,322.0,BROOKLYN,153,EB,40.68300864160691,-73.86667078272325
2020,8,26,8,30,QUEENS,40.69383,-73.82888,ATLANTIC AVENUE,118 STREET,,0.0,0,21.8,0.0,0.0,0.0,14.4,323.0,QUEENS,191,WB,40.68329762666034,-73.8661351866307
2020,8,26,17,15,BROOKLYN,40.67807,-73.94139,ATLANTIC AVENUE,KINGSTON AVENUE,,1.0,0,24.2,0.0,0.0,0.0,18.7,310.0,BROOKLYN,197,EB,40.68300864160691,-73.86667078272325
2020,8,26,17,45,,40.657406,-73.89881,LINDEN BOULEVARD,VAN SIDERIN AVENUE,,1.0,0,24.2,0.0,0.0,0.0,18.7,310.0,BROOKLYN,371,EB,40.67014116434988,-73.85748722889235
2020,8,26,14,15,QUEENS,40.695995,-73.782776,MERRICK BOULEVARD,110 AVENUE,,0.0,0,21.6,0.0,0.0,0.0,17.4,320.0,QUEENS,227,WB,40.674220149046334,-73.72792583536202
2020,8,26,14,45,,40.835484,-73.9494,HENRY HUDSON PARKWAY,,,0.0,0,21.6,0.0,0.0,0.0,17.4,320.0,BRONX,771,SB,40.90808262981397,-73.88622398840823
2020,8,26,21,30,,,,HENRY HUDSON PARKWAY,MOSHOLU PARKWAY,,0.0,0,25.0,0.0,0.0,0.0,19.5,300.0,BRONX,473,NB,40.90798801957053,-73.88615309164072
2020,8,26,2,30,,40.858986,-73.89382,WEBSTER AVENUE,EAST 187 STREET,,1.0,0,25.6,0.0,0.0,0.0,15.4,323.0,BRONX,9,NB,40.899997608955886,-73.86187498270343
2020,8,27,20,45,BROOKLYN,40.654327,-73.9221,LINDEN BOULEVARD,KINGS HIGHWAY,,0.0,0,31.4,0.0,0.0,0.0,21.9,256.0,QUEENS,182,WB,40.67035947308133,-73.85701982900666
2020,8,27,20,30,STATEN ISLAND,40.635395,-74.11739,BROADWAY,MARKET STREET,,0.0,0,31.4,0.0,0.0,0.0,21.9,256.0,BRONX,132,NB,40.91097951979918,-73.89662353670386
2020,8,27,17,30,BROOKLYN,40.682415,-73.97065,ATLANTIC AVENUE,CARLTON AVENUE,,1.0,0,31.0,0.0,0.0,40.0,22.7,260.0,QUEENS,224,WB,40.68329762666034,-73.8661351866307
2020,8,27,4,0,,40.852306,-73.89811,WEBSTER AVENUE,EAST 180 STREET,,0.0,0,21.8,0.0,0.0,8.0,4.8,283.0,BRONX,13,SB,40.899997608955886,-73.86187498270343
2020,8,27,21,0,QUEENS,40.665485,-73.75374,SOUTH CONDUIT AVENUE,224 STREET,,0.0,0,31.9,0.0,0.0,0.0,21.2,260.0,QUEENS,248,EB,40.66534629165069,-73.72884972179746
2020,8,27,13,45,BRONX,40.830738,-73.9105,WEBSTER AVENUE,EAST 167 STREET,,3.0,0,21.5,0.0,0.0,37.0,3.3,193.0,BRONX,109,SB,40.899997608955886,-73.86187498270343
2020,8,27,13,15,MANHATTAN,40.844677,-73.93886,BROADWAY,WEST 173 STREET,,1.0,0,21.5,0.0,0.0,37.0,3.3,193.0,BRONX,112,NB,40.91097951979918,-73.89662353670386
2020,8,27,9,45,BRONX,40.839767,-73.905396,WEBSTER AVENUE,CLAREMONT PARKWAY,,2.0,0,21.4,0.0,0.0,2.0,4.7,171.0,BRONX,98,SB,40.899997608955886,-73.86187498270343
2020,8,27,22,0,BROOKLYN,40.676495,-73.913704,ATLANTIC AVENUE,BOYLAND STREET,,5.0,0,30.2,0.0,0.0,0.0,12.3,249.0,QUEENS,80,WB,40.68329762666034,-73.8661351866307
2020,8,27,11,30,BROOKLYN,40.675632,-73.89878,ATLANTIC AVENUE,GEORGIA AVENUE,,0.0,0,20.9,0.0,0.0,23.0,3.0,76.0,BROOKLYN,140,EB,40.68300864160691,-73.86667078272325
2020,8,27,14,15,,40.69012,-73.92318,BROADWAY,,,0.0,0,23.3,0.0,0.0,24.0,6.6,229.0,BRONX,120,SB,40.91097951979918,-73.89662353670386
2020,8,27,1,45,QUEENS,40.685963,-73.85654,ATLANTIC AVENUE,85 STREET,,2.0,0,23.4,0.0,0.0,0.0,8.4,260.0,BROOKLYN,33,EB,40.68300864160691,-73.86667078272325
2020,8,27,23,30,QUEENS,40.694588,-73.82591,ATLANTIC AVENUE,121 STREET,,1.0,0,29.0,0.0,0.0,0.0,7.9,309.0,BROOKLYN,45,EB,40.68300864160691,-73.86667078272325
2020,8,27,19,15,MANHATTAN,40.72958,-73.99327,BROADWAY,WAVERLY PLACE,,1.0,0,31.6,0.0,0.0,0.0,23.2,263.0,BRONX,154,NB,40.91097951979918,-73.89662353670386
2020,8,28,20,15,,40.8746,-73.9097,BROADWAY,WEST 225 STREET,,0.0,0,28.7,0.0,0.0,0.0,10.5,274.0,BRONX,106,SB,40.91097951979918,-73.89662353670386
2020,8,28,20,45,,40.823887,-73.95232,BROADWAY,,,0.0,0,28.7,0.0,0.0,0.0,10.5,274.0,BRONX,117,NB,40.91097951979918,-73.89662353670386
2020,8,28,20,30,,40.84691,-73.93824,BROADWAY,,,0.0,0,28.7,0.0,0.0,0.0,10.5,274.0,BRONX,104,SB,40.91097951979918,-73.89662353670386
2020,8,28,19,0,BRONX,40.829136,-73.9114,WEBSTER AVENUE,EAST 166 STREET,,1.0,0,28.9,0.0,0.0,0.0,11.3,277.0,BRONX,59,NB,40.899997608955886,-73.86187498270343
2020,8,28,16,0,QUEENS,40.69297,-73.78024,MERRICK BOULEVARD,SAYRES AVENUE,,1.0,0,26.6,0.0,0.0,7.0,10.3,299.0,QUEENS,216,EB,40.67409541387648,-73.7279640410026
2020,8,28,16,30,BRONX,40.84497,-73.90247,WEBSTER AVENUE,ITTNER PLACE,,0.0,0,26.6,0.0,0.0,7.0,10.3,299.0,BRONX,70,NB,40.899997608955886,-73.86187498270343
2020,8,28,16,30,BROOKLYN,40.678543,-73.949684,ATLANTIC AVENUE,NOSTRAND AVENUE,,1.0,0,26.6,0.0,0.0,7.0,10.3,299.0,BROOKLYN,187,EB,40.68300864160691,-73.86667078272325
2020,8,28,14,45,BROOKLYN,40.654312,-73.91759,LINDEN BOULEVARD,CHURCH AVENUE,,1.0,0,24.2,0.0,0.0,17.0,12.8,292.0,BROOKLYN,63,EB,40.67006119081688,-73.85746016799304
2020,8,28,3,15,BROOKLYN,40.66278,-73.88086,LINDEN BOULEVARD,ASHFORD STREET,,1.0,0,23.9,0.0,0.0,1.0,5.8,300.0,QUEENS,11,WB,40.67045279104683,-73.85705429845902
2020,8,29,8,15,,40.847897,-73.94523,HENRY HUDSON PARKWAY,,,0.0,0,22.1,0.5,0.5,48.0,10.0,218.0,BRONX,330,SB,40.90808262981397,-73.88622398840823
2020,8,29,20,0,QUEENS,40.695858,-73.81891,ATLANTIC AVENUE,130 STREET,,0.0,0,25.5,0.0,0.0,6.0,12.0,201.0,QUEENS,137,WB,40.68329762666034,-73.8661351866307
2020,8,29,0,0,QUEENS,40.75221,-73.90443,BROADWAY,57 STREET,,2.0,0,23.7,0.0,0.0,4.0,5.9,223.0,BRONX,63,SB,40.91097951979918,-73.89662353670386
2020,8,29,0,0,QUEENS,40.747692,-73.89381,BROADWAY,72 STREET,,0.0,0,23.7,0.0,0.0,4.0,5.9,223.0,BRONX,63,SB,40.91097951979918,-73.89662353670386
2020,8,29,17,45,,40.537857,-74.17414,AMBOY ROAD,,,1.0,0,24.7,0.6,0.6,19.0,12.8,232.0,STATEN ISLAND,108,NB,40.57118778774624,-74.12192865700953
2020,8,29,16,0,,40.708935,-73.79601,MERRICK BOULEVARD,,,2.0,0,24.0,1.1,1.1,36.0,13.0,224.0,QUEENS,180,EB,40.67409541387648,-73.7279640410026
2020,8,30,16,45,,40.852306,-73.89811,WEBSTER AVENUE,EAST 180 STREET,,1.0,0,24.0,0.0,0.0,75.0,19.9,312.0,BRONX,35,NB,40.899997608955886,-73.86187498270343
2020,8,30,10,15,,40.8119,-73.966255,HENRY HUDSON PARKWAY,,,0.0,0,20.6,0.0,0.0,0.0,14.2,277.0,BRONX,558,SB,40.90808262981397,-73.88622398840823
2020,8,30,14,45,,40.723022,-73.99882,BROADWAY,,,0.0,0,22.2,0.0,0.0,66.0,21.2,312.0,BRONX,154,NB,40.91097951979918,-73.89662353670386
2020,8,30,17,45,BROOKLYN,40.657864,-73.89227,LINDEN BOULEVARD,GEORGIA AVENUE,,1.0,0,24.6,0.0,0.0,1.0,19.4,310.0,QUEENS,68,WB,40.67045279104683,-73.85705429845902
2020,8,30,12,0,,40.847458,-73.944244,HENRY HUDSON PARKWAY,,,0.0,0,21.0,0.0,0.0,0.0,14.2,277.0,BRONX,636,NB,40.90798801957053,-73.88615309164072
2020,8,30,12,30,,40.67172,-73.850975,LINDEN BOULEVARD,SOUTH CONDUIT AVENUE,,0.0,0,21.0,0.0,0.0,0.0,14.2,277.0,BROOKLYN,197,EB,40.67014116434988,-73.85748722889235
2020,8,30,8,45,,40.70745,-74.011955,BROADWAY,,,0.0,0,21.7,0.0,0.0,0.0,16.3,295.0,BRONX,69,SB,40.91097951979918,-73.89662353670386
2020,8,31,8,15,QUEENS,40.686302,-73.793915,LINDEN BOULEVARD,SUTPHIN BOULEVARD,,0.0,0,17.4,0.0,0.0,0.0,6.4,27.0,QUEENS,281,WB,40.67035947308133,-73.85701982900666
2020,8,31,13,0,,40.69577,-73.74746,LINDEN BOULEVARD,205 STREET,,0.0,0,18.8,0.0,0.0,0.0,7.1,45.0,BROOKLYN,46,EB,40.67006119081688,-73.85746016799304
2020,8,31,15,30,BROOKLYN,40.678677,-73.952065,ATLANTIC AVENUE,PERRY PLACE,,1.0,0,21.7,0.0,0.0,0.0,6.2,83.0,BROOKLYN,144,EB,40.68300864160691,-73.86667078272325
2020,8,31,1,30,QUEENS,40.686302,-73.793915,LINDEN BOULEVARD,SUTPHIN BOULEVARD,,1.0,0,22.6,0.0,0.0,0.0,8.3,342.0,QUEENS,46,WB,40.67035947308133,-73.85701982900666
2020,8,31,14,30,QUEENS,40.748993,-73.89687,BROADWAY,69 STREET,,1.0,0,20.1,0.0,0.0,0.0,6.6,61.0,BRONX,116,SB,40.91097951979918,-73.89662353670386
2020,8,31,20,15,,40.792725,-73.973206,BROADWAY,,,1.0,0,23.3,0.0,0.0,5.0,9.0,143.0,BRONX,80,SB,40.91097951979918,-73.89662353670386
2020,8,31,10,30,,40.689102,-73.94507,GREENE AVENUE,,,0.0,0,17.8,0.0,0.0,2.0,6.4,27.0,BROOKLYN,22,NB,40.70420109704923,-73.91340525592425
2020,8,31,0,0,,40.68864,-73.920555,BROADWAY,,,1.0,0,23.6,0.0,0.0,0.0,7.5,325.0,BRONX,110,NB,40.91097951979918,-73.89662353670386
2020,9,1,15,45,,,,HUTCHINSON RIVER PARKWAY,,,0.0,0,23.1,0.0,0.0,75.0,14.5,120.0,BRONX,876,NB,40.8889889357578,-73.81516522160659
2020,9,1,15,0,QUEENS,40.69151,-73.7299,LINDEN BOULEVARD,232 STREET,,2.0,0,23.1,0.0,0.0,75.0,14.5,120.0,BROOKLYN,85,EB,40.67006119081688,-73.85746016799304
2020,9,1,15,30,BROOKLYN,40.68777,-73.98701,ATLANTIC AVENUE,HOYT STREET,,1.0,0,23.1,0.0,0.0,75.0,14.5,120.0,QUEENS,188,WB,40.68329762666034,-73.8661351866307
2020,9,1,14,15,QUEENS,40.677883,-73.74561,MERRICK BOULEVARD,224 STREET,,0.0,0,22.1,0.2,0.2,49.0,13.7,108.0,QUEENS,218,EB,40.67409541387648,-73.7279640410026
2020,9,1,14,0,BROOKLYN,40.654278,-73.92292,LINDEN BOULEVARD,EAST 58 STREET,,0.0,0,22.1,0.2,0.2,49.0,13.7,108.0,BROOKLYN,265,EB,40.67014116434988,-73.85748722889235
2020,9,1,12,15,,,,HUTCHINSON RIVER PARKWAY,,,0.0,0,20.7,0.0,0.0,57.0,9.6,70.0,BRONX,652,NB,40.8889889357578,-73.81516522160659
2020,9,1,17,30,BROOKLYN,40.677357,-73.88687,ATLANTIC AVENUE,WARWICK STREET,,0.0,0,24.1,0.0,0.0,83.0,13.7,125.0,BROOKLYN,180,EB,40.68300864160691,-73.86667078272325
2020,9,1,6,45,BROOKLYN,40.677624,-73.93308,ATLANTIC AVENUE,SCHENECTADY AVENUE,,0.0,0,21.6,0.0,0.0,2.0,9.7,135.0,BROOKLYN,58,EB,40.68300864160691,-73.86667078272325
2020,9,1,1,45,,40.685093,-73.8596,ATLANTIC AVENUE,81 STREET,,0.0,0,22.1,0.0,0.0,2.0,8.0,108.0,BROOKLYN,31,EB,40.68300864160691,-73.86667078272325
2020,9,1,16,45,BROOKLYN,40.681686,-73.871574,ATLANTIC AVENUE,CRESCENT STREET,,0.0,0,23.2,0.0,0.0,100.0,15.0,125.0,BROOKLYN,191,EB,40.68300864160691,-73.86667078272325
2020,9,1,16,45,,40.856503,-73.93277,BROADWAY,,,1.0,0,23.2,0.0,0.0,100.0,15.0,125.0,BRONX,131,SB,40.91097951979918,-73.89662353670386
2020,9,1,16,45,QUEENS,40.680115,-73.75324,MERRICK BOULEVARD,SPRINGFIELD BOULEVARD,,0.0,0,23.2,0.0,0.0,100.0,15.0,125.0,QUEENS,200,EB,40.67409541387648,-73.7279640410026
2020,9,1,21,15,BROOKLYN,40.682186,-73.86982,ATLANTIC AVENUE,AUTUMN AVENUE,,0.0,0,24.3,0.0,0.0,23.0,13.4,117.0,BROOKLYN,84,EB,40.68300864160691,-73.86667078272325
2020,9,1,2,15,,,,HENRY HUDSON PARKWAY,,,0.0,0,21.9,0.0,0.0,1.0,8.0,98.0,BRONX,36,NB,40.90798801957053,-73.88615309164072
2020,9,1,3,0,,40.84764,-73.901,WEBSTER AVENUE,,,1.0,0,21.4,0.0,0.0,0.0,9.1,97.0,BRONX,14,SB,40.899997608955886,-73.86187498270343
2020,9,1,3,30,,40.677483,-73.93033,ATLANTIC AVENUE,,,0.0,0,21.4,0.0,0.0,0.0,9.1,97.0,QUEENS,13,WB,40.68329762666034,-73.8661351866307
2020,9,2,9,45,BROOKLYN,40.65417,-73.91375,LINDEN BOULEVARD,EAST 96 STREET,,0.0,0,21.4,0.1,0.1,100.0,9.1,81.0,BROOKLYN,168,EB,40.67014116434988,-73.85748722889235
2020,9,2,9,45,,40.8746,-73.9097,BROADWAY,WEST 225 STREET,,0.0,0,21.4,0.1,0.1,100.0,9.1,81.0,BRONX,119,SB,40.91097951979918,-73.89662353670386
2020,9,2,17,0,BROOKLYN,40.700726,-73.94194,BROADWAY,FLUSHING AVENUE,,1.0,0,25.7,0.0,0.0,57.0,12.9,207.0,BRONX,129,SB,40.91097951979918,-73.89662353670386
2020,9,2,21,45,,,,HUTCHINSON RIVER PARKWAY,,,1.0,0,25.8,0.0,0.0,19.0,10.0,167.0,BRONX,288,NB,40.8889889357578,-73.81516522160659
2020,9,2,16,30,,40.676144,-73.90524,ATLANTIC AVENUE,,,0.0,0,24.9,0.0,0.0,44.0,9.2,191.0,QUEENS,205,WB,40.68329762666034,-73.8661351866307
2020,9,2,8,45,BROOKLYN,40.698185,-73.9374,BROADWAY,BELVIDERE STREET,,1.0,0,21.4,0.0,0.0,85.0,9.4,92.0,BRONX,91,NB,40.91097951979918,-73.89662353670386
2020,9,2,20,30,MANHATTAN,40.84322,-73.939186,BROADWAY,WEST 171 STREET,,1.0,0,26.1,0.0,0.0,80.0,9.4,182.0,BRONX,125,NB,40.91097951979918,-73.89662353670386
2020,9,2,15,30,QUEENS,40.741295,-73.88029,BROADWAY,WHITNEY AVENUE,,0.0,0,24.2,0.4,0.4,56.0,7.9,177.0,BRONX,159,NB,40.91097951979918,-73.89662353670386
2020,9,2,11,15,,,,HENRY HUDSON PARKWAY,,,0.0,0,21.7,1.8,1.8,86.0,9.0,92.0,BRONX,457,NB,40.90798801957053,-73.88615309164072
2020,9,2,10,45,,40.71906,-73.812126,UNION TURNPIKE,150 STREET,,0.0,0,21.8,2.2,2.2,94.0,9.3,106.0,QUEENS,79,WB,40.752412901306805,-73.70190998615158
2020,9,2,19,0,,40.688988,-73.84591,ATLANTIC AVENUE,97 STREET,,0.0,0,26.3,0.0,0.0,99.0,12.7,209.0,QUEENS,138,WB,40.68329762666034,-73.8661351866307
2020,9,2,14,15,QUEENS,40.74289,-73.882835,BROADWAY,82 STREET,,0.0,0,22.5,0.3,0.3,66.0,6.9,141.0,BRONX,110,SB,40.91097951979918,-73.89662353670386
2020,9,2,12,15,BRONX,40.88437,-73.90105,BROADWAY,WEST 237 STREET,,0.0,0,21.6,1.4,1.4,70.0,9.4,90.0,BRONX,143,SB,40.91097951979918,-73.89662353670386
2020,9,3,12,0,MANHATTAN,40.84691,-73.93824,BROADWAY,WEST 176 STREET,,0.0,0,23.6,0.0,0.0,5.0,10.3,335.0,BRONX,138,NB,40.91097951979918,-73.89662353670386
2020,9,3,16,45,BROOKLYN,40.675632,-73.89878,ATLANTIC AVENUE,GEORGIA AVENUE,,1.0,0,26.2,0.0,0.0,0.0,6.9,313.0,BROOKLYN,215,EB,40.68300864160691,-73.86667078272325
2020,9,3,17,45,,40.78542,-73.98399,HENRY HUDSON PARKWAY,,,0.0,0,27.2,0.0,0.0,0.0,7.6,278.0,BRONX,723,SB,40.90808262981397,-73.88622398840823
2020,9,3,20,30,,40.657555,-73.894196,LINDEN BOULEVARD,MALTA STREET,,0.0,0,28.7,0.0,0.0,5.0,9.2,244.0,BROOKLYN,64,EB,40.67006119081688,-73.85746016799304
2020,9,3,20,15,BROOKLYN,40.677483,-73.93033,ATLANTIC AVENUE,UTICA AVENUE,,1.0,0,28.7,0.0,0.0,5.0,9.2,244.0,QUEENS,107,WB,40.68329762666034,-73.8661351866307
2020,9,3,10,15,QUEENS,40.758972,-73.91901,BROADWAY,STEINWAY STREET,,1.0,0,23.3,0.0,0.0,25.0,10.8,330.0,BRONX,98,SB,40.91097951979918,-73.89662353670386
2020,9,3,10,30,BROOKLYN,,,LINDEN BOULEVARD,MOTHER GASTON BOULEVARD,,0.0,0,23.3,0.0,0.0,25.0,10.8,330.0,BROOKLYN,35,EB,40.67006119081688,-73.85746016799304
2020,9,3,2,30,,40.835808,-73.949455,HENRY HUDSON PARKWAY,,,0.0,0,24.9,0.0,0.0,2.0,8.6,178.0,BRONX,36,NB,40.90798801957053,-73.88615309164072
2020,9,3,4,45,BROOKLYN,40.690758,-73.99624,ATLANTIC AVENUE,HENRY STREET,,0.0,0,24.5,0.5,0.5,21.0,6.9,189.0,QUEENS,21,WB,40.68329762666034,-73.8661351866307
2020,9,3,1,0,QUEENS,40.686447,-73.85485,ATLANTIC AVENUE,87 STREET,,0.0,0,25.1,0.0,0.0,3.0,9.1,173.0,BROOKLYN,25,EB,40.68300864160691,-73.86667078272325
2020,9,3,9,15,BROOKLYN,40.688614,-73.989174,ATLANTIC AVENUE,SMITH STREET,,0.0,0,23.7,0.0,0.0,33.0,8.5,306.0,QUEENS,136,WB,40.68329762666034,-73.8661351866307
2020,9,3,9,15,,40.81053,-73.96207,BROADWAY,,,0.0,0,23.7,0.0,0.0,33.0,8.5,306.0,BRONX,97,SB,40.91097951979918,-73.89662353670386
2020,9,3,3,45,,,,UNION TURNPIKE,141 STREET,,1.0,0,24.6,0.0,0.0,1.0,7.7,191.0,QUEENS,1,WB,40.752412901306805,-73.70190998615158
2020,9,3,3,45,,40.678722,-73.952995,ATLANTIC AVENUE,,,0.0,0,24.6,0.0,0.0,1.0,7.7,191.0,QUEENS,20,WB,40.68329762666034,-73.8661351866307
2020,9,3,11,15,,40.696182,-73.93384,BROADWAY,,,0.0,0,23.2,0.0,0.0,6.0,11.0,337.0,BRONX,117,SB,40.91097951979918,-73.89662353670386
2020,9,3,11,30,,40.835484,-73.9494,HENRY HUDSON PARKWAY,,,0.0,0,23.2,0.0,0.0,6.0,11.0,337.0,BRONX,550,NB,40.90798801957053,-73.88615309164072
2020,9,4,11,45,,40.869316,-73.91674,BROADWAY,,,1.0,0,21.1,0.0,0.0,0.0,9.2,281.0,BRONX,120,NB,40.91097951979918,-73.89662353670386
2020,9,4,14,45,,40.697407,-73.93601,BROADWAY,,,0.0,0,24.7,0.0,0.0,0.0,8.0,306.0,BRONX,109,SB,40.91097951979918,-73.89662353670386
2020,9,4,14,30,BRONX,40.846863,-73.90142,WEBSTER AVENUE,EAST 176 STREET,,0.0,0,24.7,0.0,0.0,0.0,8.0,306.0,BRONX,131,SB,40.899997608955886,-73.86187498270343
2020,9,4,22,45,QUEENS,40.66542,-73.745995,SOUTH CONDUIT AVENUE,230 PLACE,,2.0,0,27.6,0.0,0.0,0.0,10.4,316.0,QUEENS,179,EB,40.66534629165069,-73.72884972179746
2020,9,4,16,0,,40.676647,-73.91647,ATLANTIC AVENUE,,,0.0,0,27.5,0.0,0.0,5.0,9.2,301.0,BROOKLYN,182,EB,40.68300864160691,-73.86667078272325
2020,9,4,16,0,BROOKLYN,40.67628,-73.892166,ATLANTIC AVENUE,MILLER AVENUE,,0.0,0,27.5,0.0,0.0,5.0,9.2,301.0,BROOKLYN,182,EB,40.68300864160691,-73.86667078272325
2020,9,4,16,45,,40.790752,-73.98137,HENRY HUDSON PARKWAY,,,0.0,0,27.5,0.0,0.0,5.0,9.2,301.0,BRONX,988,NB,40.90798801957053,-73.88615309164072
2020,9,4,16,15,MANHATTAN,40.72543,-73.99678,BROADWAY,WEST HOUSTON STREET,,0.0,0,27.5,0.0,0.0,5.0,9.2,301.0,BRONX,131,SB,40.91097951979918,-73.89662353670386
2020,9,4,17,45,,40.79653,-73.97597,HENRY HUDSON PARKWAY,,,0.0,0,28.1,0.0,0.0,7.0,12.1,297.0,BRONX,735,NB,40.90798801957053,-73.88615309164072
2020,9,4,17,45,QUEENS,40.7056,-73.85822,UNION TURNPIKE,WOODHAVEN BOULEVARD,,0.0,0,28.1,0.0,0.0,7.0,12.1,297.0,QUEENS,135,WB,40.752412901306805,-73.70190998615158
2020,9,4,17,45,QUEENS,40.705986,-73.857185,UNION TURNPIKE,MARGARET PLACE,,0.0,0,28.1,0.0,0.0,7.0,12.1,297.0,QUEENS,135,WB,40.752412901306805,-73.70190998615158
2020,9,4,17,0,QUEENS,40.7389,-73.73378,UNION TURNPIKE,WINCHESTER BOULEVARD,,0.0,0,28.1,0.0,0.0,7.0,12.1,297.0,QUEENS,120,WB,40.752412901306805,-73.70190998615158
2020,9,4,15,30,,40.79672,-73.97618,HENRY HUDSON PARKWAY,,,0.0,0,26.8,0.0,0.0,0.0,7.9,309.0,BRONX,944,NB,40.90798801957053,-73.88615309164072
2020,9,4,2,15,,40.829136,-73.9114,WEBSTER AVENUE,,,0.0,0,23.8,0.5,0.5,100.0,6.9,186.0,BRONX,4,NB,40.899997608955886,-73.86187498270343
2020,9,4,23,0,BROOKLYN,40.68777,-73.98701,ATLANTIC AVENUE,HOYT STREET,,1.0,0,27.1,0.0,0.0,0.0,7.4,331.0,QUEENS,71,WB,40.68329762666034,-73.8661351866307
2020,9,4,23,30,,40.86769,-73.92122,BROADWAY,,,0.0,0,27.1,0.0,0.0,0.0,7.4,331.0,BRONX,80,SB,40.91097951979918,-73.89662353670386
2020,9,4,23,30,,40.780136,-73.988266,HENRY HUDSON PARKWAY,,,0.0,0,27.1,0.0,0.0,0.0,7.4,331.0,BRONX,216,SB,40.90808262981397,-73.88622398840823
2020,9,4,21,45,,40.657555,-73.894196,LINDEN BOULEVARD,MALTA STREET,,0.0,0,28.9,0.0,0.0,0.0,11.1,299.0,QUEENS,43,WB,40.67045279104683,-73.85705429845902
2020,9,5,14,15,,40.853874,-73.94049,HENRY HUDSON PARKWAY,,,0.0,0,21.2,0.0,0.0,0.0,7.4,346.0,BRONX,649,NB,40.90798801957053,-73.88615309164072
2020,9,5,0,15,,40.794353,-73.97836,HENRY HUDSON PARKWAY,,,0.0,0,25.3,0.0,0.0,0.0,6.8,342.0,BRONX,137,NB,40.90798801957053,-73.88615309164072
2020,9,6,0,30,,40.89711,-73.908066,HENRY HUDSON PARKWAY,,,0.0,1,23.2,0.0,0.0,0.0,8.8,189.0,BRONX,205,NB,40.90798801957053,-73.88615309164072
2020,9,6,23,0,,40.846466,-73.94516,HENRY HUDSON PARKWAY,,,1.0,0,25.1,0.0,0.0,0.0,11.5,166.0,BRONX,226,SB,40.90808262981397,-73.88622398840823
2020,9,6,9,30,,40.72713,-73.81248,KISSENA BOULEVARD,,,2.0,0,18.2,0.0,0.0,0.0,10.2,231.0,QUEENS,61,WB,40.75806547292641,-73.82876385982689
2020,9,6,17,30,QUEENS,40.75106,-73.872246,37 AVENUE,95 STREET,,1.0,0,25.9,0.0,0.0,0.0,8.0,216.0,QUEENS,117,WB,40.76173579540905,-73.83032200952246
2020,9,6,13,30,QUEENS,40.761547,-73.83113,37 AVENUE,MAIN STREET,,0.0,1,20.1,0.0,0.0,0.0,3.3,229.0,QUEENS,99,WB,40.76173579540905,-73.83032200952246
2020,9,6,22,15,,40.862495,-73.9342,HENRY HUDSON PARKWAY,,,1.0,0,25.7,0.0,0.0,1.0,11.6,173.0,BRONX,294,NB,40.90798801957053,-73.88615309164072
2020,9,7,21,45,QUEENS,40.748962,-73.891754,37 AVENUE,74 STREET,,1.0,0,24.5,0.0,0.0,0.0,16.3,155.0,QUEENS,35,WB,40.76173579540905,-73.83032200952246
2020,9,7,13,15,QUEENS,40.75425,-73.827835,MAIN STREET,FRANKLIN AVENUE,,0.0,0,21.6,0.0,0.0,16.0,8.3,180.0,QUEENS,115,SB,40.75843315655654,-73.82958157078328
2020,9,8,11,0,QUEENS,40.75763,-73.82799,KISSENA BOULEVARD,BARCLAY AVENUE,,1.0,0,19.6,0.0,0.0,100.0,1.4,360.0,QUEENS,68,WB,40.75806547292641,-73.82876385982689
2020,9,8,8,15,,40.747833,-73.83301,COLLEGE POINT BOULEVARD,BOOTH MEMORIAL AVENUE,,0.0,0,19.7,0.0,0.0,2.0,0.5,135.0,QUEENS,105,NB,40.75968090141333,-73.83474301936404
2020,9,9,9,45,,40.752316,-73.8324,COLLEGE POINT BOULEVARD,,,2.0,0,20.5,0.0,0.0,48.0,3.9,112.0,QUEENS,171,NB,40.75752307653875,-73.8340633141307
2020,9,9,0,0,QUEENS,40.754356,-73.83497,SANFORD AVENUE,FULLER PLACE,,0.0,0,23.5,0.0,0.0,0.0,9.2,149.0,QUEENS,11,EB,40.7574307768226,-73.82603386675629
2020,9,9,17,45,,,,KISSENA BOULEVARD,HORACE HARDING EXPRESSWAY,,2.0,0,24.7,0.0,0.0,22.0,5.4,132.0,QUEENS,62,EB,40.75806547292641,-73.82876385982689
2020,9,9,1,0,QUEENS,40.75372,-73.83283,COLLEGE POINT BOULEVARD,MAPLE AVENUE,,0.0,0,23.1,0.0,0.0,0.0,6.4,137.0,QUEENS,26,NB,40.75752307653875,-73.8340633141307
2020,9,9,6,45,QUEENS,40.78419,-73.84582,COLLEGE POINT BOULEVARD,15 AVENUE,,0.0,0,21.5,0.0,0.0,20.0,4.1,128.0,QUEENS,104,SB,40.75752307653875,-73.8340633141307
2020,9,11,11,30,,40.74614,-73.81417,KISSENA BOULEVARD,,,0.0,0,22.2,0.0,0.0,12.0,10.8,2.0,QUEENS,61,WB,40.75806547292641,-73.82876385982689
2020,9,11,8,45,QUEENS,40.728,-73.82244,MAIN STREET,71 AVENUE,,0.0,0,23.5,0.0,0.0,32.0,8.1,347.0,QUEENS,152,NB,40.75925854203928,-73.82998676491403
2020,9,12,16,0,QUEENS,40.75326,-73.864456,37 AVENUE,103 STREET,,0.0,0,20.2,0.0,0.0,86.0,13.7,88.0,QUEENS,164,WB,40.76173579540905,-73.83032200952246
2020,10,3,0,0,BRONX,40.895622,-73.87573,EAST 233 STREET,HERKIMER PLACE,,3.0,0,15.2,0.0,0.0,0.0,9.8,264.0,BRONX,153,EB,40.895012337626525,-73.86244089240748
2020,10,3,23,15,,40.732445,-73.99129,BROADWAY,,,0.0,0,16.6,0.0,0.0,0.0,7.1,300.0,BRONX,15,SB,40.88875880048227,-73.89881818795449
2020,10,3,23,45,MANHATTAN,40.84394,-73.93903,BROADWAY,WEST 172 STREET,,0.0,0,16.6,0.0,0.0,0.0,7.1,300.0,BRONX,37,SB,40.88871456585301,-73.89874259600576
2020,10,3,17,45,MANHATTAN,40.828346,-73.94906,BROADWAY,WEST 148 STREET,,1.0,0,17.8,0.0,0.0,15.0,8.6,272.0,BRONX,29,SB,40.88875880048227,-73.89881818795449
2020,10,3,3,45,,40.834198,-73.85169,WESTCHESTER AVENUE,CASTLE HILL AVENUE,,0.0,0,12.9,0.0,0.0,0.0,12.4,296.0,BRONX,8,SB,40.85306601686836,-73.82728611700175
2020,10,3,13,30,BRONX,40.90244,-73.842735,EAST 241 STREET,MONTICELLO AVENUE,,0.0,0,12.5,0.0,0.0,0.0,9.5,331.0,BRONX,105,WB,40.90443165038607,-73.85255882132002
2020,10,3,15,45,BRONX,40.88955,-73.84524,EAST 233 STREET,ELY AVENUE,,2.0,0,16.3,0.0,0.0,0.0,4.8,318.0,BRONX,319,WB,40.895012337626525,-73.86244089240748
2020,10,3,5,45,BRONX,40.85093,-73.83001,WESTCHESTER AVENUE,SANDS PLACE,,1.0,0,12.3,0.0,0.0,0.0,10.7,303.0,BRONX,48,SB,40.85306601686836,-73.82728611700175
2020,10,4,5,0,BRONX,40.9102,-73.896614,BROADWAY,WEST 262 STREET,,1.0,0,11.7,0.0,0.0,0.0,8.7,17.0,BRONX,23,NB,40.90783572218552,-73.89655418268748
2020,10,4,5,30,BRONX,40.86539,-73.88684,WEBSTER AVENUE,EAST 197 STREET,,0.0,0,11.7,0.0,0.0,0.0,8.7,17.0,BRONX,30,SB,40.89590743991521,-73.86322488360126
2020,10,4,20,30,MANHATTAN,40.71137,-74.00862,BROADWAY,VESEY STREET,,0.0,0,18.5,0.0,0.0,77.0,10.9,107.0,BRONX,97,NB,40.88867430931019,-73.8985701786462
2020,10,4,18,0,QUEENS,40.754276,-73.90902,BROADWAY,51 STREET,,0.0,0,18.4,0.0,0.0,98.0,9.7,105.0,BRONX,92,SB,40.88871456585301,-73.89874259600576
2020,10,4,0,0,,40.67689,-73.900055,BROADWAY,JAMAICA AVENUE,,1.0,0,15.5,0.0,0.0,0.0,6.6,315.0,BRONX,67,NB,40.88867430931019,-73.8985701786462
2020,10,4,0,0,BRONX,,,EAST FORDHAM ROAD,SOUTHERN BOULEVARD,,0.0,0,15.5,0.0,0.0,0.0,6.6,315.0,BRONX,167,EB,40.85553055528957,-73.8758834623486
2020,10,4,17,30,,40.699036,-73.9389,BROADWAY,,,0.0,0,18.0,0.0,0.0,96.0,8.4,97.0,BRONX,106,SB,40.90783572218552,-73.89655418268748
2020,10,4,14,15,,40.76974,-73.982124,BROADWAY,,,0.0,0,14.4,0.0,0.0,0.0,8.9,58.0,BRONX,123,SB,40.90783572218552,-73.89655418268748
2020,10,4,1,15,,40.748547,-73.89584,BROADWAY,,,0.0,0,14.9,0.0,0.0,0.0,5.8,338.0,BRONX,40,SB,40.90783572218552,-73.89655418268748
2020,10,4,21,15,,40.841076,-73.93977,BROADWAY,,,0.0,0,18.2,0.0,0.0,29.0,9.8,96.0,BRONX,37,SB,40.88871456585301,-73.89874259600576
2020,10,5,14,30,BRONX,40.894314,-73.86027,EAST 233 STREET,CARPENTER AVENUE,,0.0,0,15.0,0.0,0.0,2.0,8.1,13.0,BRONX,272,EB,40.895012337626525,-73.86244089240748
2020,10,5,14,15,,40.69149,-73.92557,BROADWAY,,,0.0,0,15.0,0.0,0.0,2.0,8.1,13.0,BRONX,154,SB,40.90783572218552,-73.89655418268748
2020,10,5,9,45,,40.868473,-73.842415,EASTCHESTER ROAD,EAST GUN HILL ROAD,,0.0,0,12.9,0.0,0.0,2.0,10.2,350.0,BRONX,83,NB,40.87544547292265,-73.84550500730373
2020,10,5,13,45,,40.844524,-73.902725,WEBSTER AVENUE,CROSS BRONX EXPRESSWAY,,0.0,0,13.4,0.0,0.0,1.0,9.0,358.0,BRONX,121,SB,40.89590743991521,-73.86322488360126
2020,10,5,13,30,BRONX,40.83394,-73.9087,WEBSTER AVENUE,EAST 169 STREET,,0.0,0,13.4,0.0,0.0,1.0,9.0,358.0,BRONX,86,SB,40.88168997434197,-73.87030066373146
2020,10,5,23,15,,40.8623,-73.92943,BROADWAY,,,0.0,0,16.4,0.0,0.0,3.0,7.7,127.0,BRONX,62,NB,40.90783572218552,-73.89655418268748
2020,10,6,21,15,MANHATTAN,40.86464,-73.92891,BROADWAY,ARDEN STREET,,1.0,0,20.1,0.0,0.0,0.0,11.5,224.0,BRONX,74,NB,40.88867430931019,-73.8985701786462
2020,10,6,16,15,BRONX,40.8305,-73.861626,WHITE PLAINS ROAD,GLEASON AVENUE,,0.0,0,18.3,0.0,0.0,23.0,12.0,231.0,BRONX,91,SB,40.88121911868811,-73.86462909840256
2020,10,6,14,45,BRONX,40.85819,-73.88435,EAST FORDHAM ROAD,HUGHES AVENUE,,0.0,0,14.9,0.0,0.0,0.0,7.3,237.0,BRONX,658,EB,40.85553055528957,-73.8758834623486
2020,10,6,17,45,BRONX,40.83228,-73.90963,WEBSTER AVENUE,EAST 168 STREET,,1.0,0,19.1,0.0,0.0,49.0,12.5,226.0,BRONX,80,NB,40.88168997434197,-73.87030066373146
2020,10,6,23,0,BRONX,40.869694,-73.86723,WHITE PLAINS ROAD,ADEE AVENUE,,1.0,0,17.9,0.0,0.0,0.0,9.5,205.0,BRONX,48,SB,40.88121911868811,-73.86462909840256
2020,10,6,8,30,,40.830845,-73.947235,BROADWAY,,,0.0,0,14.2,0.0,0.0,9.0,4.4,189.0,BRONX,37,SB,40.88875880048227,-73.89881818795449
2020,10,6,20,45,,40.795963,-73.97084,BROADWAY,,,1.0,0,20.4,0.0,0.0,1.0,13.5,224.0,BRONX,30,SB,40.88875880048227,-73.89881818795449
2020,10,7,17,30,,40.86235,-73.89997,EAST FORDHAM ROAD,MORRIS AVENUE,,1.0,0,21.9,0.0,0.0,0.0,23.2,234.0,BRONX,556,EB,40.85553055528957,-73.8758834623486
2020,10,7,17,15,BRONX,40.865925,-73.88594,WEBSTER AVENUE,EAST 198 STREET,,1.0,0,21.9,0.0,0.0,0.0,23.2,234.0,BRONX,107,SB,40.88168997434197,-73.87030066373146
2020,10,7,16,0,,40.851433,-73.93509,BROADWAY,,,0.0,0,21.3,0.0,0.0,0.0,21.7,238.0,BRONX,44,SB,40.88875880048227,-73.89881818795449
2020,10,7,16,0,MANHATTAN,40.713055,-74.00723,BROADWAY,MURRAY STREET,,1.0,0,21.3,0.0,0.0,0.0,21.7,238.0,BRONX,44,SB,40.88875880048227,-73.89881818795449
2020,10,7,16,15,BRONX,40.862755,-73.901085,EAST FORDHAM ROAD,JEROME AVENUE,,0.0,0,21.3,0.0,0.0,0.0,21.7,238.0,BRONX,595,EB,40.85553055528957,-73.8758834623486
2020,10,7,19,0,MANHATTAN,40.712532,-74.007675,BROADWAY,PARK PLACE,,1.0,0,23.0,0.0,0.0,0.0,24.5,240.0,BRONX,134,NB,40.88867430931019,-73.8985701786462
2020,10,8,13,15,BRONX,,,WHITE PLAINS ROAD,CROSS BRONX EXPRESSWAY,,0.0,0,13.8,0.0,0.0,0.0,17.4,300.0,BRONX,94,SB,40.88121911868811,-73.86462909840256
2020,10,8,13,30,MANHATTAN,40.723022,-73.99882,BROADWAY,SPRING STREET,,1.0,0,13.8,0.0,0.0,0.0,17.4,300.0,BRONX,92,SB,40.88871456585301,-73.89874259600576
2020,10,8,13,30,,40.83468,-73.944435,BROADWAY,,,0.0,0,13.8,0.0,0.0,0.0,17.4,300.0,BRONX,92,SB,40.88871456585301,-73.89874259600576
2020,10,8,11,15,MANHATTAN,40.815117,-73.95871,BROADWAY,TIEMANN PLACE,,0.0,0,13.1,0.0,0.0,1.0,15.3,289.0,BRONX,36,SB,40.88875880048227,-73.89881818795449
2020,10,8,12,45,,40.905968,-73.90434,RIVERDALE AVENUE,,,0.0,0,13.3,0.0,0.0,1.0,13.6,287.0,BRONX,151,SB,40.888520045187086,-73.90777462251019
2020,10,8,20,30,,40.888577,-73.82814,EAST 233 STREET,PROVOST AVENUE,,1.0,0,17.8,0.0,0.0,0.0,24.2,311.0,BRONX,179,WB,40.895012337626525,-73.86244089240748
2020,10,9,23,15,,40.844486,-73.846245,EASTCHESTER ROAD,,,1.0,0,18.0,0.0,0.0,0.0,10.1,207.0,BRONX,46,NB,40.87544547292265,-73.84550500730373
2020,10,9,16,30,BROOKLYN,40.694313,-73.93052,BROADWAY,DODWORTH STREET,,1.0,0,16.7,0.0,0.0,3.0,4.5,241.0,BRONX,208,NB,40.90783572218552,-73.89655418268748
2020,10,9,17,0,MANHATTAN,40.728413,-73.99426,BROADWAY,EAST 4 STREET,,0.0,0,18.2,0.0,0.0,15.0,8.1,249.0,BRONX,168,SB,40.90783572218552,-73.89655418268748
2020,10,10,5,0,,40.877068,-73.906105,BROADWAY,,,0.0,0,14.9,0.0,0.0,0.0,15.9,218.0,BRONX,26,SB,40.90783572218552,-73.89655418268748
2020,10,10,13,15,BRONX,40.833664,-73.8981,CROTONA AVENUE,EAST 170 STREET,,0.0,0,15.6,0.0,0.0,0.0,15.8,215.0,BRONX,65,SB,40.839628521575065,-73.89581683167883
2020,10,10,13,0,BRONX,40.846226,-73.89044,CROTONA AVENUE,EAST 178 STREET,,0.0,0,15.6,0.0,0.0,0.0,15.8,215.0,BRONX,91,NB,40.839628521575065,-73.89581683167883
2020,10,10,0,0,BRONX,40.895374,-73.86356,EAST 233 STREET,WEBSTER AVENUE,,0.0,0,17.7,0.0,0.0,0.0,13.1,217.0,BRONX,85,WB,40.895012337626525,-73.86244089240748
2020,10,10,17,45,BRONX,40.84292,-73.8494,EAST TREMONT AVENUE,MONTGOMERY PLACE,,0.0,0,20.3,0.0,0.0,0.0,17.4,220.0,BRONX,189,EB,40.83997674504032,-73.87804747473912
2020,10,10,20,45,BRONX,40.862755,-73.901085,EAST FORDHAM ROAD,JEROME AVENUE,,1.0,0,21.6,0.0,0.0,0.0,18.8,216.0,BRONX,403,WB,40.855625613631446,-73.87583796479586
2020,10,10,23,30,,40.84518,-73.91417,JEROME AVENUE,,,0.0,0,20.1,0.0,0.0,0.0,16.4,209.0,BRONX,44,EB,40.879837340115074,-73.88455859529336
2020,10,10,12,45,,,,SOUTHERN BOULEVARD,,,0.0,0,14.6,0.0,0.0,0.0,16.1,220.0,BRONX,133,NB,40.85712793005272,-73.88074472464541
2020,10,10,12,0,,40.749714,-73.93617,NORTHERN BOULEVARD,,,1.0,0,14.6,0.0,0.0,0.0,16.1,220.0,QUEENS,257,EB,40.757811104786526,-73.79076849949568
2020,10,10,21,45,BRONX,40.821068,-73.89894,WESTCHESTER AVENUE,EAST 163 STREET,,1.0,0,21.4,0.0,0.0,0.0,17.2,213.0,BRONX,121,EB,40.82713581461271,-73.88712269519081
2020,10,10,22,0,QUEENS,40.68899,-73.81707,LIBERTY AVENUE,128 STREET,,1.0,0,20.4,0.0,0.0,0.0,13.0,204.0,QUEENS,100,WB,40.69566668380388,-73.80511045808521
2020,10,10,2,15,,40.828075,-73.88543,WESTCHESTER AVENUE,SHERIDAN EXPRESSWAY,,4.0,0,16.7,0.0,0.0,0.0,16.8,225.0,BRONX,30,WB,40.82713581461271,-73.88712269519081
2020,10,10,8,15,BRONX,40.8518,-73.909225,EAST TREMONT AVENUE,JEROME AVENUE,,1.0,0,14.3,0.0,0.0,0.0,17.7,218.0,BRONX,73,WB,40.83997674504032,-73.87804747473912
2020,10,10,1,15,MANHATTAN,40.76889,-73.9821,BROADWAY,WEST 60 STREET,,0.0,0,17.5,0.0,0.0,0.0,16.1,222.0,BRONX,29,SB,40.90783572218552,-73.89655418268748
2020,10,10,1,45,BRONX,40.867878,-73.893005,GRAND CONCOURSE,EAST 196 STREET,,0.0,0,17.5,0.0,0.0,0.0,16.1,222.0,BRONX,34,SB,40.842653905401065,-73.91212187307838
2020,10,10,1,30,BRONX,40.84292,-73.8494,EAST TREMONT AVENUE,MONTGOMERY PLACE,,0.0,0,17.5,0.0,0.0,0.0,16.1,222.0,BRONX,69,EB,40.83997674504032,-73.87804747473912
2020,10,10,10,45,QUEENS,40.70456,-73.856735,WOODHAVEN BOULEVARD,81 ROAD,,0.0,0,14.2,0.0,0.0,0.0,15.0,222.0,QUEENS,232,NB,40.68547387920588,-73.84663379260473
2020,10,11,18,15,,,,EAST TREMONT AVENUE,BOSTON ROAD,,0.0,0,17.7,0.0,0.0,100.0,11.2,57.0,BRONX,154,EB,40.83997674504032,-73.87804747473912
2020,10,11,19,30,QUEENS,40.68467,-73.76827,120 AVENUE,ROE ROAD,,1.0,0,17.7,0.0,0.0,100.0,10.3,61.0,QUEENS,47,WB,40.6877811002365,-73.75751366831136
2020,10,11,11,30,,40.773037,-73.79566,FRANCIS LEWIS BOULEVARD,,,0.0,0,16.6,0.0,0.0,9.0,8.4,340.0,QUEENS,92,SB,40.73779600312671,-73.77354513690918
2020,10,11,1,15,BRONX,40.877876,-73.86596,WHITE PLAINS ROAD,EAST 211 STREET,,0.0,0,19.6,0.0,0.0,0.0,17.3,228.0,BRONX,32,NB,40.880983194466495,-73.86418500311738
2020,10,11,23,15,BRONX,40.853344,-73.881676,SOUTHERN BOULEVARD,EAST 187 STREET,,0.0,0,16.6,0.0,0.0,100.0,9.4,88.0,BRONX,68,SB,40.8571942114816,-73.88088184052206
2020,10,11,23,45,BRONX,40.837715,-73.845566,WESTCHESTER AVENUE,ROWLAND STREET,,0.0,0,16.6,0.0,0.0,100.0,9.4,88.0,BRONX,64,WB,40.82713581461271,-73.88712269519081
2020,10,11,22,30,,40.795326,-73.971306,BROADWAY,,,0.0,0,16.9,0.0,0.0,100.0,6.4,63.0,BRONX,72,NB,40.88867430931019,-73.8985701786462
2020,10,11,22,45,BRONX,40.83611,-73.92238,JEROME AVENUE,EAST 167 STREET,,2.0,0,16.9,0.0,0.0,100.0,6.4,63.0,BRONX,37,EB,40.879837340115074,-73.88455859529336
2020,10,11,22,45,BRONX,40.837864,-73.9114,EAST 170 STREET,MORRIS AVENUE,,1.0,0,16.9,0.0,0.0,100.0,6.4,63.0,BRONX,23,WB,40.83802547415604,-73.91182166607855
2020,10,11,22,45,BRONX,40.832214,-73.90344,EAST 169 STREET,FULTON AVENUE,,1.0,0,16.9,0.0,0.0,100.0,6.4,63.0,BRONX,46,WB,40.83031060940712,-73.89906885962424
2020,10,11,7,45,QUEENS,40.74152,-73.904594,QUEENS BOULEVARD,60 STREET,,0.0,0,18.1,0.0,0.0,7.0,11.9,265.0,QUEENS,17,EB,40.714023872438766,-73.83070138133681
2020,10,12,15,45,BRONX,40.818058,-73.90501,WESTCHESTER AVENUE,TINTON AVENUE,,0.0,0,11.7,0.6,0.6,100.0,21.9,60.0,BRONX,143,EB,40.82713581461271,-73.88712269519081
2020,10,12,15,15,QUEENS,40.746033,-73.93441,QUEENS BOULEVARD,SKILLMAN AVENUE,,0.0,0,11.7,0.6,0.6,100.0,21.9,60.0,QUEENS,212,EB,40.71407875048589,-73.83064010300787
2020,10,12,19,30,,40.823456,-73.92444,GRAND CONCOURSE,,,6.0,0,12.6,0.0,0.0,100.0,22.3,59.0,BRONX,85,NB,40.85983553397648,-73.89833189908187
2020,10,12,18,0,,,,CROSS BAY BOULEVARD,NORTH CHANNEL BRIDGE,,0.0,0,12.5,0.1,0.1,100.0,21.8,59.0,QUEENS,133,NB,40.63513408914663,-73.83008482331194
2020,10,12,18,0,QUEENS,40.758026,-73.85776,NORTHERN BOULEVARD,112 STREET,,2.0,0,12.5,0.1,0.1,100.0,21.8,59.0,QUEENS,178,WB,40.757811104786526,-73.79076849949568
2020,10,12,18,45,QUEENS,40.765358,-73.74429,NORTHERN BOULEVARD,DOUGLASTON PARKWAY,,1.0,0,12.5,0.1,0.1,100.0,21.8,59.0,QUEENS,212,EB,40.757811104786526,-73.79076849949568
2020,10,12,18,45,QUEENS,40.672146,-73.84318,CROSS BAY BOULEVARD,PITKIN AVENUE,,2.0,0,12.5,0.1,0.1,100.0,21.8,59.0,QUEENS,116,NB,40.63513408914663,-73.83008482331194
2020,10,12,12,30,,40.72293,-73.847336,QUEENS BOULEVARD,YELLOWSTONE BOULEVARD,,0.0,0,11.2,0.9,0.9,100.0,18.2,51.0,QUEENS,119,EB,40.71407875048589,-73.83064010300787
2020,10,12,21,30,,40.71906,-73.812126,UNION TURNPIKE,150 STREET,,2.0,0,12.8,0.0,0.0,100.0,19.4,50.0,QUEENS,20,EB,40.75231560307869,-73.70183221541632
2020,10,12,13,30,QUEENS,40.702595,-73.8553,WOODHAVEN BOULEVARD,MYRTLE AVENUE,,0.0,0,11.2,0.9,0.9,99.0,19.2,50.0,QUEENS,276,NB,40.68547387920588,-73.84663379260473
2020,10,12,20,15,,,,EAST FORDHAM ROAD,BRONX RIVER PARKWAY,,0.0,0,12.7,0.0,0.0,100.0,20.3,53.0,BRONX,264,WB,40.855625613631446,-73.87583796479586
2020,10,12,4,30,BRONX,40.856743,-73.89527,WEBSTER AVENUE,EAST 184 STREET,,1.0,0,14.7,0.7,0.7,100.0,17.4,84.0,BRONX,38,SB,40.84252768540179,-73.90384248224866
2020,10,12,4,15,BRONX,40.812664,-73.906334,EAST 149 STREET,TINTON AVENUE,,1.0,0,14.7,0.7,0.7,100.0,17.4,84.0,BRONX,22,EB,40.81376885904009,-73.91143509168012
2020,10,13,6,45,BRONX,40.83988,-73.916794,EAST 170 STREET,TOWNSEND AVENUE,,1.0,0,13.3,0.0,0.0,100.0,22.5,58.0,BRONX,21,WB,40.83802547415604,-73.91182166607855
2020,10,13,6,45,,,,108 STREET,HARDING EXPRESSWAY,,0.0,0,13.3,0.0,0.0,100.0,22.5,58.0,QUEENS,71,SB,40.7368050475482,-73.85158921036636
2020,10,13,12,0,BRONX,40.875755,-73.835724,BAYCHESTER AVENUE,BURKE AVENUE,,0.0,0,13.8,0.1,0.1,100.0,20.6,33.0,BRONX,52,NB,40.86462210987978,-73.82981519124999
2020,10,13,12,45,BRONX,40.837864,-73.9114,EAST 170 STREET,MORRIS AVENUE,,2.0,0,13.8,0.1,0.1,100.0,20.6,33.0,BRONX,64,WB,40.83810824783708,-73.9117733613712
2020,10,13,9,0,QUEENS,40.66252,-73.84071,CROSS BAY BOULEVARD,157 AVENUE,,0.0,0,13.4,0.0,0.0,100.0,23.4,53.0,QUEENS,178,NB,40.63513408914663,-73.83008482331194
2020,10,13,9,15,BRONX,40.86038,-73.88889,EAST FORDHAM ROAD,WASHINGTON AVENUE,,3.0,0,13.4,0.0,0.0,100.0,23.4,53.0,BRONX,485,WB,40.855625613631446,-73.87583796479586
2020,10,13,17,45,BRONX,40.828598,-73.921745,GRAND CONCOURSE,EAST 163 STREET,,0.0,0,14.8,0.0,0.0,100.0,16.5,349.0,BRONX,125,NB,40.85983553397648,-73.89833189908187
2020,10,13,17,15,BRONX,,,EAST GUN HILL ROAD,WHITE PLAINS ROAD,,0.0,0,14.8,0.0,0.0,100.0,16.5,349.0,BRONX,281,WB,40.87827827768546,-73.87001729057403
2020,10,13,18,30,,40.680744,-73.84225,LIBERTY AVENUE,,,1.0,0,14.9,0.0,0.0,100.0,17.1,338.0,QUEENS,123,EB,40.69566668380388,-73.80511045808521
2020,10,13,8,30,BRONX,40.842644,-73.85181,EAST TREMONT AVENUE,PAULDING AVENUE,,0.0,0,13.2,0.0,0.0,100.0,23.4,53.0,BRONX,133,EB,40.83997674504032,-73.87804747473912
2020,10,13,8,30,QUEENS,40.72028,-73.86548,WOODHAVEN BOULEVARD,FURMANVILLE AVENUE,,0.0,0,13.2,0.0,0.0,100.0,23.4,53.0,QUEENS,7,NB,40.71007431948616,-73.85949991307288
2020,10,13,10,15,QUEENS,40.596325,-73.76673,SEAGIRT BOULEVARD,ROCKAWAY FREEWAY,,0.0,0,13.7,0.2,0.2,100.0,19.2,28.0,QUEENS,136,WB,40.59689363746909,-73.74300162455272
2020,10,13,15,0,BRONX,40.84944,-73.906006,EAST TREMONT AVENUE,GRAND CONCOURSE,,1.0,0,14.7,0.1,0.1,100.0,16.3,5.0,BRONX,147,WB,40.83997674504032,-73.87804747473912
2020,10,13,15,45,BRONX,40.824352,-73.82022,EAST TREMONT AVENUE,SCHLEY AVENUE,,0.0,0,14.7,0.1,0.1,100.0,16.3,5.0,BRONX,208,EB,40.83997674504032,-73.87804747473912
2020,10,13,15,15,QUEENS,40.750023,-73.70631,UNION TURNPIKE,267 STREET,,1.0,0,14.7,0.1,0.1,100.0,16.3,5.0,QUEENS,76,WB,40.75241063689472,-73.70191393421905
2020,10,13,5,45,QUEENS,40.73093,-73.864586,QUEENS BOULEVARD,62 DRIVE,,0.0,0,13.3,0.0,0.0,100.0,21.9,60.0,QUEENS,178,WB,40.71418569849135,-73.83048145926848
2020,10,13,5,45,,40.86221,-73.89965,EAST FORDHAM ROAD,,,2.0,0,13.3,0.0,0.0,100.0,21.9,60.0,BRONX,214,WB,40.855625613631446,-73.87583796479586
2020,10,14,15,45,BRONX,40.83955,-73.91595,EAST 170 STREET,WALTON AVENUE,,0.0,0,16.6,0.0,0.0,0.0,8.7,253.0,BRONX,77,WB,40.83810824783708,-73.9117733613712
2020,10,14,17,45,QUEENS,40.68877,-73.83017,101 AVENUE,114 STREET,,0.0,0,18.6,0.0,0.0,0.0,11.3,243.0,QUEENS,71,WB,40.69583830965821,-73.80533646638568
2020,10,14,17,30,,40.860577,-73.90255,JEROME AVENUE,,,0.0,0,18.6,0.0,0.0,0.0,11.3,243.0,BRONX,131,WB,40.879837340115074,-73.88455859529336
2020,10,14,5,45,,40.702293,-73.79117,LIBERTY AVENUE,MERRICK BOULEVARD,,1.0,0,13.1,0.0,0.0,0.0,13.8,309.0,QUEENS,97,EB,40.69566668380388,-73.80511045808521
2020,10,14,9,15,,40.84518,-73.91417,JEROME AVENUE,,,0.0,0,10.6,0.0,0.0,0.0,12.3,308.0,BRONX,59,EB,40.879837340115074,-73.88455859529336
2020,10,14,10,45,BRONX,40.846657,-73.89619,EAST TREMONT AVENUE,3 AVENUE,,1.0,0,10.3,0.0,0.0,0.0,11.5,309.0,BRONX,114,WB,40.83997674504032,-73.87804747473912
2020,10,14,12,15,BRONX,40.825798,-73.88972,WESTCHESTER AVENUE,FAILE STREET,,0.0,0,10.5,0.0,0.0,0.0,9.7,274.0,BRONX,183,EB,40.82713581461271,-73.88712269519081
2020,10,14,19,45,BRONX,40.82419,-73.91385,EAST 161 STREET,MELROSE AVENUE,,0.0,0,19.8,0.0,0.0,1.0,12.9,234.0,BRONX,29,EB,40.82204011550232,-73.90782589681655
2020,10,14,19,15,,,,CROSS BAY BOULEVARD,BEACH CHANNEL DR,,1.0,0,19.8,0.0,0.0,1.0,12.9,234.0,QUEENS,98,NB,40.63513408914663,-73.83008482331194
2020,10,14,18,0,QUEENS,40.67922,-73.86141,LIBERTY AVENUE,76 STREET,,0.0,0,19.1,0.0,0.0,0.0,11.5,238.0,QUEENS,147,WB,40.69566668380388,-73.80511045808521
2020,10,14,18,45,QUEENS,40.756847,-73.873116,NORTHERN BOULEVARD,95 STREET,,0.0,0,19.1,0.0,0.0,0.0,11.5,238.0,QUEENS,275,EB,40.757811104786526,-73.79076849949568
2020,10,14,23,30,QUEENS,40.757824,-73.86101,108 STREET,NORTHERN BOULEVARD,,2.0,0,16.9,0.0,0.0,0.0,10.7,213.0,QUEENS,14,NB,40.7368050475482,-73.85158921036636
2020,10,14,7,45,BRONX,40.84744,-73.89968,EAST TREMONT AVENUE,PARK AVENUE,,0.0,0,12.0,0.0,0.0,0.0,13.9,307.0,BRONX,171,EB,40.83997674504032,-73.87804747473912
2020,10,14,13,45,QUEENS,40.68231,-73.84495,WOODHAVEN BOULEVARD,103 AVENUE,,1.0,0,11.9,0.0,0.0,0.0,9.0,272.0,QUEENS,556,NB,40.71007431948616,-73.85949991307288
2020,10,15,13,0,,40.753677,-73.914474,NORTHERN BOULEVARD,48 STREET,,0.0,0,14.3,0.0,0.0,0.0,11.8,192.0,QUEENS,242,EB,40.757811104786526,-73.79076849949568
2020,10,15,13,15,BRONX,,,EAST FORDHAM ROAD,PELHAM PARKWAY,,0.0,0,14.3,0.0,0.0,0.0,11.8,192.0,BRONX,541,WB,40.855625613631446,-73.87583796479586
2020,10,15,10,0,BRONX,40.820984,-73.891624,EAST 163 STREET,SOUTHERN BOULEVARD,,1.0,0,11.2,0.0,0.0,0.0,8.4,200.0,BRONX,114,EB,40.82369315905197,-73.90722337227913
2020,10,15,11,0,QUEENS,40.69242,-73.85151,WOODHAVEN BOULEVARD,88 AVENUE,,1.0,0,11.4,0.0,0.0,0.0,9.5,191.0,QUEENS,66,SB,40.68541893988083,-73.84686491461736
2020,10,15,12,15,,40.87049,-73.89043,GRAND CONCOURSE,,,0.0,0,12.0,0.0,0.0,0.0,12.1,190.0,BRONX,98,SB,40.859937986091246,-73.89870885811763
2020,10,15,14,15,QUEENS,40.711845,-73.859764,WOODHAVEN BOULEVARD,METROPOLITAN AVENUE,,1.0,0,16.8,0.0,0.0,0.0,14.0,192.0,QUEENS,596,NB,40.71007431948616,-73.85949991307288
2020,10,15,14,45,QUEENS,40.743263,-73.91964,QUEENS BOULEVARD,45 STREET,,0.0,0,16.8,0.0,0.0,0.0,14.0,192.0,QUEENS,101,EB,40.714023872438766,-73.83070138133681
2020,10,15,17,45,,,,CROSS BAY BOULEVARD,SHORE PARKWAY,,0.0,0,21.7,0.0,0.0,0.0,21.8,188.0,QUEENS,145,NB,40.63513408914663,-73.83008482331194
2020,10,15,17,15,BRONX,40.8617,-73.89139,EAST FORDHAM ROAD,WEBSTER AVENUE,,1.0,0,21.7,0.0,0.0,0.0,21.8,188.0,BRONX,567,WB,40.855625613631446,-73.87583796479586
2020,10,15,17,15,,40.86309,-73.88946,WEBSTER AVENUE,,,1.0,0,21.7,0.0,0.0,0.0,21.8,188.0,BRONX,150,SB,40.84252768540179,-73.90384248224866
2020,10,15,20,15,BRONX,40.859646,-73.86176,ASTOR AVENUE,BRONXWOOD AVENUE,,1.0,0,21.7,0.0,0.0,0.0,22.0,175.0,BRONX,28,EB,40.859624706882656,-73.86378977233605
2020,10,15,20,0,,40.848114,-73.901474,EAST TREMONT AVENUE,VALENTINE AVENUE,,0.0,0,21.7,0.0,0.0,0.0,22.0,175.0,BRONX,98,WB,40.83997674504032,-73.87804747473912
2020,10,15,9,30,QUEENS,,,SEAGIRT BOULEVARD,BEACH 17,,0.0,0,12.4,0.0,0.0,0.0,7.6,199.0,QUEENS,166,EB,40.59669184876589,-73.7431261831425
2020,10,15,22,0,BRONX,40.83168,-73.82712,EAST TREMONT AVENUE,GREENE PLACE,,0.0,0,19.3,0.0,0.0,1.0,19.2,175.0,BRONX,95,EB,40.83997674504032,-73.87804747473912
2020,10,15,19,0,QUEENS,40.7684,-73.73755,NORTHERN BOULEVARD,MARATHON PARKWAY,,0.0,0,22.1,0.0,0.0,0.0,23.4,179.0,QUEENS,212,EB,40.757811104786526,-73.79076849949568
2020,10,15,19,45,,40.69125,-73.85087,WOODHAVEN BOULEVARD,,,1.0,0,22.1,0.0,0.0,0.0,23.4,179.0,QUEENS,5,NB,40.71007431948616,-73.85949991307288
2020,10,15,8,0,,,,EAST FORDHAM ROAD,BRONX RIVER PARKWAY,,1.0,0,12.6,0.0,0.0,0.0,8.0,207.0,BRONX,501,WB,40.855625613631446,-73.87583796479586
2020,10,15,16,30,QUEENS,40.743156,-73.91871,QUEENS BOULEVARD,46 STREET,,2.0,0,20.7,0.0,0.0,0.0,18.7,191.0,QUEENS,192,WB,40.71418569849135,-73.83048145926848
2020,10,15,16,15,QUEENS,40.760254,-73.76935,NORTHERN BOULEVARD,BELL BOULEVARD,,0.0,0,20.7,0.0,0.0,0.0,18.7,191.0,QUEENS,360,EB,40.762686573944,-73.83496211883678
2020,10,15,16,45,,40.862755,-73.901085,EAST FORDHAM ROAD,,,1.0,0,20.7,0.0,0.0,0.0,18.7,191.0,BRONX,469,WB,40.855625613631446,-73.87583796479586
2020,10,15,16,0,BRONX,40.878643,-73.871605,EAST GUN HILL ROAD,WEBSTER AVENUE,,1.0,0,20.7,0.0,0.0,0.0,18.7,191.0,BRONX,279,EB,40.87827827768546,-73.87001729057403
2020,10,15,5,45,,40.858433,-73.885124,EAST FORDHAM ROAD,,,1.0,0,13.1,0.0,0.0,0.0,8.2,221.0,BRONX,237,WB,40.855625613631446,-73.87583796479586
2020,10,15,7,30,,,,NORTHERN BOULEVARD,68 STREET,,0.0,0,12.9,0.0,0.0,0.0,7.9,204.0,QUEENS,212,EB,40.762686573944,-73.83496211883678
2020,10,16,14,15,BRONX,40.83236,-73.82768,EAST TREMONT AVENUE,OTIS AVENUE,,1.0,0,15.6,0.4,0.4,100.0,17.4,333.0,BRONX,144,WB,40.83997674504032,-73.87804747473912
2020,10,16,20,0,QUEENS,40.7056,-73.85822,UNION TURNPIKE,WOODHAVEN BOULEVARD,,5.0,0,12.8,3.2,3.2,25.0,9.9,316.0,QUEENS,48,EB,40.75231560307869,-73.70183221541632
2020,10,16,20,30,,40.843765,-73.88546,SOUTHERN BOULEVARD,,,1.0,0,12.8,3.2,3.2,25.0,9.9,316.0,BRONX,47,NB,40.85712793005272,-73.88074472464541
2020,10,16,20,45,BRONX,40.823467,-73.91622,COURTLANDT AVENUE,EAST 159 STREET,,1.0,0,12.8,3.2,3.2,25.0,9.9,316.0,BRONX,39,NB,40.81990168376606,-73.9180490867872
2020,10,16,8,45,BRONX,40.844715,-73.91228,EAST 174 STREET,WALTON AVENUE,,0.0,0,17.2,0.2,0.2,21.0,10.8,206.0,BRONX,68,WB,40.83690365414482,-73.886351797655
2020,10,16,18,0,BRONX,40.84434,-73.91475,JEROME AVENUE,EAST MOUNT EDEN AVENUE,,0.0,0,13.0,5.3,5.3,95.0,10.2,315.0,BRONX,69,EB,40.879837340115074,-73.88455859529336
2020,10,16,18,0,,40.825573,-73.918465,MORRIS AVENUE,,,1.0,0,13.0,5.3,5.3,95.0,10.2,315.0,BRONX,76,NB,40.84344887579163,-73.90949580254431
2020,10,16,17,15,QUEENS,40.681145,-73.84013,LIBERTY AVENUE,100 STREET,,1.0,0,13.1,4.4,4.4,100.0,9.5,335.0,QUEENS,108,EB,40.69566668380388,-73.80511045808521
2020,10,16,6,45,BRONX,40.8733,-73.853645,EAST GUN HILL ROAD,BOSTON ROAD,,1.0,0,17.3,0.0,0.0,8.0,12.3,187.0,BRONX,164,EB,40.87827827768546,-73.87001729057403
2020,10,16,11,45,BRONX,40.819355,-73.91829,COURTLANDT AVENUE,EAST 153 STREET,,0.0,0,17.1,0.0,0.0,95.0,8.1,283.0,BRONX,32,NB,40.81990168376606,-73.9180490867872
2020,10,16,9,0,BRONX,40.82113,-73.92565,GRAND CONCOURSE,EAST 153 STREET,,1.0,0,17.2,0.0,0.0,54.0,10.7,213.0,BRONX,109,NB,40.84256796135408,-73.91195844574992
2020,10,16,12,15,,40.88839,-73.84666,LACONIA AVENUE,,,0.0,0,16.9,0.0,0.0,92.0,12.2,317.0,BRONX,14,SB,40.87040665043948,-73.85560934369036
2020,10,17,16,30,QUEENS,40.743156,-73.91871,QUEENS BOULEVARD,46 STREET,,0.0,0,13.1,0.0,0.0,0.0,13.4,329.0,QUEENS,82,EB,40.714023872438766,-73.83070138133681
2020,10,17,15,30,QUEENS,,,NORTHERN BOULEVARD,126 STREET,,0.0,0,12.5,0.0,0.0,0.0,14.7,335.0,QUEENS,392,WB,40.76282806459011,-73.83498691207076
2020,10,17,12,30,BRONX,40.818077,-73.91496,3 AVENUE,ELTON AVENUE,,1.0,0,7.4,0.0,0.0,0.0,12.1,293.0,BRONX,112,SB,40.81923005030196,-73.9137912030821
2020,10,17,14,0,BROOKLYN,40.646637,-74.01589,3 AVENUE,52 STREET,,1.0,0,10.2,0.0,0.0,0.0,13.3,322.0,BRONX,173,NB,40.81923005030196,-73.9137912030821
2020,10,17,14,45,BRONX,40.844177,-73.90292,EAST 174 STREET,WEBSTER AVENUE,,0.0,0,10.2,0.0,0.0,0.0,13.3,322.0,BRONX,88,WB,40.83690365414482,-73.886351797655
2020,10,17,21,45,,40.833412,-73.85906,WESTCHESTER AVENUE,,,1.0,0,16.1,0.0,0.0,0.0,6.7,306.0,BRONX,88,EB,40.82713581461271,-73.88712269519081
2020,10,17,21,0,QUEENS,40.67581,-73.739555,FRANCIS LEWIS BOULEVARD,MERRICK BOULEVARD,,0.0,0,16.1,0.0,0.0,0.0,6.7,306.0,QUEENS,28,SB,40.73779600312671,-73.77354513690918
2020,10,17,13,30,BRONX,40.818077,-73.91496,3 AVENUE,ELTON AVENUE,,0.0,0,8.7,0.0,0.0,0.0,12.6,307.0,BRONX,145,NB,40.81923005030196,-73.9137912030821
2020,10,17,17,15,BRONX,40.841087,-73.86447,EAST TREMONT AVENUE,WHITE PLAINS ROAD,,1.0,0,14.2,0.0,0.0,0.0,12.2,313.0,BRONX,112,WB,40.83997674504032,-73.87804747473912
2020,10,17,17,15,BRONX,40.862755,-73.901085,EAST FORDHAM ROAD,JEROME AVENUE,,1.0,0,14.2,0.0,0.0,0.0,12.2,313.0,BRONX,178,WB,40.855625613631446,-73.87583796479586
2020,10,17,17,30,,40.668266,-73.84214,CROSS BAY BOULEVARD,,,0.0,0,14.2,0.0,0.0,0.0,12.2,313.0,QUEENS,168,NB,40.63513408914663,-73.83008482331194
2020,10,17,17,45,BRONX,40.86309,-73.88946,WEBSTER AVENUE,EAST 194 STREET,,2.0,0,14.2,0.0,0.0,0.0,12.2,313.0,BRONX,183,SB,40.84252768540179,-73.90384248224866
2020,10,17,0,30,QUEENS,40.753284,-73.90691,NORTHERN BOULEVARD,BROADWAY,,0.0,0,11.8,0.7,0.7,4.0,9.5,349.0,QUEENS,45,EB,40.757811104786526,-73.79076849949568
2020,10,17,19,45,BRONX,40.83354,-73.89631,PROSPECT AVENUE,BOSTON ROAD,,2.0,0,15.3,0.0,0.0,0.0,12.2,315.0,BRONX,63,SB,40.83262036696304,-73.89655955414587
2020,10,17,11,30,,40.836895,-73.8736,EAST 177 STREET,BRONX RIVER PARKWAY,,2.0,0,6.7,0.0,0.0,0.0,10.4,290.0,BRONX,119,SB,40.839365335028056,-73.87803460443452
2020,10,17,11,15,QUEENS,40.757442,-73.86747,NORTHERN BOULEVARD,101 STREET,,1.0,0,6.7,0.0,0.0,0.0,10.4,290.0,QUEENS,432,WB,40.76282806459011,-73.83498691207076
2020,10,17,23,45,,40.671196,-73.84296,CROSS BAY BOULEVARD,149 AVENUE,,2.0,0,12.6,0.0,0.0,0.0,5.5,238.0,QUEENS,51,NB,40.63513408914663,-73.83008482331194
2020,10,17,23,30,BRONX,40.846516,-73.89537,EAST TREMONT AVENUE,MONTEREY AVENUE,,0.0,0,12.6,0.0,0.0,0.0,5.5,238.0,BRONX,98,WB,40.83997674504032,-73.87804747473912
2020,10,17,7,30,,40.852386,-73.90369,EAST BURNSIDE AVENUE,GRAND CONCOURSE,,1.0,0,9.2,1.0,1.0,0.0,15.6,7.0,BRONX,27,WB,40.852019004473256,-73.90289759375925
2020,10,17,9,30,QUEENS,40.70476,-73.784424,LIBERTY AVENUE,175 STREET,,3.0,0,8.3,0.0,0.0,15.0,14.3,348.0,QUEENS,94,EB,40.69566668380388,-73.80511045808521
2020,10,17,9,0,BRONX,40.871494,-73.88868,GRAND CONCOURSE,EAST 199 STREET,,0.0,0,8.3,0.0,0.0,15.0,14.3,348.0,BRONX,57,SB,40.85988405548519,-73.89852873763135
2020,10,18,20,15,,40.812622,-73.92934,EAST 138 STREET,PARK AVENUE,,0.0,0,16.4,0.0,0.0,65.0,17.1,132.0,BRONX,34,WB,40.80620310993376,-73.91601445891995
2020,10,18,23,15,BRONX,40.820984,-73.891624,SOUTHERN BOULEVARD,EAST 163 STREET,,1.0,0,14.4,0.0,0.0,5.0,10.3,126.0,BRONX,35,SB,40.83846992634956,-73.88709375177686
2020,10,18,3,45,,40.811653,-73.91685,EAST 144 STREET,,,1.0,0,8.7,0.0,0.0,0.0,4.9,253.0,BRONX,11,WB,40.81638432492401,-73.92766072556614
2020,10,18,22,45,BRONX,40.812473,-73.90542,EAST 149 STREET,UNION AVENUE,,0.0,0,15.0,0.0,0.0,17.0,11.7,135.0,BRONX,31,WB,40.81376885904009,-73.91143509168012
2020,10,18,22,30,QUEENS,40.7244,-73.84981,QUEENS BOULEVARD,68 DRIVE,,1.0,0,15.0,0.0,0.0,17.0,11.7,135.0,QUEENS,67,WB,40.71418569849135,-73.83048145926848
2020,10,18,14,30,,40.678844,-73.86609,LIBERTY AVENUE,GRANT AVENUE,,0.0,0,11.9,0.0,0.0,0.0,7.8,103.0,QUEENS,147,EB,40.69566668380388,-73.80511045808521
2020,10,18,4,30,,40.86235,-73.89997,EAST FORDHAM ROAD,MORRIS AVENUE,,5.0,0,8.4,0.0,0.0,0.0,3.6,270.0,BRONX,20,WB,40.855625613631446,-73.87583796479586
2020,10,18,10,45,QUEENS,40.783398,-73.80459,FRANCIS LEWIS BOULEVARD,17 AVENUE,,0.0,0,6.8,0.0,0.0,19.0,5.9,47.0,QUEENS,75,SB,40.73779600312671,-73.77354513690918
2020,10,18,17,30,QUEENS,40.748924,-73.937386,QUEENS BOULEVARD,JACKSON AVENUE,,2.0,0,16.8,0.0,0.0,96.0,16.8,149.0,QUEENS,99,EB,40.71407875048589,-73.83064010300787
2020,10,18,15,15,QUEENS,40.672146,-73.84318,CROSS BAY BOULEVARD,PITKIN AVENUE,,0.0,0,15.0,0.0,0.0,20.0,12.7,133.0,QUEENS,175,NB,40.63513408914663,-73.83008482331194
2020,10,18,15,30,MANHATTAN,40.813915,-73.93477,EAST 138 STREET,MADISON AVENUE,,1.0,0,15.0,0.0,0.0,20.0,12.7,133.0,BRONX,131,EB,40.80620310993376,-73.91601445891995
2020,10,18,8,30,BRONX,40.845642,-73.90211,WEBSTER AVENUE,EAST 175 STREET,,0.0,0,6.8,0.0,0.0,0.0,4.6,18.0,BRONX,75,NB,40.84252768540179,-73.90384248224866
2020,10,18,0,15,QUEENS,40.713715,-73.73144,101 AVENUE,222 STREET,,0.0,0,11.5,0.0,0.0,0.0,6.3,239.0,QUEENS,26,WB,40.69583830965821,-73.80533646638568
2020,10,18,0,0,BRONX,40.839767,-73.905396,WEBSTER AVENUE,CLAREMONT PARKWAY,,0.0,0,11.5,0.0,0.0,0.0,6.3,239.0,BRONX,147,SB,40.84252768540179,-73.90384248224866
2020,10,18,1,15,,40.760494,-73.8614,108 STREET,ASTORIA BOULEVARD,,0.0,0,10.7,0.0,0.0,0.0,5.6,230.0,QUEENS,4,NB,40.7368050475482,-73.85158921036636
2020,10,18,1,15,MANHATTAN,40.794758,-73.94235,3 AVENUE,EAST 111 STREET,,0.0,0,10.7,0.0,0.0,0.0,5.6,230.0,BRONX,44,SB,40.81923005030196,-73.9137912030821
2020,10,19,11,45,,40.767803,-73.95601,1 AVENUE,,,0.0,0,11.4,0.0,0.0,55.0,4.7,23.0,MANHATTAN,213,NB,40.760563048507095,-73.96128118729173
2020,10,19,11,45,BROOKLYN,40.666077,-73.995224,3 AVENUE,17 STREET,,0.0,0,11.4,0.0,0.0,55.0,4.7,23.0,MANHATTAN,213,NB,40.76250702682578,-73.96588748049983
2020,10,19,15,45,,40.84434,-73.91475,JEROME AVENUE,,,0.0,0,16.1,0.0,0.0,22.0,8.9,130.0,BRONX,97,NB,40.84389528378356,-73.91506654378382
2020,10,19,15,30,BRONX,40.86923,-73.89604,JEROME AVENUE,EAST 196 STREET,,0.0,0,16.1,0.0,0.0,22.0,8.9,130.0,BRONX,99,NB,40.84389528378356,-73.91506654378382
2020,10,19,20,30,BRONX,40.840927,-73.912704,GRAND CONCOURSE,EAST 172 STREET,,2.0,0,17.4,0.0,0.0,64.0,10.2,135.0,BRONX,93,NB,40.82233428995296,-73.92483093620778
2020,10,19,20,30,MANHATTAN,40.797306,-73.93446,1 AVENUE,EAST 118 STREET,,0.0,0,17.4,0.0,0.0,64.0,10.2,135.0,MANHATTAN,131,NB,40.760563048507095,-73.96128118729173
2020,10,19,16,45,,40.831196,-73.90026,BOSTON ROAD,EAST 169 STREET,,0.0,0,16.7,0.0,0.0,31.0,10.2,141.0,BRONX,235,NB,40.856136179399016,-73.86974709419333
2020,10,19,16,45,,40.843365,-73.91545,JEROME AVENUE,,,0.0,0,16.7,0.0,0.0,31.0,10.2,141.0,BRONX,141,SB,40.84389528378356,-73.91506654378382
2020,10,19,17,0,MANHATTAN,40.762226,-73.96819,LEXINGTON AVENUE,EAST 59 STREET,,0.0,0,17.2,0.0,0.0,100.0,8.6,147.0,MANHATTAN,253,SB,40.763188025501776,-73.967483153524
2020,10,19,17,30,MANHATTAN,40.77493,-73.950806,1 AVENUE,EAST 83 STREET,,0.0,0,17.2,0.0,0.0,100.0,8.6,147.0,MANHATTAN,310,NB,40.760563048507095,-73.96128118729173
2020,10,19,12,15,,40.763042,-73.956535,YORK AVENUE,,,1.0,0,11.5,0.0,0.0,59.0,5.8,68.0,MANHATTAN,92,SB,40.75959566651487,-73.95903883827019
2020,10,19,21,45,MANHATTAN,40.848938,-73.93708,BROADWAY,WEST 179 STREET,,1.0,0,17.5,0.0,0.0,45.0,8.9,137.0,MANHATTAN,56,SB,40.76929595125536,-73.98222151271054
2020,10,19,23,45,MANHATTAN,40.750156,-73.97699,LEXINGTON AVENUE,EAST 40 STREET,,0.0,0,15.4,0.0,0.0,46.0,8.4,130.0,MANHATTAN,80,SB,40.763188025501776,-73.967483153524
2020,10,19,1,45,BRONX,,,UNIVERSITY HEIGHTS BRIDGE,WEST FORDHAM ROAD,,0.0,0,13.6,0.0,0.0,1.0,10.1,117.0,MANHATTAN,88,WB,40.86274512991999,-73.91483377274194
2020,10,19,14,30,,40.86811,-73.91976,BROADWAY,,,0.0,0,14.1,0.0,0.0,5.0,5.4,110.0,MANHATTAN,114,NB,40.769281825309655,-73.9819835261734
2020,10,19,14,45,,40.815113,-73.95501,AMSTERDAM AVENUE,,,0.0,0,14.1,0.0,0.0,5.0,5.4,110.0,MANHATTAN,186,NB,40.77138758222208,-73.9869011657756
2020,10,19,10,30,BRONX,40.84518,-73.91417,JEROME AVENUE,CROSS BRONX EXPRESSWAY,,0.0,0,11.5,0.0,0.0,55.0,2.2,351.0,BRONX,91,NB,40.84389528378356,-73.91506654378382
2020,10,19,10,45,MANHATTAN,40.790253,-73.94564,3 AVENUE,EAST 104 STREET,,1.0,0,11.5,0.0,0.0,55.0,2.2,351.0,MANHATTAN,226,NB,40.76250702682578,-73.96588748049983
2020,10,19,9,30,,40.704895,-73.94926,BROADWAY,,,1.0,0,12.0,0.0,0.0,8.0,6.4,117.0,MANHATTAN,162,SB,40.76929595125536,-73.98222151271054
2020,10,19,5,30,BROOKLYN,40.649094,-74.01694,2 AVENUE,50 STREET,,0.0,0,12.4,0.0,0.0,1.0,6.9,118.0,MANHATTAN,413,SB,40.76155611399958,-73.96364603678819
2020,10,20,23,45,,,,EXTERIOR STREET,EAST 149 STREET,,0.0,0,17.3,0.0,0.0,0.0,5.7,145.0,BRONX,148,SB,40.812442595259526,-73.93194400319958
2020,10,20,7,15,BRONX,40.885952,-73.8279,BOSTON ROAD,CONNER STREET,,0.0,0,14.8,0.0,0.0,17.0,7.1,156.0,BRONX,139,SB,40.856136179399016,-73.86974709419333
2020,10,20,7,45,,40.797306,-73.964294,COLUMBUS AVENUE,,,0.0,0,14.8,0.0,0.0,17.0,7.1,156.0,MANHATTAN,168,SB,40.77015977626436,-73.98408803704464
2020,10,20,0,0,,40.8439,-73.91171,GRAND CONCOURSE,,,2.0,0,15.2,0.0,0.0,45.0,10.2,132.0,BRONX,44,NB,40.82233428995296,-73.92483093620778
2020,10,20,9,15,BRONX,,,EAST 138 STREET,EXTERIOR STREET,,1.0,0,15.2,0.0,0.0,60.0,5.2,168.0,BRONX,60,WB,40.80620310993376,-73.91601445891995
2020,10,20,9,0,BRONX,40.86923,-73.89604,JEROME AVENUE,EAST 196 STREET,,0.0,0,15.2,0.0,0.0,60.0,5.2,168.0,BRONX,83,NB,40.84389528378356,-73.91506654378382
2020,10,20,8,30,,40.79423,-73.94695,PARK AVENUE,,,0.0,0,15.1,0.0,0.0,45.0,6.6,171.0,MANHATTAN,239,SB,40.763899773365175,-73.96920811990597
2020,10,20,8,15,QUEENS,40.74494,-73.887344,BROADWAY,78 STREET,,0.0,0,15.1,0.0,0.0,45.0,6.6,171.0,MANHATTAN,105,NB,40.769281825309655,-73.9819835261734
2020,10,20,15,30,BRONX,40.81881,-73.92828,EAST 149 STREET,WALTON AVENUE,,1.0,0,17.6,0.0,0.0,99.0,5.8,187.0,BRONX,193,EB,40.817742289314,-73.92413427826929
2020,10,20,15,45,,40.830914,-73.92047,GRAND CONCOURSE,,,0.0,0,17.6,0.0,0.0,99.0,5.8,187.0,BRONX,179,SB,40.82233716319509,-73.92501662419204
2020,10,20,15,0,MANHATTAN,40.784096,-73.958565,5 AVENUE,EAST 90 STREET,,0.0,1,17.6,0.0,0.0,99.0,5.8,187.0,MANHATTAN,229,SB,40.765210540597664,-73.97232378573453
2020,10,20,20,30,,40.64606,-74.01648,3 AVENUE,,,1.0,0,19.7,0.0,0.0,60.0,4.3,228.0,MANHATTAN,197,NB,40.76250702682578,-73.96588748049983
2020,10,20,14,0,,40.654957,-74.007034,3 AVENUE,,,0.0,0,16.2,0.0,0.0,98.0,4.7,171.0,MANHATTAN,289,NB,40.76250702682578,-73.96588748049983
2020,10,20,10,30,BRONX,40.890076,-73.819855,BOSTON ROAD,ROPES AVENUE,,1.0,0,15.4,0.0,0.0,92.0,2.7,67.0,BRONX,107,SB,40.856136179399016,-73.86974709419333
2020,10,20,10,45,,40.738503,-73.991806,5 AVENUE,,,1.0,0,15.4,0.0,0.0,92.0,2.7,67.0,MANHATTAN,183,SB,40.765210540597664,-73.97232378573453
2020,10,20,10,30,MANHATTAN,40.83406,-73.944885,BROADWAY,WEST 157 STREET,,0.0,0,15.4,0.0,0.0,92.0,2.7,67.0,MANHATTAN,113,NB,40.769281825309655,-73.9819835261734
2020,10,20,6,45,,40.80719,-73.92431,EAST 135 STREET,,,0.0,0,14.7,0.0,0.0,14.0,9.1,146.0,BRONX,28,NB,40.8111756840179,-73.93106179718406
2020,10,20,16,0,,40.79166,-73.96469,CENTRAL PARK WEST,,,0.0,0,18.2,0.0,0.0,99.0,5.3,208.0,MANHATTAN,161,NB,40.768868315694526,-73.98132377514041
2020,10,20,16,45,BRONX,40.852642,-73.908424,JEROME AVENUE,EAST 179 STREET,,0.0,0,18.2,0.0,0.0,99.0,5.3,208.0,BRONX,105,NB,40.84389528378356,-73.91506654378382
2020,10,20,13,30,,40.651432,-73.97582,PROSPECT AVENUE,,,0.0,0,15.4,0.0,0.0,96.0,4.3,156.0,BRONX,81,SB,40.83262036696304,-73.89655955414587
2020,10,20,13,15,,40.80293,-73.96759,BROADWAY,,,1.0,0,15.4,0.0,0.0,96.0,4.3,156.0,MANHATTAN,143,SB,40.76929595125536,-73.98222151271054
2020,10,20,13,30,BRONX,40.839603,-73.918144,JEROME AVENUE,ELLIOT PLACE,,1.0,0,15.4,0.0,0.0,96.0,4.3,156.0,BRONX,123,SB,40.84389528378356,-73.91506654378382
2020,10,20,19,15,,40.86769,-73.92122,BROADWAY,,,1.0,0,19.2,0.0,0.0,95.0,6.6,241.0,MANHATTAN,83,NB,40.769281825309655,-73.9819835261734
2020,10,20,12,45,,40.842335,-73.91223,GRAND CONCOURSE,,,0.0,0,15.5,0.0,0.0,99.0,5.2,146.0,BRONX,140,NB,40.82233428995296,-73.92483093620778
2020,10,20,3,45,MANHATTAN,40.72179,-73.99986,BROADWAY,BROOME STREET,,1.0,0,14.8,0.0,0.0,1.0,8.7,132.0,MANHATTAN,15,SB,40.76929595125536,-73.98222151271054
2020,10,21,14,15,BROOKLYN,40.631462,-74.0278,3 AVENUE,BAY RIDGE PARKWAY,,0.0,0,16.5,0.0,0.0,100.0,5.6,165.0,MANHATTAN,244,NB,40.76250702682578,-73.96588748049983
2020,10,21,8,45,MANHATTAN,40.772415,-73.97874,CENTRAL PARK WEST,WEST 66 STREET,,0.0,0,15.4,0.0,0.0,100.0,3.8,131.0,MANHATTAN,135,NB,40.768868315694526,-73.98132377514041
2020,10,21,16,45,,40.791435,-73.976,WEST END AVENUE,,,0.0,0,18.5,0.0,0.0,100.0,8.6,195.0,MANHATTAN,168,NB,40.77256851667558,-73.98975655358767
2020,10,21,9,0,BROOKLYN,40.638897,-74.01678,5 AVENUE,61 STREET,,0.0,0,15.5,0.0,0.0,100.0,3.8,131.0,MANHATTAN,256,SB,40.765210540597664,-73.97232378573453
2020,10,21,9,0,,40.792244,-73.94629,LEXINGTON AVENUE,,,0.0,0,15.5,0.0,0.0,100.0,3.8,131.0,MANHATTAN,219,SB,40.763188025501776,-73.967483153524
2020,10,21,17,45,,40.65183,-74.003334,5 AVENUE,,,1.0,0,19.6,0.0,0.0,100.0,8.9,194.0,MANHATTAN,217,SB,40.765210540597664,-73.97232378573453
2020,10,21,17,0,,40.75503,-73.98665,BROADWAY,,,0.0,0,19.6,0.0,0.0,100.0,8.9,194.0,MANHATTAN,143,NB,40.769281825309655,-73.9819835261734
2020,10,21,15,30,QUEENS,40.72936,-73.92856,56 ROAD,LAUREL HILL BOULEVARD,,2.0,0,17.7,0.0,0.0,100.0,6.9,186.0,QUEENS,105,WB,40.72730698776287,-73.92428995799294
2020,10,21,5,45,MANHATTAN,40.742256,-73.97768,2 AVENUE,EAST 30 STREET,,1.0,0,16.2,0.0,0.0,100.0,2.3,129.0,MANHATTAN,353,SB,40.76155611399958,-73.96364603678819
2020,10,21,23,15,MANHATTAN,40.74668,-73.9745,2 AVENUE,EAST 37 STREET,,1.0,0,18.6,0.0,0.0,58.0,8.2,151.0,MANHATTAN,407,SB,40.76155611399958,-73.96364603678819
2020,10,21,20,15,BRONX,40.83787,-73.9197,JEROME AVENUE,EAST 169 STREET,,1.0,0,20.5,0.0,0.0,86.0,11.2,201.0,BRONX,149,SB,40.84389528378356,-73.91506654378382
2020,10,21,6,45,,,,BROADWAY,ELLINGTON PARKWAY,,0.0,0,16.0,0.0,0.0,100.0,3.9,124.0,MANHATTAN,67,SB,40.76929595125536,-73.98222151271054
2020,10,21,6,30,MANHATTAN,40.835358,-73.94022,AMSTERDAM AVENUE,WEST 161 STREET,,0.0,0,16.0,0.0,0.0,100.0,3.9,124.0,MANHATTAN,168,NB,40.77138758222208,-73.9869011657756
2020,10,21,6,30,BRONX,40.844173,-73.91746,MACOMBS ROAD,GOBLE PLACE,,1.0,0,16.0,0.0,0.0,100.0,3.9,124.0,BRONX,20,NB,40.84375572722306,-73.91748679249383
2020,10,21,10,45,,40.66725,-73.99455,3 AVENUE,,,1.0,0,15.9,0.0,0.0,100.0,2.2,90.0,MANHATTAN,247,NB,40.76250702682578,-73.96588748049983
2020,10,21,21,45,,40.87564,-73.90836,BROADWAY,,,1.0,0,19.9,0.0,0.0,66.0,7.2,186.0,MANHATTAN,72,SB,40.76929595125536,-73.98222151271054
2020,10,22,17,15,BRONX,40.84518,-73.91417,JEROME AVENUE,CROSS BRONX EXPRESSWAY,,0.0,0,19.0,0.1,0.1,100.0,4.8,132.0,BRONX,105,NB,40.84389528378356,-73.91506654378382
2020,10,22,20,45,BRONX,40.817387,-73.92277,EAST 149 STREET,MORRIS AVENUE,,2.0,0,20.0,0.0,0.0,100.0,3.1,159.0,BRONX,81,WB,40.817742289314,-73.92413427826929
2020,10,22,13,15,,40.782627,-73.97499,COLUMBUS AVENUE,,,1.0,0,16.8,0.0,0.0,100.0,4.7,67.0,MANHATTAN,227,SB,40.77015977626436,-73.98408803704464
2020,10,22,13,45,,40.839478,-73.883896,BOSTON ROAD,VYSE AVENUE,,0.0,0,16.8,0.0,0.0,100.0,4.7,67.0,BRONX,150,SB,40.856136179399016,-73.86974709419333
2020,10,22,13,0,QUEENS,40.76235,-73.92619,BROADWAY,30 STREET,,2.0,0,16.8,0.0,0.0,100.0,4.7,67.0,MANHATTAN,72,NB,40.769281825309655,-73.9819835261734
2020,10,22,13,30,MANHATTAN,40.768803,-73.95837,2 AVENUE,EAST 72 STREET,,0.0,0,16.8,0.0,0.0,100.0,4.7,67.0,MANHATTAN,346,SB,40.76155611399958,-73.96364603678819
2020,10,22,22,0,,40.793488,-73.94328,3 AVENUE,,,0.0,0,19.0,0.0,0.0,100.0,4.5,151.0,MANHATTAN,160,NB,40.76250702682578,-73.96588748049983
2020,10,22,11,45,,40.64159,-74.02123,3 AVENUE,,,0.0,0,16.9,0.0,0.0,99.0,3.1,21.0,MANHATTAN,229,NB,40.76250702682578,-73.96588748049983
2020,10,22,1,0,MANHATTAN,40.797813,-73.971344,WEST END AVENUE,WEST 100 STREET,,0.0,0,17.9,0.0,0.0,69.0,6.9,171.0,MANHATTAN,13,NB,40.77256851667558,-73.98975655358767
2020,10,22,21,30,,40.796116,-73.94558,PARK AVENUE,,,1.0,0,19.9,0.0,0.0,100.0,4.0,153.0,MANHATTAN,77,SB,40.763899773365175,-73.96920811990597
2020,10,22,21,15,,40.831974,-73.9235,RIVER AVENUE,,,0.0,0,19.9,0.0,0.0,100.0,4.0,153.0,BRONX,31,SB,40.82165602742634,-73.9292135879969
2020,10,22,14,30,,40.789204,-73.95483,5 AVENUE,,,0.0,0,17.6,0.0,0.0,100.0,6.6,81.0,MANHATTAN,192,SB,40.765210540597664,-73.97232378573453
2020,10,23,10,0,,40.69987,-73.94043,BROADWAY,,,0.0,0,17.0,0.0,0.0,100.0,1.5,76.0,MANHATTAN,130,SB,40.76929595125536,-73.98222151271054
2020,10,23,16,15,MANHATTAN,40.768436,-73.96156,3 AVENUE,EAST 70 STREET,,1.0,0,18.6,0.0,0.0,100.0,7.1,135.0,MANHATTAN,224,NB,40.76250702682578,-73.96588748049983
2020,10,23,16,30,BRONX,40.84536,-73.89684,3 AVENUE,EAST 176 STREET,,0.0,0,18.6,0.0,0.0,100.0,7.1,135.0,MANHATTAN,246,NB,40.76250702682578,-73.96588748049983
2020,10,23,15,45,MANHATTAN,40.7616,-73.96865,LEXINGTON AVENUE,EAST 58 STREET,,1.0,0,18.9,0.0,0.0,100.0,6.9,129.0,MANHATTAN,245,SB,40.763188025501776,-73.967483153524
2020,10,23,15,30,BRONX,40.85018,-73.91059,JEROME AVENUE,EAST 177 STREET,,1.0,0,18.9,0.0,0.0,100.0,6.9,129.0,BRONX,164,SB,40.84389528378356,-73.91506654378382
2020,10,23,15,45,,,,EAST 149 STREET,EXTERIOR STREET,,0.0,0,18.9,0.0,0.0,100.0,6.9,129.0,BRONX,204,WB,40.817742289314,-73.92413427826929
2020,10,23,23,45,,40.723022,-73.99882,BROADWAY,,,2.0,0,17.8,0.0,0.0,99.0,7.2,143.0,MANHATTAN,83,NB,40.769281825309655,-73.9819835261734
2020,10,23,17,15,,40.830563,-73.92727,MACOMBS DAM BRIDGE,JEROME AVENUE,,0.0,0,18.9,0.0,0.0,98.0,7.4,141.0,MANHATTAN,235,EB,40.8281012019058,-73.93382224712411
2020,10,23,17,30,BRONX,40.885952,-73.8279,BOSTON ROAD,CONNER STREET,,1.0,0,18.9,0.0,0.0,98.0,7.4,141.0,BRONX,262,NB,40.856136179399016,-73.86974709419333
2020,10,23,11,30,MANHATTAN,40.74701,-73.977196,3 AVENUE,EAST 36 STREET,,0.0,0,17.0,0.1,0.1,100.0,2.9,90.0,MANHATTAN,231,NB,40.76250702682578,-73.96588748049983
2020,10,23,11,0,BRONX,40.83874,-73.913765,GRAND CONCOURSE,EAST 170 STREET,,0.0,0,17.0,0.1,0.1,100.0,2.9,90.0,BRONX,178,NB,40.82233428995296,-73.92483093620778
2020,10,23,22,30,BRONX,40.857327,-73.904526,JEROME AVENUE,EAST 182 STREET,,1.0,0,17.9,0.0,0.0,100.0,6.2,144.0,BRONX,55,NB,40.84389528378356,-73.91506654378382
2020,10,23,22,0,BRONX,40.820515,-73.930695,EXTERIOR STREET,EAST 150 STREET,,0.0,0,17.9,0.0,0.0,100.0,6.2,144.0,BRONX,280,SB,40.812442595259526,-73.93194400319958
2020,10,23,4,45,MANHATTAN,40.758373,-73.971,LEXINGTON AVENUE,EAST 53 STREET,,0.0,0,17.1,0.0,0.0,100.0,5.2,146.0,MANHATTAN,46,SB,40.763188025501776,-73.967483153524
2020,10,24,0,0,,40.858707,-73.9037,JEROME AVENUE,,,1.0,0,17.7,0.0,0.0,100.0,8.2,142.0,BRONX,53,SB,40.84389528378356,-73.91506654378382
2020,10,24,0,0,MANHATTAN,40.75843,-73.973076,PARK AVENUE,EAST 52 STREET,,0.0,0,17.7,0.0,0.0,100.0,8.2,142.0,MANHATTAN,36,SB,40.763899773365175,-73.96920811990597
2020,10,24,0,15,,,,BOSTON ROAD,PELHAM PARKWAY NORTH,,1.0,0,17.7,0.0,0.0,100.0,8.2,142.0,BRONX,74,NB,40.856136179399016,-73.86974709419333
2020,10,24,19,45,BRONX,40.812283,-73.90447,EAST 149 STREET,PROSPECT AVENUE,,1.0,0,19.6,0.0,0.0,95.0,14.2,330.0,BRONX,134,EB,40.817742289314,-73.92413427826929
2020,10,24,16,45,BRONX,40.834507,-73.91772,GRAND CONCOURSE,EAST 167 STREET,,1.0,0,18.3,0.0,0.0,100.0,12.0,261.0,BRONX,177,SB,40.82233716319509,-73.92501662419204
2020,10,24,14,15,BROOKLYN,40.653362,-74.0089,3 AVENUE,40 STREET,,0.0,0,16.7,0.0,0.0,100.0,12.0,224.0,MANHATTAN,278,NB,40.76250702682578,-73.96588748049983
2020,10,24,14,45,BRONX,40.808163,-73.92653,EAST 135 STREET,ALEXANDER AVENUE,,1.0,0,16.7,0.0,0.0,100.0,12.0,224.0,BRONX,56,NB,40.8111756840179,-73.93106179718406
2020,10,24,14,30,,40.885098,-73.90066,BROADWAY,,,1.0,0,16.7,0.0,0.0,100.0,12.0,224.0,MANHATTAN,111,SB,40.76929595125536,-73.98222151271054
2020,10,24,9,45,,40.792187,-73.9382,1 AVENUE,,,1.0,0,17.1,0.0,0.0,99.0,8.8,189.0,MANHATTAN,244,NB,40.760563048507095,-73.96128118729173
2020,10,24,15,0,,,,3 AVENUE,EAST 161 STREET,,1.0,0,17.7,0.0,0.0,100.0,12.9,243.0,MANHATTAN,300,NB,40.76250702682578,-73.96588748049983
2020,10,24,15,45,MANHATTAN,40.79793,-73.934,1 AVENUE,EAST 119 STREET,,1.0,0,17.7,0.0,0.0,100.0,12.9,243.0,MANHATTAN,193,NB,40.760563048507095,-73.96128118729173
2020,10,24,4,45,,40.855785,-73.90558,JEROME AVENUE,,,0.0,0,17.5,0.0,0.0,100.0,7.8,158.0,BRONX,33,NB,40.84389528378356,-73.91506654378382
2020,10,24,21,15,BRONX,40.816532,-73.92822,EAST 144 STREET,GRAND CONCOURSE,,1.0,0,18.2,0.0,0.0,88.0,15.5,338.0,BRONX,56,EB,40.81638432492401,-73.92766072556614
2020,10,24,21,45,MANHATTAN,40.867012,-73.92312,BROADWAY,WEST 204 STREET,,0.0,0,18.2,0.0,0.0,88.0,15.5,338.0,MANHATTAN,72,SB,40.76929595125536,-73.98222151271054
2020,10,24,21,45,BRONX,40.813232,-73.90908,EAST 149 STREET,JACKSON AVENUE,,1.0,0,18.2,0.0,0.0,88.0,15.5,338.0,BRONX,133,WB,40.817742289314,-73.92413427826929
2020,10,24,2,45,MANHATTAN,40.773335,-73.95506,2 AVENUE,EAST 79 STREET,,1.0,0,17.4,0.0,0.0,100.0,7.4,151.0,MANHATTAN,243,SB,40.76155611399958,-73.96364603678819
2020,10,25,19,30,,40.806477,-73.908455,SOUTHERN BOULEVARD,BRUCKNER BOULEVARD,,3.0,0,11.2,0.0,0.0,0.0,8.5,78.0,BRONX,307,SB,40.86812593605342,-73.87591700781218
2020,10,25,2,45,,40.668266,-73.84214,CROSS BAY BOULEVARD,SOUTH CONDUIT AVENUE,,0.0,0,12.4,0.0,0.0,0.0,17.4,336.0,QUEENS,26,SB,40.63505243851088,-73.830206409448
2020,10,25,14,0,,40.812622,-73.92934,EAST 138 STREET,PARK AVENUE,,1.0,0,9.0,0.0,0.0,0.0,13.2,29.0,BRONX,110,EB,40.80620310993376,-73.91601445891995
2020,10,25,14,45,,40.784355,-73.98117,WEST END AVENUE,,,0.0,0,9.0,0.0,0.0,0.0,13.2,29.0,MANHATTAN,63,NB,40.77256851667558,-73.98975655358767
2020,10,25,20,15,,40.820515,-73.930695,EXTERIOR STREET,,,2.0,0,11.2,0.0,0.0,1.0,8.3,72.0,BRONX,292,SB,40.812442595259526,-73.93194400319958
2020,10,25,20,45,BRONX,40.80565,-73.92062,EAST 135 STREET,BROOK AVENUE,,0.0,0,11.2,0.0,0.0,1.0,8.3,72.0,BRONX,10,NB,40.8111756840179,-73.93106179718406
2020,10,25,20,0,BRONX,40.83142,-73.92644,JEROME AVENUE,EAST 164 STREET,,0.0,0,11.2,0.0,0.0,1.0,8.3,72.0,BRONX,114,SB,40.84389528378356,-73.91506654378382
2020,10,25,9,45,,40.801556,-73.90631,EAST 138 STREET,,,1.0,0,8.0,0.0,0.0,0.0,14.2,9.0,BRONX,44,WB,40.80620310993376,-73.91601445891995
2020,10,25,9,15,MANHATTAN,40.801765,-73.93723,3 AVENUE,EAST 122 STREET,,0.0,0,8.0,0.0,0.0,0.0,14.2,9.0,MANHATTAN,144,NB,40.76250702682578,-73.96588748049983
2020,10,25,0,15,,,,EAST 138 STREET,,,1.0,0,14.5,0.0,0.0,0.0,18.2,326.0,BRONX,71,EB,40.80620310993376,-73.91601445891995
2020,10,25,0,15,,40.826427,-73.950455,BROADWAY,,,2.0,0,14.5,0.0,0.0,0.0,18.2,326.0,MANHATTAN,44,NB,40.769281825309655,-73.9819835261734
2020,10,25,0,0,MANHATTAN,40.759308,-73.9653,2 AVENUE,EAST 57 STREET,,0.0,0,14.5,0.0,0.0,0.0,18.2,326.0,MANHATTAN,438,SB,40.76155611399958,-73.96364603678819
2020,10,25,18,30,,40.671196,-73.84296,CROSS BAY BOULEVARD,149 AVENUE,,0.0,0,11.2,0.0,0.0,0.0,9.2,59.0,QUEENS,164,SB,40.63505243851088,-73.830206409448
2020,10,25,18,15,,40.798622,-73.94163,LEXINGTON AVENUE,,,1.0,0,11.2,0.0,0.0,0.0,9.2,59.0,MANHATTAN,224,SB,40.763188025501776,-73.967483153524
2020,10,25,8,15,,40.8431,-73.91796,MACOMBS ROAD,,,0.0,0,8.7,0.0,0.0,0.0,14.0,360.0,BRONX,7,SB,40.84375572722306,-73.91748679249383
2020,10,26,6,45,,,,MANHATTAN BRIDGE,BOWERY,,0.0,0,11.1,0.0,0.0,100.0,15.9,84.0,MANHATTAN,327,WB,40.70743264319801,-73.99057519460735
2020,10,26,17,45,BRONX,40.831055,-73.905846,3 AVENUE,EAST 168 STREET,,0.0,0,13.7,0.0,0.0,100.0,11.3,97.0,MANHATTAN,226,NB,40.76250702682578,-73.96588748049983
2020,10,26,5,15,BRONX,40.816555,-73.91677,3 AVENUE,EAST 150 STREET,,1.0,0,11.2,0.0,0.0,100.0,15.9,84.0,MANHATTAN,82,NB,40.76250702682578,-73.96588748049983
2020,10,26,12,45,QUEENS,40.680687,-73.84459,CROSS BAY BOULEVARD,ROCKAWAY BOULEVARD,,0.0,0,11.9,0.0,0.0,100.0,14.8,77.0,QUEENS,130,SB,40.63505243851088,-73.830206409448
2020,10,26,9,15,MANHATTAN,40.790253,-73.94564,3 AVENUE,EAST 104 STREET,,1.0,0,11.3,0.0,0.0,100.0,15.9,84.0,MANHATTAN,299,NB,40.76250702682578,-73.96588748049983
2020,10,26,9,0,BROOKLYN,40.646637,-74.01589,3 AVENUE,52 STREET,,0.0,0,11.3,0.0,0.0,100.0,15.9,84.0,MANHATTAN,276,NB,40.76250702682578,-73.96588748049983
2020,10,26,23,15,,40.748432,-73.982475,MADISON AVENUE,,,1.0,0,14.2,0.0,0.0,87.0,6.9,84.0,MANHATTAN,96,NB,40.76454441934089,-73.97071537689743
2020,10,26,16,0,BROOKLYN,40.660675,-74.00138,3 AVENUE,27 STREET,,3.0,0,13.4,0.0,0.0,100.0,10.2,82.0,MANHATTAN,202,NB,40.76250702682578,-73.96588748049983
2020,10,26,16,0,MANHATTAN,40.759575,-73.96803,3 AVENUE,EAST 56 STREET,,1.0,0,13.4,0.0,0.0,100.0,10.2,82.0,MANHATTAN,202,NB,40.76250702682578,-73.96588748049983
2020,10,26,10,15,BROOKLYN,40.653873,-74.008156,3 AVENUE,39 STREET,,2.0,0,11.9,0.0,0.0,100.0,17.8,82.0,MANHATTAN,255,NB,40.76250702682578,-73.96588748049983
2020,10,26,14,15,MANHATTAN,40.772865,-73.98955,WEST END AVENUE,WEST 61 STREET,,0.0,0,12.5,0.0,0.0,100.0,13.2,73.0,MANHATTAN,98,NB,40.77256851667558,-73.98975655358767
2020,10,26,15,15,BROOKLYN,40.644547,-74.01091,5 AVENUE,51 STREET,,0.0,0,13.3,0.0,0.0,100.0,11.2,75.0,MANHATTAN,187,SB,40.765210540597664,-73.97232378573453
2020,10,26,15,15,MANHATTAN,40.8076,-73.93719,PARK AVENUE,EAST 129 STREET,,1.0,0,13.3,0.0,0.0,100.0,11.2,75.0,MANHATTAN,202,SB,40.763899773365175,-73.96920811990597
2020,10,27,15,0,,40.66929,-73.842445,CROSS BAY BOULEVARD,NORTH CONDUIT AVENUE,,0.0,0,13.2,0.0,0.0,47.0,9.4,358.0,QUEENS,224,SB,40.63505243851088,-73.830206409448
2020,10,27,15,45,MANHATTAN,40.774704,-73.988205,WEST END AVENUE,WEST 64 STREET,,1.0,0,13.2,0.0,0.0,47.0,9.4,358.0,MANHATTAN,138,SB,40.77256851667558,-73.98975655358767
2020,10,27,15,45,MANHATTAN,40.787224,-73.95417,MADISON AVENUE,EAST 96 STREET,,0.0,0,13.2,0.0,0.0,47.0,9.4,358.0,MANHATTAN,254,NB,40.76454441934089,-73.97071537689743
2020,10,27,22,15,,40.709442,-73.9607,BROADWAY,ROEBLING STREET,,0.0,0,14.0,0.0,0.0,3.0,3.0,284.0,MANHATTAN,42,NB,40.769281825309655,-73.9819835261734
2020,10,27,14,45,BROOKLYN,40.680035,-73.9055,BROADWAY,EASTERN PARKWAY,,1.0,0,13.0,0.0,0.0,46.0,10.1,356.0,MANHATTAN,152,SB,40.76929595125536,-73.98222151271054
2020,10,27,16,15,,40.758972,-73.91901,BROADWAY,,,1.0,0,13.6,0.0,0.0,35.0,9.5,349.0,MANHATTAN,129,NB,40.769281825309655,-73.9819835261734
2020,10,27,20,30,,40.787693,-73.94148,1 AVENUE,,,1.0,0,14.6,0.0,0.0,0.0,0.5,225.0,MANHATTAN,169,NB,40.760563048507095,-73.96128118729173
2020,10,27,18,15,,40.857838,-73.932045,BROADWAY,,,0.0,0,14.7,0.0,0.0,14.0,5.9,349.0,MANHATTAN,84,NB,40.769281825309655,-73.9819835261734
2020,10,27,9,15,MANHATTAN,40.73398,-73.98669,3 AVENUE,EAST 15 STREET,,0.0,0,14.5,0.0,0.0,59.0,10.2,312.0,MANHATTAN,320,NB,40.76250702682578,-73.96588748049983
2020,10,27,17,15,MANHATTAN,,,12 AVENUE,WEST 56 STREET,,0.0,0,13.9,0.0,0.0,28.0,8.8,351.0,MANHATTAN,632,SB,40.7734768124252,-73.99310247494743
2020,10,28,6,30,MANHATTAN,40.740395,-73.97909,2 AVENUE,EAST 27 STREET,,0.0,0,12.5,0.0,0.0,79.0,6.8,115.0,MANHATTAN,340,SB,40.76155611399958,-73.96364603678819
2020,10,28,6,15,,40.85206,-73.934784,BROADWAY,,,0.0,0,12.5,0.0,0.0,79.0,6.8,115.0,MANHATTAN,36,NB,40.769281825309655,-73.9819835261734
2020,10,28,8,45,,,,12 AVENUE,,,0.0,0,12.4,0.0,0.0,100.0,4.8,48.0,MANHATTAN,513,NB,40.77341475633688,-73.9929003644298
2020,10,28,8,45,MANHATTAN,40.806133,-73.961555,AMSTERDAM AVENUE,WEST 115 STREET,,0.0,0,12.4,0.0,0.0,100.0,4.8,48.0,MANHATTAN,203,NB,40.77138758222208,-73.9869011657756
2020,10,28,12,0,,40.696983,-73.935234,BROADWAY,,,0.0,0,11.8,0.2,0.2,100.0,8.2,61.0,MANHATTAN,156,SB,40.76929595125536,-73.98222151271054
2020,10,28,12,45,,40.781757,-73.983055,WEST END AVENUE,,,1.0,0,11.8,0.2,0.2,100.0,8.2,61.0,MANHATTAN,102,NB,40.77256851667558,-73.98975655358767
2020,10,28,20,0,MANHATTAN,40.74088,-73.990074,5 AVENUE,EAST 22 STREET,,0.0,0,13.6,0.0,0.0,45.0,9.8,264.0,MANHATTAN,205,SB,40.765210540597664,-73.97232378573453
2020,10,28,20,30,,40.796215,-73.94971,5 AVENUE,,,1.0,0,13.6,0.0,0.0,45.0,9.8,264.0,MANHATTAN,173,SB,40.765210540597664,-73.97232378573453
2020,10,28,20,15,QUEENS,40.75,-73.89924,BROADWAY,63 STREET,,0.0,0,13.6,0.0,0.0,45.0,9.8,264.0,MANHATTAN,72,NB,40.769281825309655,-73.9819835261734
2020,10,28,0,45,MANHATTAN,40.75457,-73.97169,3 AVENUE,EAST 48 STREET,,1.0,0,13.8,0.0,0.0,1.0,1.8,349.0,MANHATTAN,72,NB,40.76250702682578,-73.96588748049983
2020,10,28,15,30,MANHATTAN,40.789684,-73.94815,LEXINGTON AVENUE,EAST 102 STREET,,0.0,0,12.6,0.1,0.1,100.0,6.1,357.0,MANHATTAN,248,SB,40.763188025501776,-73.967483153524
2020,10,28,1,15,MANHATTAN,40.846153,-73.932335,AMSTERDAM AVENUE,WEST 178 STREET,,1.0,0,13.7,0.0,0.0,14.0,5.4,8.0,MANHATTAN,44,NB,40.77138758222208,-73.9869011657756
2020,10,28,1,0,BRONX,40.846657,-73.89619,3 AVENUE,EAST TREMONT AVENUE,,1.0,0,13.7,0.0,0.0,14.0,5.4,8.0,MANHATTAN,62,NB,40.76250702682578,-73.96588748049983
2020,10,29,18,0,,40.696995,-73.95475,PARK AVENUE,,,0.0,0,11.4,3.9,3.9,100.0,17.1,41.0,MANHATTAN,258,SB,40.763899773365175,-73.96920811990597
2020,10,29,21,45,MANHATTAN,40.74639,-73.977646,3 AVENUE,EAST 35 STREET,,1.0,0,10.6,1.4,1.4,100.0,25.7,37.0,MANHATTAN,166,NB,40.76250702682578,-73.96588748049983
2020,10,29,5,30,,,,BROOKLYN BRIDGE,,,0.0,0,12.8,0.0,0.0,42.0,5.4,262.0,MANHATTAN,406,EB,40.7061163509533,-73.99699723622943
2020,10,30,14,15,MANHATTAN,40.777973,-73.98216,AMSTERDAM AVENUE,WEST 71 STREET,,0.0,0,4.5,1.5,1.5,100.0,24.0,13.0,MANHATTAN,244,NB,40.77138758222208,-73.9869011657756
2020,10,30,0,0,QUEENS,40.59956,-73.82059,CROSS BAY BOULEVARD,WEST 19 ROAD,,0.0,0,9.0,0.3,0.3,100.0,25.5,29.0,QUEENS,39,SB,40.63505243851088,-73.830206409448
2020,10,30,11,30,BRONX,40.846657,-73.89619,3 AVENUE,EAST TREMONT AVENUE,,0.0,0,5.6,1.8,1.8,100.0,26.0,17.0,MANHATTAN,229,NB,40.76250702682578,-73.96588748049983
2020,10,30,11,15,,40.779144,-73.94478,YORK AVENUE,,,0.0,0,5.6,1.8,1.8,100.0,26.0,17.0,MANHATTAN,120,SB,40.75959566651487,-73.95903883827019
2020,10,30,23,45,MANHATTAN,40.776318,-73.962135,MADISON AVENUE,EAST 79 STREET,,1.0,0,5.8,0.0,0.0,21.0,9.4,360.0,MANHATTAN,122,NB,40.76454441934089,-73.97071537689743
2020,10,30,19,0,MANHATTAN,40.772415,-73.97874,CENTRAL PARK WEST,WEST 66 STREET,,0.0,0,5.4,0.0,0.0,98.0,15.5,1.0,MANHATTAN,96,NB,40.768868315694526,-73.98132377514041
2020,10,30,19,15,MANHATTAN,40.829647,-73.94439,AMSTERDAM AVENUE,WEST 152 STREET,,1.0,0,5.4,0.0,0.0,98.0,15.5,1.0,MANHATTAN,176,NB,40.77138758222208,-73.9869011657756
2020,10,30,17,30,,,,PARK AVENUE,CROSS BRONX EXPRESSWAY,,0.0,0,5.0,0.6,0.6,99.0,19.9,6.0,MANHATTAN,232,SB,40.763899773365175,-73.96920811990597
2020,10,30,21,45,,40.748863,-73.97584,3 AVENUE,,,1.0,0,5.6,0.0,0.0,98.0,11.2,356.0,MANHATTAN,190,NB,40.76250702682578,-73.96588748049983
2020,10,30,9,0,MANHATTAN,40.76786,-73.96408,LEXINGTON AVENUE,EAST 68 STREET,,0.0,0,7.1,1.2,1.2,100.0,24.0,28.0,MANHATTAN,192,SB,40.763188025501776,-73.967483153524
2020,10,30,7,45,,40.843994,-73.89752,3 AVENUE,,,0.0,0,8.0,0.7,0.7,100.0,25.1,32.0,MANHATTAN,294,NB,40.76250702682578,-73.96588748049983
2020,10,30,20,45,MANHATTAN,40.772705,-73.949486,YORK AVENUE,EAST 81 STREET,,1.0,0,5.5,0.0,0.0,100.0,15.6,352.0,MANHATTAN,111,SB,40.75959566651487,-73.95903883827019
2020,10,30,10,30,BROOKLYN,40.658924,-74.00302,3 AVENUE,30 STREET,,0.0,0,6.2,1.5,1.5,100.0,24.5,22.0,MANHATTAN,230,NB,40.76250702682578,-73.96588748049983
2020,10,30,22,0,BROOKLYN,40.643875,-74.01887,3 AVENUE,57 STREET,,0.0,0,6.1,0.0,0.0,35.0,9.1,7.0,MANHATTAN,172,NB,40.76250702682578,-73.96588748049983
2020,10,31,12,0,MANHATTAN,40.761856,-73.96343,2 AVENUE,EAST 61 STREET,,0.0,0,1.3,0.0,0.0,0.0,9.4,353.0,MANHATTAN,340,SB,40.76155611399958,-73.96364603678819
2020,10,31,11,15,,40.76812,-73.95887,2 AVENUE,,,0.0,0,1.2,0.0,0.0,0.0,8.9,339.0,MANHATTAN,316,SB,40.76155611399958,-73.96364603678819
2020,10,31,11,0,MANHATTAN,40.79162,-73.94885,PARK AVENUE,EAST 104 STREET,,1.0,0,1.2,0.0,0.0,0.0,8.9,339.0,MANHATTAN,71,NB,40.76380567378792,-73.96900670900098
2020,10,31,14,45,,40.69149,-73.92557,BROADWAY,GREENE AVENUE,,0.0,0,3.4,0.0,0.0,5.0,8.1,21.0,MANHATTAN,104,SB,40.76929595125536,-73.98222151271054
2020,10,31,18,0,,40.84491,-73.93324,AMSTERDAM AVENUE,,,0.0,0,7.3,0.0,0.0,46.0,5.6,153.0,MANHATTAN,232,NB,40.77138758222208,-73.9869011657756
2020,10,31,10,30,,40.69149,-73.92557,BROADWAY,,,3.0,0,1.3,0.0,0.0,0.0,8.8,341.0,MANHATTAN,74,NB,40.769281825309655,-73.9819835261734
2020,10,31,16,30,BROOKLYN,40.67922,-73.90405,BROADWAY,CONWAY STREET,,0.0,0,6.1,0.0,0.0,12.0,2.7,67.0,MANHATTAN,100,NB,40.769281825309655,-73.9819835261734
2020,10,31,2,15,,40.665882,-73.99642,3 AVENUE,,,0.0,0,5.0,0.0,0.0,0.0,9.4,353.0,MANHATTAN,82,NB,40.76250702682578,-73.96588748049983
2020,10,31,2,0,MANHATTAN,40.723022,-73.99882,BROADWAY,SPRING STREET,,2.0,0,5.0,0.0,0.0,0.0,9.4,353.0,MANHATTAN,30,SB,40.76929595125536,-73.98222151271054
2020,10,31,17,0,BRONX,40.851967,-73.897095,PARK AVENUE,EAST 180 STREET,,0.0,0,6.6,0.0,0.0,18.0,3.6,135.0,MANHATTAN,119,NB,40.76380567378792,-73.96900670900098
2020,11,1,1,15,,40.761234,-73.96389,2 AVENUE,,,2.0,0,6.4,0.0,0.0,71.0,6.0,163.0,MANHATTAN,292,SB,40.76155611399958,-73.96364603678819
2020,11,1,14,0,MANHATTAN,40.78056,-73.98022,AMSTERDAM AVENUE,WEST 75 STREET,,1.0,0,10.3,0.0,0.0,40.0,12.8,169.0,MANHATTAN,198,NB,40.77138758222208,-73.9869011657756
2020,11,1,16,15,QUEENS,40.757847,-73.91661,BROADWAY,43 STREET,,1.0,0,12.4,0.0,0.0,81.0,20.2,181.0,MANHATTAN,111,SB,40.76929595125536,-73.98222151271054
2020,11,1,18,15,,40.773033,-73.98221,BROADWAY,,,1.0,0,12.1,0.3,0.3,100.0,17.0,185.0,MANHATTAN,112,SB,40.76929595125536,-73.98222151271054
2020,11,1,19,45,MANHATTAN,40.808224,-73.93673,PARK AVENUE,EAST 130 STREET,,0.0,0,11.8,1.3,1.3,99.0,15.9,183.0,MANHATTAN,54,NB,40.76380567378792,-73.96900670900098
2020,11,1,17,45,QUEENS,40.64912,-73.83737,CROSS BAY BOULEVARD,165 AVENUE,,0.0,0,12.6,0.0,0.0,87.0,16.6,185.0,QUEENS,125,SB,40.63505243851088,-73.830206409448
2020,11,14,16,45,BROOKLYN,40.659275,-73.889,LINDEN BOULEVARD,VERMONT STREET,,2.0,0,10.3,0.0,0.0,0.0,14.4,307.0,QUEENS,90,WB,40.69405496194271,-73.75365674193208
2020,11,14,15,15,BROOKLYN,40.679367,-73.879715,ATLANTIC AVENUE,HALE AVENUE,,1.0,0,9.8,0.0,0.0,0.0,15.0,316.0,QUEENS,219,EB,40.68901366094416,-73.84547490492868
2020,11,14,15,15,BRONX,40.906338,-73.8965,BROADWAY,WEST 259 STREET,,1.0,0,9.8,0.0,0.0,0.0,15.0,316.0,QUEENS,104,EB,40.75273971158239,-73.90566371918923
2020,11,14,15,15,QUEENS,40.70973,-73.84631,METROPOLITAN AVENUE,72 DRIVE,,1.0,0,9.8,0.0,0.0,0.0,15.0,316.0,QUEENS,201,WB,40.71144458872882,-73.85714261747643
2020,11,14,17,30,QUEENS,40.74394,-73.85528,51 AVENUE,108 STREET,,1.0,0,10.8,0.0,0.0,0.0,14.5,300.0,QUEENS,45,EB,40.73971537385761,-73.8730817000112
2020,11,14,10,30,QUEENS,40.761093,-73.82687,UNION STREET,39 AVENUE,,0.0,0,4.5,0.0,0.0,0.0,11.2,291.0,QUEENS,81,SB,40.76077657899791,-73.82670338230413
2020,11,14,18,30,,40.678238,-73.94415,ATLANTIC AVENUE,,,0.0,0,11.1,0.0,0.0,0.0,14.7,295.0,QUEENS,209,EB,40.68901366094416,-73.84547490492868
2020,11,14,20,30,QUEENS,40.74274,-73.89283,WOODSIDE AVENUE,72 STREET,,0.0,0,11.6,0.0,0.0,0.0,12.9,297.0,QUEENS,38,SB,40.74998903697761,-73.90964487809356
2020,11,14,22,15,QUEENS,40.753593,-73.92338,STEINWAY STREET,36 AVENUE,,1.0,0,10.0,0.0,0.0,0.0,6.8,302.0,QUEENS,35,NB,40.75603253548244,-73.92139124597907
2020,11,14,22,0,MANHATTAN,40.83022,-73.94769,BROADWAY,WEST 151 STREET,,0.0,0,10.0,0.0,0.0,0.0,6.8,302.0,QUEENS,79,EB,40.75273971158239,-73.90566371918923
2020,11,14,1,15,,40.7662,-73.812996,35 AVENUE,,,2.0,0,6.7,0.0,0.0,0.0,7.3,279.0,QUEENS,11,EB,40.7658652514756,-73.7848583756486
2020,11,14,14,15,QUEENS,40.66758,-73.737404,FRANCIS LEWIS BOULEVARD,BROOKVILLE BOULEVARD,,0.0,0,8.1,0.0,0.0,0.0,11.5,302.0,QUEENS,100,NB,40.69926100102881,-73.74754312735176
2020,11,14,14,30,BROOKLYN,40.68405,-73.97746,ATLANTIC AVENUE,FLATBUSH AVENUE,,0.0,0,8.1,0.0,0.0,0.0,11.5,302.0,QUEENS,206,WB,40.68917678940368,-73.84551630720695
2020,11,14,21,30,,40.69297,-73.78024,MERRICK BOULEVARD,,,0.0,0,11.4,0.0,0.0,0.0,8.1,302.0,QUEENS,106,EB,40.67913825994235,-73.76065613273235
2020,11,14,21,15,,40.70001,-73.830894,JAMAICA AVENUE,LEFFERTS BOULEVARD,,1.0,0,11.4,0.0,0.0,0.0,8.1,302.0,QUEENS,52,WB,40.71343967842374,-73.76222553596354
2020,11,15,18,30,,40.709225,-73.843155,METROPOLITAN AVENUE,UNION TURNPIKE,,0.0,0,13.0,0.0,0.0,80.0,26.6,157.0,QUEENS,116,WB,40.7129761432768,-73.90738624632073
2020,11,15,17,0,,40.74681,-73.89176,BROADWAY,ROOSEVELT AVENUE,,1.0,0,13.0,0.0,0.0,63.0,25.4,159.0,QUEENS,93,EB,40.75273971158239,-73.90566371918923
2020,11,15,0,45,,40.704422,-73.792854,MERRICK BOULEVARD,,,0.0,0,8.2,0.0,0.0,0.0,7.8,326.0,QUEENS,41,EB,40.67913825994235,-73.76065613273235
2020,11,15,1,30,QUEENS,40.76657,-73.8174,35 AVENUE,149 STREET,,1.0,0,7.3,0.0,0.0,0.0,7.0,339.0,QUEENS,5,WB,40.7658652514756,-73.7848583756486
2020,11,15,14,0,,40.70276,-73.94546,BROADWAY,,,1.0,0,8.0,0.0,0.0,0.0,11.0,122.0,QUEENS,85,EB,40.75273971158239,-73.90566371918923
2020,11,15,14,15,BRONX,40.898594,-73.897095,BROADWAY,LAKE VIEW PLACE,,1.0,0,8.0,0.0,0.0,0.0,11.0,122.0,QUEENS,101,WB,40.75273971158239,-73.90566371918923
2020,11,15,20,30,,,,JEWEL AVENUE,GRAND CENTRAL PARKWAY,,0.0,0,13.4,0.0,0.0,70.0,25.3,154.0,QUEENS,36,WB,40.728693624531445,-73.82809266455902
2020,11,15,2,45,QUEENS,40.75658,-73.929756,31 STREET,36 AVENUE,,0.0,0,6.8,0.0,0.0,0.0,6.3,347.0,QUEENS,28,NB,40.75888632753556,-73.92788485566653
2020,11,15,2,45,BROOKLYN,40.68497,-73.88305,JAMAICA AVENUE,SHEPHERD AVENUE,,0.0,0,6.8,0.0,0.0,0.0,6.3,347.0,QUEENS,10,EB,40.71334904804858,-73.76223237567977
2020,11,15,10,0,,40.76791,-73.92542,CRESCENT STREET,30 ROAD,,0.0,0,3.7,0.0,0.0,0.0,9.1,81.0,QUEENS,75,SB,40.76047870489906,-73.93124866306066
2020,11,16,23,45,,40.71307,-73.75362,FRANCIS LEWIS BOULEVARD,99 AVENUE,,1.0,0,9.2,0.0,0.0,3.0,7.2,270.0,QUEENS,26,SB,40.69920986518975,-73.74764457033359
2020,11,16,23,30,,40.68701,-73.774864,MERRICK BOULEVARD,FOCH BOULEVARD,,0.0,0,9.2,0.0,0.0,3.0,7.2,270.0,QUEENS,52,EB,40.67913825994235,-73.76065613273235
2020,11,16,13,45,,40.666595,-73.87176,LINDEN BOULEVARD,FOUNTAIN AVENUE,,0.0,0,9.2,0.0,0.0,0.0,19.1,266.0,QUEENS,114,EB,40.69405496194271,-73.75365674193208
2020,11,16,8,45,,40.654457,-73.90878,LINDEN BOULEVARD,BRISTOL STREET,,0.0,0,11.1,0.0,0.0,0.0,19.1,270.0,QUEENS,69,EB,40.69405496194271,-73.75365674193208
2020,11,16,15,15,,40.686882,-73.87908,JAMAICA AVENUE,LOGAN STREET,,1.0,0,10.7,0.0,0.0,0.0,22.0,267.0,QUEENS,219,EB,40.71334904804858,-73.76223237567977
2020,11,16,11,45,BROOKLYN,40.68405,-73.97746,ATLANTIC AVENUE,FLATBUSH AVENUE,,0.0,0,9.2,0.0,0.0,0.0,20.9,266.0,QUEENS,188,WB,40.68917678940368,-73.84551630720695
2020,11,16,11,45,,40.77305,-73.92148,CRESCENT STREET,HOYT AVENUE SOUTH,,0.0,0,9.2,0.0,0.0,0.0,20.9,266.0,QUEENS,76,SB,40.76047870489906,-73.93124866306066
2020,11,16,11,15,QUEENS,40.722343,-73.80986,PARSONS BOULEVARD,78 AVENUE,,2.0,0,9.2,0.0,0.0,0.0,20.9,266.0,QUEENS,73,NB,40.764131130098654,-73.82324082693714
2020,11,16,11,15,QUEENS,40.67875,-73.8205,LINDEN BOULEVARD,LEFFERTS BOULEVARD,,1.0,0,9.2,0.0,0.0,0.0,20.9,266.0,QUEENS,68,WB,40.69405496194271,-73.75365674193208
2020,11,16,16,15,,40.677917,-73.93861,ATLANTIC AVENUE,ALBANY AVENUE,,0.0,0,11.4,0.0,0.0,45.0,23.8,270.0,QUEENS,240,WB,40.68917678940368,-73.84551630720695
2020,11,16,21,0,,40.75514,-73.92213,STEINWAY STREET,35 AVENUE,,1.0,0,11.4,0.0,0.0,0.0,13.3,257.0,QUEENS,55,SB,40.75603253548244,-73.92139124597907
2020,11,16,21,0,,40.682426,-73.86897,ATLANTIC AVENUE,LINCOLN AVENUE,,0.0,0,11.4,0.0,0.0,0.0,13.3,257.0,QUEENS,98,WB,40.68917678940368,-73.84551630720695
2020,11,16,6,0,BROOKLYN,40.684395,-73.97835,ATLANTIC AVENUE,4 AVENUE,,0.0,0,11.8,0.0,0.0,0.0,18.4,267.0,QUEENS,134,WB,40.68917678940368,-73.84551630720695
2020,11,16,6,45,QUEENS,40.717804,-73.784904,MIDLAND PARKWAY,HENLEY ROAD,,0.0,0,11.8,0.0,0.0,0.0,18.4,267.0,QUEENS,41,SB,40.7157845181115,-73.78384039440942
2020,11,16,0,0,QUEENS,40.679756,-73.816956,LINDEN BOULEVARD,123 STREET,,0.0,0,16.7,0.9,0.9,61.0,34.9,182.0,QUEENS,21,WB,40.69405496194271,-73.75365674193208
2020,11,16,0,30,,40.675495,-73.8997,ATLANTIC AVENUE,,,4.0,0,16.7,0.9,0.9,61.0,34.9,182.0,QUEENS,35,EB,40.68901366094416,-73.84547490492868
2020,11,17,15,30,BROOKLYN,40.640903,-74.00035,48 STREET,9 AVENUE,,0.0,0,7.3,0.0,0.0,0.0,5.7,288.0,QUEENS,42,SB,40.75130466847759,-73.91516814483198
2020,11,17,21,15,,,,METROPOLITAN AVENUE,FOREST PARK DRIVE EAST,,2.0,0,6.7,0.0,0.0,16.0,20.5,309.0,QUEENS,58,WB,40.7129761432768,-73.90738624632073
2020,11,17,17,30,,40.60058,-73.99161,23 AVENUE,,,0.0,0,8.3,0.0,0.0,10.0,7.1,294.0,QUEENS,137,EB,40.76673996302868,-73.8855896545257
2020,11,17,4,15,,40.75035,-73.900055,BROADWAY,,,0.0,0,6.5,0.0,0.0,1.0,8.3,265.0,QUEENS,16,EB,40.75273971158239,-73.90566371918923
2020,11,17,16,0,,40.770573,-73.982155,BROADWAY,,,0.0,0,8.2,0.0,0.0,7.0,5.8,300.0,QUEENS,90,EB,40.75273971158239,-73.90566371918923
2020,11,17,16,15,,40.83718,-73.942604,BROADWAY,,,4.0,0,8.2,0.0,0.0,7.0,5.8,300.0,QUEENS,93,WB,40.75273971158239,-73.90566371918923
2020,11,17,13,30,,40.696735,-73.93481,BROADWAY,,,1.0,0,4.9,0.0,0.0,1.0,7.8,257.0,QUEENS,120,WB,40.75273971158239,-73.90566371918923
2020,11,17,13,30,,40.71444,-73.83127,UNION TURNPIKE,QUEENS BOULEVARD,,0.0,0,4.9,0.0,0.0,1.0,7.8,257.0,QUEENS,92,EB,40.73073544931891,-73.77535749349627
2020,11,17,20,30,QUEENS,40.662655,-73.733,FRANCIS LEWIS BOULEVARD,249 STREET,,1.0,0,7.3,0.3,0.3,48.0,20.5,304.0,QUEENS,70,SB,40.72237759277076,-73.76077604002404
2020,11,17,20,15,,40.680473,-73.9614,ATLANTIC AVENUE,,,1.0,0,7.3,0.3,0.3,48.0,20.5,304.0,QUEENS,119,EB,40.68901366094416,-73.84547490492868
2020,11,17,10,30,BROOKLYN,40.708546,-73.92287,FLUSHING AVENUE,INGRAHAM STREET,,0.0,0,4.4,0.0,0.0,0.0,8.6,248.0,QUEENS,107,NB,40.71105682026166,-73.92024125965175
2020,11,17,23,45,QUEENS,40.689236,-73.84503,ATLANTIC AVENUE,98 STREET,,0.0,0,5.8,0.0,0.0,0.0,19.2,293.0,QUEENS,60,WB,40.68917678940368,-73.84551630720695
2020,11,17,6,15,,40.74539,-73.90559,WOODSIDE AVENUE,ROOSEVELT AVENUE,,0.0,0,6.0,0.0,0.0,1.0,10.8,266.0,QUEENS,20,NB,40.74998903697761,-73.90964487809356
2020,11,18,13,0,BROOKLYN,40.675735,-73.89686,ATLANTIC AVENUE,PENNSYLVANIA AVENUE,,1.0,0,1.4,0.0,0.0,0.0,21.4,324.0,QUEENS,222,EB,40.68901366094416,-73.84547490492868
2020,11,18,6,30,,40.7586,-73.802345,164 STREET,,,0.0,0,2.8,0.0,0.0,0.0,19.0,303.0,QUEENS,58,SB,40.73596245725696,-73.80488259435852
2020,11,18,15,45,,40.866024,-73.92588,BROADWAY,,,0.0,0,2.2,0.0,0.0,29.0,23.7,327.0,QUEENS,105,EB,40.75273971158239,-73.90566371918923
2020,11,18,17,0,,40.676342,-73.910934,ATLANTIC AVENUE,,,0.0,0,2.3,0.0,0.0,1.0,21.7,320.0,QUEENS,240,WB,40.68917678940368,-73.84551630720695
2020,11,18,9,15,,40.74496,-73.935425,31 STREET,,,1.0,0,1.9,0.0,0.0,0.0,16.4,299.0,QUEENS,68,NB,40.75888632753556,-73.92788485566653
2020,11,18,7,30,QUEENS,40.732037,-73.814926,JEWEL AVENUE,KISSENA BOULEVARD,,0.0,0,2.5,0.0,0.0,0.0,17.5,302.0,QUEENS,58,EB,40.728693624531445,-73.82809266455902
2020,11,18,7,0,,40.765823,-73.82373,35 AVENUE,,,0.0,0,2.5,0.0,0.0,0.0,17.5,302.0,QUEENS,65,EB,40.7658652514756,-73.7848583756486
2020,11,18,19,30,QUEENS,40.759567,-73.83015,ROOSEVELT AVENUE,MAIN STREET,,1.0,0,2.8,0.0,0.0,0.0,21.2,320.0,QUEENS,40,WB,40.76285414551059,-73.81751747374348
2020,11,18,12,15,QUEENS,40.762566,-73.81859,ROOSEVELT AVENUE,147 STREET,,0.0,0,1.3,0.0,0.0,0.0,19.9,319.0,QUEENS,40,WB,40.76285414551059,-73.81751747374348
2020,11,18,20,0,,40.70801,-73.95673,BROADWAY,,,0.0,0,2.9,0.0,0.0,0.0,20.7,321.0,QUEENS,74,EB,40.75273971158239,-73.90566371918923
2020,11,18,5,45,,40.67641,-73.98047,UNION STREET,5 AVENUE,,1.0,0,3.2,0.0,0.0,0.0,19.7,301.0,QUEENS,16,NB,40.76077657899791,-73.82670338230413
2020,11,19,22,45,,40.695114,-73.93194,BROADWAY,,,1.0,0,8.0,0.0,0.0,0.0,15.0,210.0,QUEENS,45,WB,40.75273971158239,-73.90566371918923
2020,11,19,22,30,QUEENS,40.76242,-73.82752,UNION STREET,37 AVENUE,,1.0,0,8.0,0.0,0.0,0.0,15.0,210.0,QUEENS,22,NB,40.76077657899791,-73.82670338230413
2020,11,19,7,0,,40.666595,-73.87176,LINDEN BOULEVARD,,,0.0,0,-0.9,0.0,0.0,0.0,3.6,233.0,QUEENS,50,EB,40.69405496194271,-73.75365674193208
2020,11,19,14,0,QUEENS,40.717674,-73.81713,UNION TURNPIKE,MAIN STREET,,0.0,0,0.6,0.0,0.0,0.0,9.8,208.0,QUEENS,114,EB,40.73073544931891,-73.77535749349627
2020,11,19,14,0,MANHATTAN,40.72179,-73.99986,BROADWAY,BROOME STREET,,1.0,0,0.6,0.0,0.0,0.0,9.8,208.0,QUEENS,98,EB,40.75273971158239,-73.90566371918923
2020,11,19,23,0,BROOKLYN,40.67689,-73.900055,BROADWAY,EAST NEW YORK AVENUE,,1.0,0,7.5,0.0,0.0,0.0,16.0,211.0,QUEENS,58,EB,40.75273971158239,-73.90566371918923
2020,11,19,9,45,,40.700424,-73.9444,FLUSHING AVENUE,,,1.0,0,-1.1,0.0,0.0,0.0,7.1,229.0,QUEENS,107,NB,40.71105682026166,-73.92024125965175
2020,11,19,13,15,QUEENS,40.731777,-73.77011,UNION TURNPIKE,FRANCIS LEWIS BOULEVARD,,0.0,0,-0.9,0.0,0.0,0.0,8.4,220.0,QUEENS,90,EB,40.73073544931891,-73.77535749349627
2020,11,19,13,15,,,,LITTLE NECK PARKWAY,HORACE HARDING EXPRESSWAY,,0.0,0,-0.9,0.0,0.0,0.0,8.4,220.0,QUEENS,75,SB,40.75813626540202,-73.72247831207733
2020,11,19,17,30,QUEENS,40.69507,-73.82376,ATLANTIC AVENUE,124 STREET,,2.0,0,5.9,0.0,0.0,0.0,16.6,202.0,QUEENS,282,EB,40.68901366094416,-73.84547490492868
2020,11,19,17,45,,40.71382,-73.92077,METROPOLITAN AVENUE,,,1.0,0,5.9,0.0,0.0,0.0,16.6,202.0,QUEENS,158,WB,40.7129761432768,-73.90738624632073
2020,11,19,17,45,QUEENS,40.708935,-73.77721,JAMAICA AVENUE,183 STREET,,0.0,0,5.9,0.0,0.0,0.0,16.6,202.0,QUEENS,154,WB,40.71343967842374,-73.76222553596354
2020,11,19,17,30,BROOKLYN,40.701077,-73.94043,FLUSHING AVENUE,SUMNER PLACE,,0.0,0,5.9,0.0,0.0,0.0,16.6,202.0,QUEENS,122,SB,40.71105682026166,-73.92024125965175
2020,11,19,6,45,QUEENS,40.736176,-73.71372,LITTLE NECK PARKWAY,HILLSIDE AVENUE,,0.0,0,-1.2,0.0,0.0,0.0,1.5,256.0,QUEENS,35,NB,40.75813626540202,-73.72247831207733
2020,11,20,10,45,QUEENS,40.704033,-73.7938,ARCHER AVENUE,165 STREET,,0.0,0,6.8,0.0,0.0,0.0,14.8,227.0,QUEENS,38,EB,40.70000668969047,-73.80919808477651
2020,11,20,19,30,,40.748955,-73.87136,ROOSEVELT AVENUE,,,0.0,0,15.0,0.0,0.0,0.0,10.9,214.0,QUEENS,36,WB,40.76285414551059,-73.81751747374348
2020,11,20,19,15,BROOKLYN,40.677917,-73.93861,ATLANTIC AVENUE,ALBANY AVENUE,,0.0,0,15.0,0.0,0.0,0.0,10.9,214.0,QUEENS,310,EB,40.68901366094416,-73.84547490492868
2020,11,20,19,0,,40.72721,-73.99528,BROADWAY,,,1.0,0,15.0,0.0,0.0,0.0,10.9,214.0,QUEENS,83,EB,40.75273971158239,-73.90566371918923
2020,11,20,12,30,QUEENS,40.771347,-73.92285,CRESCENT STREET,ASTORIA BOULEVARD,,0.0,0,6.6,0.0,0.0,0.0,15.3,227.0,QUEENS,86,SB,40.76047870489906,-73.93124866306066
2020,11,20,12,15,,40.694214,-73.7531,LINDEN BOULEVARD,199 STREET,,1.0,0,6.6,0.0,0.0,0.0,15.3,227.0,QUEENS,122,WB,40.68348889246835,-73.80380689916718
2020,11,20,12,30,,40.852726,-73.93443,BROADWAY,,,1.0,0,6.6,0.0,0.0,0.0,15.3,227.0,QUEENS,109,WB,40.75273971158239,-73.90566371918923
2020,11,20,12,0,QUEENS,,,JEWEL AVENUE,141 STREET,,1.0,0,6.6,0.0,0.0,0.0,15.3,227.0,QUEENS,74,WB,40.728693624531445,-73.82809266455902
2020,11,20,18,30,BROOKLYN,40.64592,-74.02384,58 STREET,1 AVENUE,,0.0,0,14.3,0.0,0.0,0.0,12.5,221.0,QUEENS,27,SB,40.75298876073282,-73.9030822831987
2020,11,20,18,45,QUEENS,40.691948,-73.730675,LINDEN BOULEVARD,231 STREET,,0.0,0,14.3,0.0,0.0,0.0,12.5,221.0,QUEENS,93,EB,40.69405496194271,-73.75365674193208
2020,11,20,8,30,QUEENS,40.719574,-73.73319,JAMAICA AVENUE,221 STREET,,1.0,0,6.8,0.0,0.0,0.0,16.4,220.0,QUEENS,104,EB,40.71334904804858,-73.76223237567977
2020,11,20,21,0,BROOKLYN,40.677017,-73.92182,ATLANTIC AVENUE,RALPH AVENUE,,1.0,0,15.4,0.0,0.0,0.0,11.3,211.0,QUEENS,152,WB,40.68917678940368,-73.84551630720695
2020,11,20,16,45,,40.735413,-73.91835,48 STREET,LAUREL HILL BOULEVARD,,0.0,0,11.9,0.0,0.0,0.0,13.8,227.0,QUEENS,83,NB,40.75130466847759,-73.91516814483198
2020,11,20,15,0,QUEENS,40.77506,-73.913864,23 AVENUE,29 STREET,,0.0,0,11.0,0.0,0.0,0.0,14.3,225.0,QUEENS,187,EB,40.76673996302868,-73.8855896545257
2020,11,20,20,15,BROOKLYN,40.66796,-73.87009,LINDEN BOULEVARD,EUCLID AVENUE,,2.0,0,15.2,0.0,0.0,0.0,10.8,210.0,QUEENS,122,EB,40.68348889246835,-73.80380689916718
2020,11,20,20,15,QUEENS,40.73563,-73.90096,51 AVENUE,65 STREET,,2.0,0,15.2,0.0,0.0,0.0,10.8,210.0,QUEENS,39,EB,40.73971537385761,-73.8730817000112
2020,11,20,4,0,QUEENS,40.71991,-73.809044,UNION TURNPIKE,PARSONS BOULEVARD,,0.0,1,7.1,0.0,0.0,0.0,16.6,219.0,QUEENS,9,WB,40.717346161317856,-73.81927408034385
2020,11,20,22,30,QUEENS,40.720097,-73.905624,FLUSHING AVENUE,60 PLACE,,1.0,0,13.5,0.0,0.0,0.0,12.2,204.0,QUEENS,72,NB,40.71105682026166,-73.92024125965175
2020,11,20,5,0,,40.771347,-73.92285,CRESCENT STREET,,,0.0,0,7.3,0.0,0.0,0.0,15.5,224.0,QUEENS,34,SB,40.76047870489906,-73.93124866306066
2020,11,20,3,45,BROOKLYN,40.671604,-73.86907,CRESCENT STREET,BLAKE AVENUE,,0.0,0,7.2,0.0,0.0,0.0,17.1,219.0,QUEENS,11,SB,40.76047870489906,-73.93124866306066
2020,11,21,13,0,QUEENS,40.70742,-73.79716,164 STREET,89 AVENUE,,0.0,0,8.5,0.0,0.0,0.0,7.6,278.0,QUEENS,97,SB,40.73596245725696,-73.80488259435852
2020,11,21,13,45,,40.71091,-73.85373,METROPOLITAN AVENUE,70 AVENUE,,1.0,0,8.5,0.0,0.0,0.0,7.6,278.0,QUEENS,129,EB,40.71144458872882,-73.85714261747643
2020,11,21,13,45,QUEENS,40.705147,-73.7957,JAMAICA AVENUE,164 STREET,,1.0,0,8.5,0.0,0.0,0.0,7.6,278.0,QUEENS,132,WB,40.71343967842374,-73.76222553596354
2020,11,21,19,30,,40.88082,-73.90344,BROADWAY,WEST 233 STREET,,0.0,0,15.2,0.0,0.0,0.0,7.4,313.0,QUEENS,78,EB,40.75273971158239,-73.90566371918923
2020,11,21,21,30,,40.680035,-73.9055,BROADWAY,,,1.0,0,13.8,0.0,0.0,0.0,7.1,319.0,QUEENS,66,EB,40.75273971158239,-73.90566371918923
2020,11,21,21,30,QUEENS,40.75972,-73.88139,31 AVENUE,87 STREET,,0.0,0,13.8,0.0,0.0,0.0,7.1,319.0,QUEENS,27,EB,40.75976405585519,-73.8809808476846
2020,11,21,21,0,,40.86464,-73.92891,BROADWAY,,,0.0,0,13.8,0.0,0.0,0.0,7.1,319.0,QUEENS,77,EB,40.75273971158239,-73.90566371918923
2020,11,21,1,45,,40.707077,-73.954025,BROADWAY,HOOPER STREET,,0.0,0,12.0,0.0,0.0,0.0,14.5,226.0,QUEENS,25,WB,40.75273971158239,-73.90566371918923
2020,11,21,1,30,BROOKLYN,40.677624,-73.93308,ATLANTIC AVENUE,SCHENECTADY AVENUE,,2.0,0,12.0,0.0,0.0,0.0,14.5,226.0,QUEENS,44,EB,40.68901366094416,-73.84547490492868
2020,11,21,9,45,QUEENS,40.69366,-73.85217,JAMAICA AVENUE,WOODHAVEN BOULEVARD,,0.0,0,8.5,0.0,0.0,0.0,8.5,282.0,QUEENS,128,WB,40.71343967842374,-73.76222553596354
2020,11,21,20,0,MANHATTAN,40.842438,-73.93926,BROADWAY,WEST 170 STREET,,1.0,0,14.5,0.0,0.0,0.0,6.6,311.0,QUEENS,85,WB,40.75273971158239,-73.90566371918923
2020,11,21,16,45,,40.676342,-73.910934,ATLANTIC AVENUE,,,0.0,0,15.1,0.0,0.0,0.0,7.9,317.0,QUEENS,262,WB,40.68917678940368,-73.84551630720695
2020,11,21,23,15,,40.702312,-73.93535,FLUSHING AVENUE,,,0.0,0,12.0,0.0,0.0,0.0,9.5,323.0,QUEENS,68,NB,40.71105682026166,-73.92024125965175
2020,11,21,23,0,QUEENS,40.76548,-73.913704,STEINWAY STREET,28 AVENUE,,0.0,0,12.0,0.0,0.0,0.0,9.5,323.0,QUEENS,57,NB,40.75603253548244,-73.92139124597907
2020,11,21,14,45,BROOKLYN,40.70191,-73.93699,FLUSHING AVENUE,BUSHWICK AVENUE,,0.0,0,10.8,0.0,0.0,0.0,7.2,288.0,QUEENS,114,SB,40.71105682026166,-73.92024125965175
2020,11,21,11,0,QUEENS,40.680115,-73.75324,MERRICK BOULEVARD,SPRINGFIELD BOULEVARD,,0.0,0,7.6,0.0,0.0,0.0,8.1,283.0,QUEENS,196,EB,40.67913825994235,-73.76065613273235
2020,11,21,11,45,,40.678543,-73.949684,ATLANTIC AVENUE,,,1.0,0,7.6,0.0,0.0,0.0,8.1,283.0,QUEENS,276,EB,40.68901366094416,-73.84547490492868
2020,11,21,10,0,,,,ATLANTIC AVENUE,VANWYCK EXPRESSWAY,,1.0,0,7.0,0.0,0.0,0.0,8.4,290.0,QUEENS,200,WB,40.68917678940368,-73.84551630720695
2020,11,21,3,30,BROOKLYN,40.682938,-73.86717,ATLANTIC AVENUE,GRANT AVENUE,,0.0,0,10.4,0.0,0.0,0.0,13.4,250.0,QUEENS,24,EB,40.68901366094416,-73.84547490492868
2020,11,21,18,45,,40.71437,-73.946075,METROPOLITAN AVENUE,,,2.0,0,15.6,0.0,0.0,0.0,6.6,315.0,QUEENS,149,WB,40.7129761432768,-73.90738624632073
2020,11,22,0,0,BROOKLYN,40.68949,-73.92207,BROADWAY,GATES AVENUE,,0.0,0,11.9,0.0,0.0,0.0,11.5,328.0,QUEENS,37,WB,40.75273971158239,-73.90566371918923
2020,11,22,0,45,QUEENS,40.750534,-73.803024,164 STREET,PIDGEON MEADOW ROAD,,0.0,0,11.9,0.0,0.0,0.0,11.5,328.0,QUEENS,13,SB,40.73596245725696,-73.80488259435852
2020,11,22,15,45,,,,BROADWAY,,,0.0,0,7.5,0.0,0.0,88.0,13.5,48.0,QUEENS,98,EB,40.75273971158239,-73.90566371918923
2020,11,22,22,15,QUEENS,40.7201,-73.79038,UTOPIA PARKWAY,GRAND CENTRAL PARKWAY,,2.0,0,10.5,0.0,0.0,98.0,13.4,76.0,QUEENS,24,SB,40.73574234463931,-73.79320511512054
2020,11,22,17,45,QUEENS,40.73502,-73.896034,MAURICE AVENUE,69 STREET,,0.0,0,8.2,0.0,0.0,100.0,14.0,48.0,QUEENS,36,NB,40.724791675907404,-73.91055234689972
2020,11,22,17,45,BROOKLYN,40.69024,-73.99437,ATLANTIC AVENUE,CLINTON STREET,,1.0,0,8.2,0.0,0.0,100.0,14.0,48.0,QUEENS,191,WB,40.68917678940368,-73.84551630720695
2020,11,22,19,45,,40.68532,-73.98071,ATLANTIC AVENUE,,,0.0,1,9.1,0.0,0.0,94.0,13.2,55.0,QUEENS,143,WB,40.68917678940368,-73.84551630720695
2020,11,22,1,45,QUEENS,40.696217,-73.7436,LINDEN BOULEVARD,SPRINGFIELD BOULEVARD,,2.0,0,11.8,0.0,0.0,0.0,13.3,341.0,QUEENS,37,EB,40.69405496194271,-73.75365674193208
2020,11,22,10,0,BROOKLYN,40.67897,-73.895706,JAMAICA AVENUE,VERMONT STREET,,0.0,0,6.1,0.0,0.0,0.0,12.2,24.0,QUEENS,70,EB,40.71334904804858,-73.76223237567977
2021,5,2,6,45,BRONX,40.835705,-73.88875,SOUTHERN BOULEVARD,EAST 173 STREET,,1.0,0,13.8,0.0,0.0,0.0,15.0,235.0,BRONX,18,SB,40.83330446064796,-73.89017824475303
2021,5,2,22,0,BRONX,40.828545,-73.8919,SOUTHERN BOULEVARD,HOME STREET,,0.0,0,23.2,0.0,0.0,0.0,8.9,201.0,BRONX,44,SB,40.83330446064796,-73.89017824475303
2021,5,3,6,15,,40.727608,-73.91211,58 STREET,,,0.0,0,15.8,0.0,0.0,0.0,9.2,48.0,QUEENS,80,SB,40.72696310922757,-73.91213112936173
2021,5,3,13,45,QUEENS,0.0,0.0,QUEENS BOULEVARD,37 STREET,,1.0,0,16.1,0.0,0.0,0.0,8.6,68.0,QUEENS,156,EB,40.7415925122657,-73.90587492825132
2021,5,4,12,0,,40.75539,-73.828285,MAIN STREET,,,0.0,0,12.6,0.0,0.0,100.0,7.2,3.0,QUEENS,38,NB,40.76123564971465,-73.83096340396514
2021,5,4,14,45,,40.744347,-73.92891,QUEENS BOULEVARD,,,0.0,0,14.2,0.0,0.0,100.0,5.0,360.0,QUEENS,166,EB,40.741411723126575,-73.90531119508944
2021,5,4,5,15,QUEENS,40.74594,-73.90006,ROOSEVELT AVENUE,64 STREET,,1.0,0,11.9,1.3,1.3,100.0,12.3,75.0,QUEENS,60,WB,40.74718479823848,-73.88820026624312
2021,5,4,10,0,QUEENS,40.735657,-73.9096,58 STREET,52 AVENUE,,0.0,0,11.9,0.0,0.0,100.0,8.7,17.0,QUEENS,83,SB,40.72696310922757,-73.91213112936173
2021,5,4,22,30,QUEENS,40.743916,-73.92519,QUEENS BOULEVARD,39 PLACE,,0.0,0,18.7,0.0,0.0,4.0,13.0,124.0,QUEENS,90,EB,40.7415925122657,-73.90587492825132
2021,5,4,13,0,BROOKLYN,40.702538,-73.99071,MAIN STREET,FRONT STREET,,0.0,0,13.4,0.0,0.0,100.0,6.5,357.0,QUEENS,52,NB,40.76123564971465,-73.83096340396514
2021,5,5,20,15,,40.730137,-73.862366,QUEENS BOULEVARD,63 DRIVE,,0.0,0,15.3,0.6,0.6,100.0,5.0,339.0,QUEENS,124,EB,40.7415925122657,-73.90587492825132
2021,5,6,16,30,QUEENS,40.747734,-73.883,ROOSEVELT AVENUE,83 STREET,,0.0,0,15.4,0.0,0.0,10.0,17.1,319.0,QUEENS,76,WB,40.74758324415429,-73.88438868546415
2021,5,6,14,45,BRONX,40.866047,-73.882744,SOUTHERN BOULEVARD,BEDFORD PARK BOULEVARD,,0.0,0,13.0,0.0,0.0,5.0,18.6,328.0,BRONX,108,SB,40.83330446064796,-73.89017824475303
2021,5,6,18,15,QUEENS,40.743046,-73.91776,QUEENS BOULEVARD,47 STREET,,1.0,0,16.6,0.0,0.0,0.0,14.3,317.0,QUEENS,72,WB,40.73225335952669,-73.86726242097384
2021,5,6,19,30,QUEENS,40.741077,-73.900566,QUEENS BOULEVARD,65 STREET,,0.0,0,17.4,0.0,0.0,0.0,12.9,306.0,QUEENS,360,EB,40.73209577874402,-73.8675057259107
2021,5,6,19,30,BRONX,40.823074,-73.8918,SOUTHERN BOULEVARD,ALDUS STREET,,0.0,0,17.4,0.0,0.0,0.0,12.9,306.0,BRONX,74,SB,40.83330446064796,-73.89017824475303
2021,5,6,15,15,,40.72703,-73.85392,QUEENS BOULEVARD,,,1.0,0,14.3,0.0,0.0,9.0,18.1,325.0,QUEENS,412,EB,40.73209577874402,-73.8675057259107
2021,5,7,20,30,QUEENS,40.76316,-73.8164,ROOSEVELT AVENUE,149 STREET,,0.0,0,16.6,0.0,0.0,5.0,11.3,121.0,QUEENS,65,WB,40.748651854916346,-73.87428766928895
2021,5,7,8,30,QUEENS,40.749462,-73.86656,ROOSEVELT AVENUE,99 STREET,,4.0,0,10.4,0.0,0.0,0.0,11.6,355.0,QUEENS,61,EB,40.7482751194661,-73.87784030623902
2021,5,7,18,15,QUEENS,40.740784,-73.89893,QUEENS BOULEVARD,BROOKLYN QUEENS EXPRESSWAY,,0.0,0,16.5,0.0,0.0,2.0,8.0,108.0,QUEENS,106,WB,40.73225335952669,-73.86726242097384
2021,5,8,18,15,QUEENS,40.741863,-73.90751,58 STREET,QUEENS BOULEVARD,,0.0,0,11.2,0.3,0.3,72.0,10.9,124.0,QUEENS,67,SB,40.72696310922757,-73.91213112936173
2021,5,8,20,0,QUEENS,40.743214,-73.907166,58 STREET,43 AVENUE,,1.0,0,11.5,0.4,0.4,68.0,8.4,155.0,QUEENS,11,NB,40.72696310922757,-73.91213112936173
2021,5,9,21,0,QUEENS,40.744347,-73.92891,QUEENS BOULEVARD,36 STREET,,0.0,0,12.3,0.7,0.7,0.0,6.2,249.0,QUEENS,61,WB,40.7417245515107,-73.90585527294725
2021,5,9,8,15,QUEENS,40.75667,-73.828804,MAIN STREET,SANFORD AVENUE,,1.0,0,8.0,0.0,0.0,0.0,13.2,292.0,QUEENS,20,NB,40.76123564971465,-73.83096340396514
2021,5,9,23,15,BRONX,40.831085,-73.86909,ROSEDALE AVENUE,WESTCHESTER AVENUE,,0.0,0,10.7,0.6,0.6,0.0,5.0,60.0,BRONX,80,NB,40.83613641796587,-73.86998957711124
2021,5,9,23,15,QUEENS,40.75639,-73.859726,34 AVENUE,109 STREET,,2.0,0,10.7,0.6,0.6,0.0,5.0,60.0,QUEENS,47,EB,40.75460772528972,-73.87622937109398
2021,5,9,19,30,,40.69003,-73.911,CENTRAL AVENUE,,,0.0,0,15.0,0.1,0.1,31.0,16.1,241.0,QUEENS,78,EB,40.61002072441424,-73.74478805097458
2021,5,10,16,45,QUEENS,40.75895,-73.83192,ROOSEVELT AVENUE,PRINCE STREET,,0.0,0,13.7,0.0,0.0,100.0,13.9,329.0,QUEENS,77,WB,40.74901214489377,-73.87085278082358
2020,1,25,14,30,STATEN ISLAND,40.57201,-74.146996,ARTHUR KILL ROAD,RICHMOND ROAD,,0.0,0,4.9,0.2,0.2,95.0,24.0,77.0,STATEN ISLAND,185,SB,40.57588442800455,-74.12725162297505
2020,1,27,16,0,STATEN ISLAND,40.6094,-74.09011,NARROWS ROAD NORTH,RICHMOND ROAD,,0.0,0,5.2,0.0,0.0,39.0,16.6,257.0,STATEN ISLAND,170,NB,40.57588442800455,-74.12725162297505
2020,8,17,16,30,,40.699955,-73.98682,SANDS STREET,JAY STREET,,0.0,0,24.1,0.0,0.0,49.0,8.3,270.0,BROOKLYN,109,SB,40.69466644980904,-73.98717814213938
2020,8,19,1,15,BROOKLYN,40.68405,-73.97746,FLATBUSH AVENUE,ATLANTIC AVENUE,,1.0,0,25.0,0.0,0.0,0.0,4.2,301.0,BROOKLYN,38,EB,40.68885244014025,-73.98986741081302
2020,8,21,13,0,,40.681126,-73.96446,WASHINGTON AVENUE,ATLANTIC AVENUE,,0.0,0,21.5,0.0,0.0,0.0,10.0,249.0,BROOKLYN,186,EB,40.68885244014025,-73.98986741081302
2020,8,21,23,15,QUEENS,40.690357,-73.84109,104 STREET,ATLANTIC AVENUE,,1.0,0,26.7,0.0,0.0,2.0,7.6,188.0,BROOKLYN,162,EB,40.68885244014025,-73.98986741081302
2020,8,21,22,15,,40.687344,-73.97985,FLATBUSH AVENUE,LIVINGSTON STREET,,0.0,0,27.2,0.0,0.0,0.0,7.2,198.0,BROOKLYN,30,WB,40.690323777064215,-73.98751843237258
2020,8,22,23,45,QUEENS,40.694317,-73.737526,223 STREET,LINDEN BOULEVARD,,1.0,0,27.1,0.0,0.0,0.0,5.9,227.0,QUEENS,135,WB,40.67035947308133,-73.85701982900666
2020,8,22,13,30,QUEENS,40.68384,-73.802574,141 STREET,LINDEN BOULEVARD,,3.0,0,23.7,0.0,0.0,0.0,9.1,236.0,BROOKLYN,226,EB,40.67014116434988,-73.85748722889235
2020,8,22,14,15,BROOKLYN,40.652794,-73.946884,NEW YORK AVENUE,LINDEN BOULEVARD,,1.0,0,24.6,0.0,0.0,0.0,8.5,242.0,BROOKLYN,194,EB,40.67014116434988,-73.85748722889235
2020,8,22,16,15,MANHATTAN,40.83406,-73.944885,WEST 157 STREET,BROADWAY,,0.0,0,27.3,0.0,0.0,0.0,8.3,236.0,BRONX,151,NB,40.91097951979918,-73.89662353670386
2020,8,22,6,0,BROOKLYN,40.654312,-73.90974,BOYLAND STREET,LINDEN BOULEVARD,,1.0,0,23.5,0.0,0.0,0.0,11.9,241.0,QUEENS,13,WB,40.67045279104683,-73.85705429845902
2020,8,23,17,45,QUEENS,40.705826,-73.79397,JAMAICA AVENUE,MERRICK BOULEVARD,,1.0,0,27.6,0.0,0.0,19.0,8.4,187.0,QUEENS,137,EB,40.67409541387648,-73.7279640410026
2020,8,23,16,0,BROOKLYN,40.692234,-73.987305,WILLOUGHBY STREET,JAY STREET,,0.0,0,27.2,0.0,0.0,16.0,8.5,192.0,BROOKLYN,130,NB,40.69466644980904,-73.98717814213938
2020,8,23,22,0,,40.74972,-73.89858,64 STREET,BROADWAY,,0.0,0,27.3,0.0,0.0,3.0,11.2,180.0,BRONX,148,NB,40.91097951979918,-73.89662353670386
2020,8,23,21,45,MANHATTAN,40.79465,-73.971794,WEST 96 STREET,BROADWAY,,1.0,0,27.5,0.0,0.0,7.0,11.8,168.0,BRONX,90,SB,40.91097951979918,-73.89662353670386
2020,8,23,2,0,QUEENS,40.693592,-73.82971,117 STREET,ATLANTIC AVENUE,,0.0,0,25.3,0.0,0.0,0.0,10.2,222.0,BROOKLYN,43,WB,40.68885244014025,-73.98986741081302
2020,8,23,0,15,QUEENS,40.686302,-73.793915,SUTPHIN BOULEVARD,LINDEN BOULEVARD,,1.0,0,26.5,0.0,0.0,0.0,9.2,206.0,BROOKLYN,44,EB,40.67006119081688,-73.85746016799304
2020,8,23,8,30,MANHATTAN,40.773872,-73.98223,WEST 66 STREET,BROADWAY,,1.0,0,22.8,0.0,0.0,0.0,6.3,257.0,BRONX,44,NB,40.91097951979918,-73.89662353670386
2020,8,24,15,45,QUEENS,40.7056,-73.85822,WOODHAVEN BOULEVARD,UNION TURNPIKE,,1.0,0,27.5,0.0,0.0,3.0,8.7,240.0,QUEENS,102,WB,40.752412901306805,-73.70190998615158
2020,8,25,21,30,QUEENS,40.670555,-73.85634,79 STREET,LINDEN BOULEVARD,,0.0,0,31.5,1.0,1.0,1.0,17.0,291.0,BROOKLYN,118,EB,40.67014116434988,-73.85748722889235
2020,8,25,16,0,QUEENS,40.66454,-73.82276,LEFFERTS BOULEVARD,SOUTH CONDUIT AVENUE,,0.0,0,29.1,0.0,0.0,1.0,15.5,270.0,QUEENS,617,EB,40.66534629165069,-73.72884972179746
2020,8,25,20,15,BROOKLYN,40.65417,-73.91375,EAST 96 STREET,LINDEN BOULEVARD,,1.0,0,31.8,0.0,0.0,3.0,18.2,279.0,QUEENS,63,WB,40.67045279104683,-73.85705429845902
2020,8,25,20,15,MANHATTAN,40.74453,-73.98888,WEST 27 STREET,BROADWAY,,1.0,0,31.8,0.0,0.0,3.0,18.2,279.0,BRONX,151,NB,40.91097951979918,-73.89662353670386
2020,8,25,10,15,BROOKLYN,40.65726,-73.90031,JUNIUS STREET,LINDEN BOULEVARD,,1.0,0,23.5,0.0,0.0,0.0,9.4,266.0,BROOKLYN,37,EB,40.67006119081688,-73.85746016799304
2020,8,25,12,30,MANHATTAN,40.719395,-74.00189,CANAL STREET,BROADWAY,,0.0,0,24.1,0.0,0.0,0.0,11.2,266.0,BRONX,109,SB,40.91097951979918,-73.89662353670386
2020,8,26,10,45,,40.840675,-73.838394,EAST TREMONT AVENUE,HUTCHINSON RIVER PARKWAY,,0.0,0,20.8,0.0,0.0,1.0,10.8,323.0,BRONX,493,SB,40.8890008993706,-73.81532348425235
2020,8,26,22,45,QUEENS,40.69247,-73.75942,192 STREET,LINDEN BOULEVARD,,0.0,0,24.3,0.0,0.0,0.0,16.6,294.0,QUEENS,34,WB,40.67045279104683,-73.85705429845902
2020,8,26,5,45,,,,VANWYCK EXPRESSWAY,ATLANTIC AVENUE,,0.0,0,23.1,0.0,0.0,0.0,15.6,320.0,QUEENS,72,WB,40.68329762666034,-73.8661351866307
2020,8,26,14,45,,40.877068,-73.906105,WEST 230 STREET,BROADWAY,,0.0,0,21.6,0.0,0.0,0.0,17.4,320.0,BRONX,153,SB,40.91097951979918,-73.89662353670386
2020,8,26,14,15,BROOKLYN,40.677483,-73.93033,UTICA AVENUE,ATLANTIC AVENUE,,0.0,0,21.6,0.0,0.0,0.0,17.4,320.0,BROOKLYN,203,EB,40.68300864160691,-73.86667078272325
2020,8,27,8,30,MANHATTAN,40.820095,-73.955086,WEST 135 STREET,BROADWAY,,1.0,0,21.1,0.0,0.0,1.0,4.3,180.0,BRONX,68,NB,40.91097951979918,-73.89662353670386
2020,8,27,16,15,BROOKLYN,40.696983,-73.935234,MYRTLE AVENUE,BROADWAY,,1.0,0,28.7,0.0,0.0,21.0,19.2,253.0,BRONX,160,SB,40.91097951979918,-73.89662353670386
2020,8,27,2,45,,,,CROSS BAY BOULEVARD,NORTH CHANNEL BRIDGE,,2.0,0,22.5,0.0,0.0,0.0,8.7,253.0,QUEENS,19,SB,40.64243654327412,-73.83488213461122
2020,8,28,12,30,MANHATTAN,40.828976,-73.9486,WEST 149 STREET,BROADWAY,,0.0,0,22.2,0.0,0.0,0.0,9.4,263.0,BRONX,104,NB,40.91097951979918,-73.89662353670386
2020,8,28,20,45,,,,231 ST BROADWAY,BROADWAY,,1.0,0,28.7,0.0,0.0,0.0,10.5,274.0,BRONX,117,NB,40.91097951979918,-73.89662353670386
2020,8,28,8,0,BRONX,40.878643,-73.871605,EAST GUN HILL ROAD,WEBSTER AVENUE,,1.0,0,22.1,0.0,0.0,0.0,9.5,279.0,BRONX,113,SB,40.899997608955886,-73.86187498270343
2020,8,28,15,45,QUEENS,40.66675,-73.779945,ROCKAWAY BOULEVARD,SOUTH CONDUIT AVENUE,,0.0,0,25.9,0.0,0.0,6.0,11.1,295.0,QUEENS,647,EB,40.66534629165069,-73.72884972179746
2020,8,28,10,15,MANHATTAN,40.705868,-74.01326,MORRIS STREET,BROADWAY,,0.0,0,21.4,0.0,0.0,0.0,9.5,259.0,BRONX,106,SB,40.91097951979918,-73.89662353670386
2020,8,28,7,30,,,,PELHAM PARKWAY SOUTH,HUTCHINSON RIVER PARKWAY,,1.0,0,22.4,0.0,0.0,0.0,9.5,281.0,BRONX,615,SB,40.8890008993706,-73.81532348425235
2020,8,29,14,0,QUEENS,40.704422,-73.792854,ARCHER AVENUE,MERRICK BOULEVARD,,0.0,0,23.0,2.0,2.0,99.0,12.0,213.0,QUEENS,167,EB,40.67409541387648,-73.7279640410026
2020,8,29,21,45,BRONX,40.844177,-73.90292,EAST 174 STREET,WEBSTER AVENUE,,0.0,0,26.3,0.0,0.0,4.0,12.2,204.0,BRONX,52,SB,40.899997608955886,-73.86187498270343
2020,8,29,0,0,,,,141 STREET,UNION TURNPIKE,,0.0,0,23.7,0.0,0.0,4.0,5.9,223.0,QUEENS,27,EB,40.752320122623104,-73.7018235767101
2020,8,29,18,0,QUEENS,40.691948,-73.730675,231 STREET,LINDEN BOULEVARD,,0.0,0,25.2,0.5,0.5,20.0,11.2,228.0,QUEENS,64,WB,40.67045279104683,-73.85705429845902
2020,8,30,20,30,BROOKLYN,40.676342,-73.910934,ROCKAWAY AVENUE,ATLANTIC AVENUE,,1.0,0,26.2,0.0,0.0,0.0,18.1,313.0,BROOKLYN,91,EB,40.68300864160691,-73.86667078272325
2020,8,30,20,30,BROOKLYN,40.685368,-73.9109,BUSHWICK AVENUE,DECATUR STREET,,1.0,0,26.2,0.0,0.0,0.0,18.1,313.0,QUEENS,31,NB,40.69415986862387,-73.90207203886553
2020,8,30,4,45,BROOKLYN,40.66278,-73.88086,ASHFORD STREET,LINDEN BOULEVARD,,1.0,0,24.0,0.0,0.0,2.0,19.9,314.0,QUEENS,35,WB,40.67035947308133,-73.85701982900666
2020,8,30,23,45,MANHATTAN,40.865547,-73.92728,DYCKMAN STREET,BROADWAY,,0.0,0,24.8,0.0,0.0,0.0,8.7,312.0,BRONX,101,NB,40.91097951979918,-73.89662353670386
2020,8,31,18,0,STATEN ISLAND,40.564537,-74.13171,CLARKE AVENUE,AMBOY ROAD,,0.0,0,22.8,0.0,0.0,21.0,7.7,152.0,STATEN ISLAND,120,NB,40.56548849495992,-74.12975338607914
2020,8,31,15,15,BROOKLYN,40.68405,-73.97746,FLATBUSH AVENUE,ATLANTIC AVENUE,,2.0,0,21.7,0.0,0.0,0.0,6.2,83.0,BROOKLYN,158,EB,40.68300864160691,-73.86667078272325
2020,8,31,10,0,MANHATTAN,40.78175,-73.98107,WEST 76 STREET,BROADWAY,,1.0,0,17.8,0.0,0.0,2.0,6.4,27.0,BRONX,93,NB,40.91097951979918,-73.89662353670386
2020,8,31,7,30,STATEN ISLAND,40.64056,-74.11801,RICHMOND TERRACE,BROADWAY,,0.0,0,17.7,0.0,0.0,0.0,7.2,27.0,BRONX,81,NB,40.91097951979918,-73.89662353670386
2020,8,31,9,0,,40.88671,-73.81529,NEW ENGLAND THRUWAY,HUTCHINSON RIVER PARKWAY,,0.0,0,16.9,0.0,0.0,0.0,7.1,24.0,BRONX,713,NB,40.8889889357578,-73.81516522160659
2020,8,31,16,45,QUEENS,40.759724,-73.92061,37 STREET,BROADWAY,,1.0,0,22.2,0.0,0.0,0.0,6.6,112.0,BRONX,196,NB,40.91097951979918,-73.89662353670386
2020,9,1,18,15,,40.84771,-73.93798,WEST 177 STREET,BROADWAY,,1.0,0,24.3,0.0,0.0,67.0,13.4,121.0,BRONX,196,NB,40.91097951979918,-73.89662353670386
2020,9,1,18,0,BROOKLYN,40.654137,-73.91234,ROCKAWAY PARKWAY,LINDEN BOULEVARD,,0.0,0,24.3,0.0,0.0,67.0,13.4,121.0,QUEENS,97,WB,40.67045279104683,-73.85705429845902
2020,9,1,11,0,QUEENS,40.748314,-73.70955,263 STREET,UNION TURNPIKE,,2.0,0,20.2,0.0,0.0,34.0,8.9,58.0,QUEENS,105,EB,40.752320122623104,-73.7018235767101
2020,9,1,12,30,MANHATTAN,40.795326,-73.971306,WEST 97 STREET,BROADWAY,,0.0,0,20.7,0.0,0.0,57.0,9.6,70.0,BRONX,141,SB,40.91097951979918,-73.89662353670386
2020,9,1,20,15,QUEENS,40.73675,-73.87767,QUEENS BOULEVARD,BROADWAY,,0.0,0,24.3,0.0,0.0,13.0,13.5,119.0,BRONX,154,NB,40.91097951979918,-73.89662353670386
2020,9,1,20,0,MANHATTAN,40.866024,-73.92588,CUMMING STREET,BROADWAY,,1.0,0,24.3,0.0,0.0,13.0,13.5,119.0,BRONX,182,NB,40.91097951979918,-73.89662353670386
2020,9,1,16,30,BROOKLYN,40.679237,-73.88017,ATKINS AVENUE,ATLANTIC AVENUE,,0.0,0,23.2,0.0,0.0,100.0,15.0,125.0,QUEENS,189,WB,40.68329762666034,-73.8661351866307
2020,9,1,5,45,BRONX,40.895374,-73.86356,EAST 233 STREET,WEBSTER AVENUE,,1.0,0,21.4,0.0,0.0,1.0,9.7,132.0,BRONX,54,SB,40.899997608955886,-73.86187498270343
2020,9,2,7,0,QUEENS,,,79 STREET,BROADWAY,,0.0,0,21.4,0.1,0.1,48.0,11.2,94.0,BRONX,73,NB,40.91097951979918,-73.89662353670386
2020,9,2,17,0,STATEN ISLAND,40.632675,-74.116844,CARY AVENUE,BROADWAY,,0.0,0,25.7,0.0,0.0,57.0,12.9,207.0,BRONX,129,SB,40.91097951979918,-73.89662353670386
2020,9,2,16,0,MANHATTAN,40.78896,-73.97596,WEST 87 STREET,BROADWAY,,0.0,0,24.9,0.0,0.0,44.0,9.2,191.0,BRONX,110,SB,40.91097951979918,-73.89662353670386
2020,9,2,23,45,,,,VANWYCK EXPRESSWAY,UNION TURNPIKE,,0.0,0,25.6,0.0,0.0,3.0,7.3,171.0,QUEENS,13,EB,40.752320122623104,-73.7018235767101
2020,9,2,15,0,BROOKLYN,40.66629,-73.87268,LOGAN STREET,LINDEN BOULEVARD,,0.0,0,24.2,0.4,0.4,56.0,7.9,177.0,BROOKLYN,330,EB,40.67014116434988,-73.85748722889235
2020,9,3,12,30,,40.67399,-73.73506,LAURELTON PARKWAY,MERRICK BOULEVARD,,0.0,0,23.6,0.0,0.0,5.0,10.3,335.0,QUEENS,224,WB,40.674220149046334,-73.72792583536202
2020,9,3,19,15,BROOKLYN,40.680035,-73.9055,EASTERN PARKWAY,BROADWAY,,0.0,0,28.4,0.0,0.0,0.0,9.1,252.0,BRONX,114,SB,40.91097951979918,-73.89662353670386
2020,9,3,21,15,BROOKLYN,40.65726,-73.90031,JUNIUS STREET,LINDEN BOULEVARD,,0.0,0,28.1,0.0,0.0,29.0,5.0,210.0,BROOKLYN,246,EB,40.67014116434988,-73.85748722889235
2020,9,3,18,45,MANHATTAN,40.783844,-73.979996,WEST 79 STREET,BROADWAY,,1.0,0,27.7,0.0,0.0,0.0,8.8,261.0,BRONX,207,NB,40.91097951979918,-73.89662353670386
2020,9,3,14,30,BROOKLYN,40.675735,-73.89686,PENNSYLVANIA AVENUE,ATLANTIC AVENUE,,1.0,0,24.6,0.0,0.0,1.0,9.1,351.0,BROOKLYN,161,EB,40.68300864160691,-73.86667078272325
2020,9,3,14,15,,40.67399,-73.73506,LAURELTON PARKWAY,MERRICK BOULEVARD,,0.0,0,24.6,0.0,0.0,1.0,9.1,351.0,QUEENS,198,EB,40.67409541387648,-73.7279640410026
2020,9,3,2,45,MANHATTAN,40.719395,-74.00189,CANAL STREET,BROADWAY,,0.0,0,24.9,0.0,0.0,2.0,8.6,178.0,BRONX,8,SB,40.91097951979918,-73.89662353670386
2020,9,3,13,15,BRONX,40.829136,-73.9114,EAST 166 STREET,WEBSTER AVENUE,,0.0,0,24.3,0.0,0.0,0.0,10.1,343.0,BRONX,66,NB,40.899997608955886,-73.86187498270343
2020,9,4,10,15,MANHATTAN,40.83406,-73.944885,WEST 157 STREET,BROADWAY,,0.0,0,21.1,0.0,0.0,0.0,7.9,294.0,BRONX,126,NB,40.91097951979918,-73.89662353670386
2020,9,4,12,45,MANHATTAN,40.868885,-73.9176,WEST 213 STREET,BROADWAY,,0.0,0,22.2,0.0,0.0,0.0,8.0,275.0,BRONX,136,NB,40.91097951979918,-73.89662353670386
2020,9,4,12,15,BRONX,40.829136,-73.9114,EAST 166 STREET,WEBSTER AVENUE,,0.0,0,22.2,0.0,0.0,0.0,8.0,275.0,BRONX,106,SB,40.899997608955886,-73.86187498270343
2020,9,4,17,15,BRONX,40.846863,-73.90142,EAST 176 STREET,WEBSTER AVENUE,,0.0,0,28.1,0.0,0.0,7.0,12.1,297.0,BRONX,103,NB,40.899997608955886,-73.86187498270343
2020,9,4,13,45,BROOKLYN,40.67619,-73.9081,EASTERN PARKWAY,ATLANTIC AVENUE,,0.0,0,23.4,0.0,0.0,0.0,7.0,282.0,BROOKLYN,178,EB,40.68300864160691,-73.86667078272325
2020,9,4,20,30,,40.684002,-73.86343,76 STREET,ATLANTIC AVENUE,,0.0,0,29.3,0.0,0.0,0.0,12.9,293.0,BROOKLYN,141,EB,40.68300864160691,-73.86667078272325
2020,9,6,22,0,QUEENS,40.75301,-73.86541,102 STREET,37 AVENUE,,1.0,0,25.7,0.0,0.0,1.0,11.6,173.0,QUEENS,55,WB,40.76173579540905,-73.83032200952246
2020,9,7,0,0,QUEENS,40.717674,-73.81713,UNION TURNPIKE,MAIN STREET,,0.0,0,23.8,0.0,0.0,0.0,12.4,170.0,QUEENS,31,NB,40.75925854203928,-73.82998676491403
2020,9,7,20,30,QUEENS,40.74955,-73.88618,80 STREET,37 AVENUE,,0.0,0,24.8,0.0,0.0,0.0,16.3,155.0,QUEENS,58,WB,40.76173579540905,-73.83032200952246
2020,9,8,20,15,,40.753937,-73.8603,108 STREET,37 AVENUE,,1.0,0,26.6,0.0,0.0,0.0,8.1,148.0,QUEENS,56,WB,40.76173579540905,-73.83032200952246
2020,9,12,23,45,,40.769333,-73.841736,31 AVENUE,COLLEGE POINT BOULEVARD,,0.0,0,19.3,0.0,0.0,4.0,11.3,107.0,QUEENS,54,NB,40.75752307653875,-73.8340633141307
2020,9,12,12,0,QUEENS,40.752487,-73.8269,CHERRY AVENUE,MAIN STREET,,0.0,0,16.7,0.0,0.0,15.0,12.9,60.0,QUEENS,154,NB,40.75843315655654,-73.82958157078328
2020,9,12,8,0,BROOKLYN,40.674465,-73.97547,7 AVENUE,UNION STREET,,1.0,0,17.2,0.0,0.0,34.0,11.8,50.0,QUEENS,45,SB,40.76206951000844,-73.8273437459541
2020,10,3,21,15,,40.883556,-73.84974,EAST 224 STREET,EASTCHESTER ROAD,,0.0,0,18.8,0.0,0.0,0.0,6.8,273.0,BRONX,46,SB,40.87544547292265,-73.84550500730373
2020,10,3,18,15,BRONX,,,SOUTHERN BOULEVARD,EAST FORDHAM ROAD,,1.0,0,18.3,0.0,0.0,9.0,9.2,281.0,BRONX,606,EB,40.85553055528957,-73.8758834623486
2020,10,3,17,45,,40.86235,-73.894066,EAST KINGSBRIDGE ROAD,EAST FORDHAM ROAD,,1.0,0,17.8,0.0,0.0,15.0,8.6,272.0,BRONX,659,EB,40.85553055528957,-73.8758834623486
2020,10,4,18,0,QUEENS,40.765224,-73.9317,21 STREET,BROADWAY,,1.0,0,18.4,0.0,0.0,98.0,9.7,105.0,BRONX,92,SB,40.88871456585301,-73.89874259600576
2020,10,4,18,45,BROOKLYN,40.660736,-73.910385,BRISTOL STREET,RIVERDALE AVENUE,,0.0,0,18.4,0.0,0.0,98.0,9.7,105.0,BRONX,84,SB,40.888520045187086,-73.90777462251019
2020,10,4,17,30,MANHATTAN,40.86811,-73.91976,ISHAM STREET,BROADWAY,,0.0,0,18.0,0.0,0.0,96.0,8.4,97.0,BRONX,106,SB,40.90783572218552,-73.89655418268748
2020,10,5,17,45,BRONX,40.871376,-73.86334,BARNES AVENUE,BURKE AVENUE,,0.0,0,19.0,0.0,0.0,42.0,9.8,17.0,BRONX,60,EB,40.871187520012015,-73.85325257170162
2020,10,5,14,45,BROOKLYN,40.701424,-73.94307,THORNTON STREET,BROADWAY,,1.0,0,15.0,0.0,0.0,2.0,8.1,13.0,BRONX,146,NB,40.90783572218552,-73.89655418268748
2020,10,5,13,45,BRONX,40.882168,-73.863594,EAST 217 STREET,WHITE PLAINS ROAD,,0.0,0,13.4,0.0,0.0,1.0,9.0,358.0,BRONX,110,SB,40.88121911868811,-73.86462909840256
2020,10,6,9,15,MANHATTAN,40.773872,-73.98223,WEST 66 STREET,BROADWAY,,0.0,0,13.5,0.0,0.0,30.0,4.0,185.0,BRONX,71,SB,40.88871456585301,-73.89874259600576
2020,10,6,9,30,,40.8746,-73.9097,WEST 225 STREET,BROADWAY,,3.0,0,13.5,0.0,0.0,30.0,4.0,185.0,BRONX,106,NB,40.90783572218552,-73.89655418268748
2020,10,6,14,45,BROOKLYN,40.659744,-73.91708,EAST 98 STREET,RIVERDALE AVENUE,,0.0,0,14.9,0.0,0.0,0.0,7.3,237.0,BRONX,111,NB,40.888520045187086,-73.90777462251019
2020,10,6,12,0,MANHATTAN,40.715233,-74.005424,DUANE STREET,BROADWAY,,0.0,0,12.2,0.0,0.0,16.0,6.0,245.0,BRONX,137,NB,40.88867430931019,-73.8985701786462
2020,10,6,23,0,,40.852306,-73.89811,EAST 180 STREET,WEBSTER AVENUE,,0.0,0,17.9,0.0,0.0,0.0,9.5,205.0,BRONX,58,SB,40.89590743991521,-73.86322488360126
2020,10,7,17,15,,40.833412,-73.85906,CROSS BRONX EXPRESSWAY,WESTCHESTER AVENUE,,1.0,0,21.9,0.0,0.0,0.0,23.2,234.0,BRONX,194,SB,40.85306601686836,-73.82728611700175
2020,10,7,5,30,,40.824932,-73.82431,CROSS BRONX EXPRESSWAY,RANDALL AVENUE,,1.0,0,15.4,0.0,0.0,0.0,13.2,227.0,BRONX,12,WB,40.82473564829501,-73.82469914746942
2020,10,7,19,30,BRONX,,,SOUTHERN BOULEVARD,EAST FORDHAM ROAD,,0.0,0,23.0,0.0,0.0,0.0,24.5,240.0,BRONX,404,EB,40.85553055528957,-73.8758834623486
2020,10,7,0,30,BROOKLYN,40.710625,-73.96678,WYTHE AVENUE,BROADWAY,,1.0,0,16.9,0.0,0.0,0.0,9.7,207.0,BRONX,16,SB,40.88871456585301,-73.89874259600576
2020,10,8,12,30,,,,HUGH GRANT CIRCLE,WESTCHESTER AVENUE,,0.0,0,13.3,0.0,0.0,1.0,13.6,287.0,BRONX,174,SB,40.85306601686836,-73.82728611700175
2020,10,8,16,30,BRONX,,,CROSS BRONX EXPRESSWAY,WHITE PLAINS ROAD,,3.0,0,16.9,0.0,0.0,3.0,21.0,305.0,BRONX,74,NB,40.880983194466495,-73.86418500311738
2020,10,8,4,30,,40.877068,-73.906105,WEST 230 STREET,BROADWAY,,0.0,0,17.0,0.0,0.0,0.0,18.2,288.0,BRONX,11,NB,40.90783572218552,-73.89655418268748
2020,10,9,14,15,BRONX,40.83389,-73.85466,OLMSTEAD AVENUE,WESTCHESTER AVENUE,,0.0,0,13.5,0.0,0.0,8.0,2.6,304.0,BRONX,213,SB,40.85306601686836,-73.82728611700175
2020,10,9,19,0,BRONX,40.86832,-73.83317,BARTOW AVENUE,EDSON AVENUE,,0.0,0,19.4,0.0,0.0,28.0,11.6,248.0,BRONX,203,SB,40.86712327372124,-73.83246238400676
2020,10,9,12,45,MANHATTAN,40.78175,-73.98107,WEST 76 STREET,BROADWAY,,2.0,0,10.1,0.0,0.0,17.0,5.6,285.0,BRONX,163,NB,40.88867430931019,-73.8985701786462
2020,10,10,11,45,BRONX,40.86052,-73.89257,EAST 189 STREET,WEBSTER AVENUE,,0.0,0,14.2,0.0,0.0,0.0,15.6,218.0,BRONX,104,SB,40.89590743991521,-73.86322488360126
2020,10,10,19,30,,,,ELLINGTON PARKWAY,BROADWAY,,1.0,0,21.3,0.0,0.0,0.0,18.7,218.0,BRONX,108,SB,40.90783572218552,-73.89655418268748
2020,10,10,21,30,BRONX,40.871254,-73.84355,HAMMERSLEY AVENUE,EASTCHESTER ROAD,,0.0,0,21.4,0.0,0.0,0.0,17.2,213.0,BRONX,65,SB,40.87544547292265,-73.84550500730373
2020,10,10,21,15,BRONX,40.83988,-73.916794,TOWNSEND AVENUE,EAST 170 STREET,,0.0,0,21.4,0.0,0.0,0.0,17.2,213.0,BRONX,54,WB,40.83810824783708,-73.9117733613712
2020,10,10,2,45,BRONX,40.892708,-73.84455,EDENWALD AVENUE,EDSON AVENUE,,2.0,0,16.7,0.0,0.0,0.0,16.8,225.0,BRONX,25,SB,40.86712327372124,-73.83246238400676
2020,10,11,14,0,BRONX,40.86879,-73.83168,BARTOW AVENUE,BAYCHESTER AVENUE,,0.0,0,17.2,0.0,0.0,22.0,14.2,30.0,BRONX,44,NB,40.86462210987978,-73.82981519124999
2020,10,11,19,45,BRONX,40.814266,-73.912964,SAINT ANNS AVENUE,EAST 149 STREET,,1.0,0,17.7,0.0,0.0,100.0,10.3,61.0,BRONX,92,EB,40.81376885904009,-73.91143509168012
2020,10,11,19,45,MANHATTAN,40.734837,-73.99076,EAST 14 STREET,BROADWAY,,1.0,0,17.7,0.0,0.0,100.0,10.3,61.0,BRONX,96,NB,40.88867430931019,-73.8985701786462
2020,10,11,11,15,QUEENS,40.74107,-73.88,CORNISH AVENUE,BROADWAY,,1.0,0,16.6,0.0,0.0,9.0,8.4,340.0,BRONX,110,SB,40.90783572218552,-73.89655418268748
2020,10,11,1,30,MANHATTAN,40.792095,-73.97366,WEST 92 STREET,BROADWAY,,1.0,0,19.6,0.0,0.0,0.0,17.3,228.0,BRONX,13,SB,40.88875880048227,-73.89881818795449
2020,10,11,1,30,QUEENS,40.746033,-73.93441,SKILLMAN AVENUE,QUEENS BOULEVARD,,0.0,0,19.6,0.0,0.0,0.0,17.3,228.0,QUEENS,20,EB,40.71407875048589,-73.83064010300787
2020,10,11,13,15,QUEENS,40.748993,-73.89687,69 STREET,BROADWAY,,1.0,0,17.3,0.0,0.0,17.0,13.9,25.0,BRONX,36,SB,40.88875880048227,-73.89881818795449
2020,10,11,13,30,BRONX,40.82929,-73.91642,EAST 165 STREET,MORRIS AVENUE,,1.0,0,17.3,0.0,0.0,17.0,13.9,25.0,BRONX,77,SB,40.82190197288536,-73.92058356108149
2020,10,11,3,15,,40.702293,-73.79117,MERRICK BOULEVARD,LIBERTY AVENUE,,2.0,0,18.7,0.0,0.0,0.0,16.6,231.0,QUEENS,32,EB,40.69566668380388,-73.80511045808521
2020,10,11,6,45,,40.753937,-73.8603,37 AVENUE,108 STREET,,1.0,0,18.4,0.0,0.0,3.0,13.5,254.0,QUEENS,35,SB,40.7368050475482,-73.85158921036636
2020,10,11,21,30,MANHATTAN,40.72543,-73.99678,EAST HOUSTON STREET,BROADWAY,,0.0,0,17.3,0.0,0.0,100.0,10.8,75.0,BRONX,87,NB,40.90783572218552,-73.89655418268748
2020,10,11,4,15,BRONX,40.90414,-73.905014,WEST 256 STREET,RIVERDALE AVENUE,,4.0,0,18.6,0.0,0.0,1.0,16.9,236.0,BRONX,6,SB,40.888520045187086,-73.90777462251019
2020,10,12,15,30,QUEENS,40.778625,-73.77587,26 AVENUE,BELL BOULEVARD,,0.0,0,11.7,0.6,0.6,100.0,21.9,60.0,QUEENS,31,NB,40.744119187498285,-73.75979133629775
2020,10,12,19,15,BROOKLYN,40.67818,-73.870705,CRESCENT STREET,LIBERTY AVENUE,,1.0,0,12.6,0.0,0.0,100.0,22.3,59.0,QUEENS,95,WB,40.69566668380388,-73.80511045808521
2020,10,12,12,30,BRONX,,,EAST BEDFORD PARK BOULEVARD,GRAND CONCOURSE,,1.0,0,11.2,0.9,0.9,100.0,18.2,51.0,BRONX,116,NB,40.85983553397648,-73.89833189908187
2020,10,12,16,45,BRONX,40.82751,-73.92495,GERARD AVENUE,EAST 161 STREET,,0.0,0,12.0,0.3,0.3,100.0,25.5,68.0,BRONX,27,EB,40.82204011550232,-73.90782589681655
2020,10,13,19,15,,40.879215,-73.885284,EAST MOSHOLU PARKWAY SOUTH,JEROME AVENUE,,0.0,0,14.7,0.0,0.0,100.0,16.8,332.0,BRONX,62,EB,40.879837340115074,-73.88455859529336
2020,10,13,9,15,BRONX,40.8283,-73.88296,BRONX RIVER AVENUE,WESTCHESTER AVENUE,,0.0,0,13.4,0.0,0.0,100.0,23.4,53.0,BRONX,112,EB,40.82713581461271,-73.88712269519081
2020,10,13,17,30,QUEENS,40.734375,-73.87342,57 AVENUE,QUEENS BOULEVARD,,0.0,0,14.8,0.0,0.0,100.0,16.5,349.0,QUEENS,145,EB,40.714023872438766,-73.83070138133681
2020,10,13,10,30,QUEENS,40.696934,-73.80358,148 STREET,LIBERTY AVENUE,,0.0,0,13.7,0.2,0.2,100.0,19.2,28.0,QUEENS,95,EB,40.69566668380388,-73.80511045808521
2020,10,13,15,30,QUEENS,40.74196,-73.90831,57 STREET,QUEENS BOULEVARD,,0.0,0,14.7,0.1,0.1,100.0,16.3,5.0,QUEENS,103,EB,40.714023872438766,-73.83070138133681
2020,10,13,15,45,BROOKLYN,40.674397,-73.896515,PENNSYLVANIA AVENUE,LIBERTY AVENUE,,0.0,0,14.7,0.1,0.1,100.0,16.3,5.0,QUEENS,134,WB,40.69566668380388,-73.80511045808521
2020,10,14,14,15,BRONX,,,227TH STREET,LACONIA AVENUE,,0.0,0,13.6,0.0,0.0,0.0,9.4,272.0,BRONX,41,NB,40.87040665043948,-73.85560934369036
2020,10,14,18,30,BRONX,40.842335,-73.91619,EAST 172 STREET,JEROME AVENUE,,0.0,0,19.1,0.0,0.0,0.0,11.5,238.0,BRONX,110,WB,40.879837340115074,-73.88455859529336
2020,10,14,6,45,QUEENS,40.733536,-73.87035,59 AVENUE,QUEENS BOULEVARD,,0.0,0,12.8,0.0,0.0,1.0,15.1,308.0,QUEENS,58,EB,40.71407875048589,-73.83064010300787
2020,10,15,10,45,QUEENS,40.751976,-73.93197,HONEYWELL STREET,NORTHERN BOULEVARD,,2.0,0,11.2,0.0,0.0,0.0,8.4,200.0,QUEENS,381,WB,40.76282806459011,-73.83498691207076
2020,10,15,9,30,QUEENS,40.718277,-73.86358,66 AVENUE,WOODHAVEN BOULEVARD,,0.0,0,12.4,0.0,0.0,0.0,7.6,199.0,QUEENS,184,SB,40.71002817301077,-73.85967026824659
2020,10,15,16,45,QUEENS,40.721466,-73.804535,164 STREET,UNION TURNPIKE,,0.0,0,20.7,0.0,0.0,0.0,18.7,191.0,QUEENS,206,EB,40.75231560307869,-73.70183221541632
2020,10,15,16,30,QUEENS,40.75411,-73.898705,BROOKLYN QUEENS EXPRESSWAY,NORTHERN BOULEVARD,,2.0,0,20.7,0.0,0.0,0.0,18.7,191.0,QUEENS,208,WB,40.757811104786526,-73.79076849949568
2020,10,15,7,30,QUEENS,40.752995,-73.91068,NEWTOWN ROAD,NORTHERN BOULEVARD,,1.0,0,12.9,0.0,0.0,0.0,7.9,204.0,QUEENS,212,EB,40.762686573944,-73.83496211883678
2020,10,15,7,30,QUEENS,40.71388,-73.75404,JAMAICA AVENUE,FRANCIS LEWIS BOULEVARD,,1.0,0,12.9,0.0,0.0,0.0,7.9,204.0,QUEENS,76,NB,40.73783809853911,-73.77339716177659
2020,10,16,18,45,BRONX,40.829422,-73.897575,PROSPECT AVENUE,EAST 169 STREET,,1.0,0,13.0,5.3,5.3,95.0,10.2,315.0,BRONX,46,WB,40.83031060940712,-73.89906885962424
2020,10,16,4,15,,40.850822,-73.90147,RYER AVENUE,EAST BURNSIDE AVENUE,,0.0,0,17.8,0.0,0.0,11.0,13.2,191.0,BRONX,9,EB,40.85191681687494,-73.90299514044365
2020,10,16,15,45,BRONX,40.819355,-73.91829,EAST 153 STREET,COURTLANDT AVENUE,,0.0,0,14.1,1.5,1.5,100.0,15.0,336.0,BRONX,65,NB,40.81990168376606,-73.9180490867872
2020,10,16,5,45,QUEENS,40.72106,-73.75945,HILLSIDE AVENUE,FRANCIS LEWIS BOULEVARD,,1.0,0,17.4,0.0,0.0,13.0,12.4,188.0,QUEENS,32,SB,40.73779600312671,-73.77354513690918
2020,10,17,16,15,QUEENS,40.69612,-73.74619,LINDEN BOULEVARD,FRANCIS LEWIS BOULEVARD,,0.0,0,13.1,0.0,0.0,0.0,13.4,329.0,QUEENS,71,SB,40.73779600312671,-73.77354513690918
2020,10,17,14,0,BRONX,40.834522,-73.87183,CROES AVENUE,EAST 174 STREET,,1.0,0,10.2,0.0,0.0,0.0,13.3,322.0,BRONX,89,WB,40.83690365414482,-73.886351797655
2020,10,17,14,45,BRONX,40.86879,-73.83168,BARTOW AVENUE,BAYCHESTER AVENUE,,0.0,0,10.2,0.0,0.0,0.0,13.3,322.0,BRONX,69,NB,40.86462210987978,-73.82981519124999
2020,10,17,13,0,QUEENS,40.712,-73.82546,83 AVENUE,QUEENS BOULEVARD,,1.0,0,8.7,0.0,0.0,0.0,12.6,307.0,QUEENS,59,EB,40.714023872438766,-73.83070138133681
2020,10,17,19,45,BROOKLYN,40.66147,-73.98613,7 AVENUE,PROSPECT AVENUE,,1.0,0,15.3,0.0,0.0,0.0,12.2,315.0,BRONX,63,SB,40.83262036696304,-73.89655955414587
2020,10,17,19,0,QUEENS,40.596325,-73.76673,ROCKAWAY FREEWAY,SEAGIRT BOULEVARD,,3.0,0,15.3,0.0,0.0,0.0,12.2,315.0,QUEENS,206,EB,40.59669184876589,-73.7431261831425
2020,10,17,6,15,QUEENS,40.76229,-73.75711,CROSS ISLAND PARKWAY,NORTHERN BOULEVARD,,0.0,0,9.5,1.5,1.5,0.0,16.3,5.0,QUEENS,117,WB,40.76282806459011,-73.83498691207076
2020,10,17,7,45,,40.86804,-73.879105,MOSHOLU PARKWAY,SOUTHERN BOULEVARD,,0.0,0,9.2,1.0,1.0,0.0,15.6,7.0,BRONX,38,SB,40.83846992634956,-73.88709375177686
2020,10,17,7,30,BRONX,40.82789,-73.89821,HOME STREET,PROSPECT AVENUE,,0.0,0,9.2,1.0,1.0,0.0,15.6,7.0,BRONX,26,SB,40.83262036696304,-73.89655955414587
2020,10,17,9,30,BRONX,40.857426,-73.89111,EAST 187 STREET,3 AVENUE,,1.0,0,8.3,0.0,0.0,15.0,14.3,348.0,BRONX,73,SB,40.81923005030196,-73.9137912030821
2020,10,17,18,45,,,,VANWYCK EXPRESSWAY,101 AVENUE,,1.0,0,14.9,0.0,0.0,0.0,11.8,308.0,QUEENS,72,WB,40.69583830965821,-73.80533646638568
2020,10,17,5,15,BRONX,40.838196,-73.901184,CLAREMONT PARKWAY,3 AVENUE,,0.0,0,9.9,1.7,1.7,0.0,15.5,1.0,BRONX,23,NB,40.81923005030196,-73.9137912030821
2020,10,18,19,45,,40.843994,-73.89752,CROSS BRONX EXPRESSWAY,3 AVENUE,,1.0,0,16.7,0.0,0.0,90.0,17.1,136.0,BRONX,66,NB,40.81923005030196,-73.9137912030821
2020,10,18,19,0,,,,CLEARVIEW EXPRESSWAY,NORTHERN BOULEVARD,,0.0,0,16.7,0.0,0.0,90.0,17.1,136.0,QUEENS,299,WB,40.76282806459011,-73.83498691207076
2020,10,18,17,0,BRONX,40.881504,-73.879364,ROCHAMBEAU AVENUE,EAST GUN HILL ROAD,,0.0,0,16.8,0.0,0.0,96.0,16.8,149.0,BRONX,239,EB,40.87827827768546,-73.87001729057403
2020,10,18,5,15,,40.854874,-73.916794,WEST BURNSIDE AVENUE,SEDGWICK AVENUE,,0.0,0,7.8,0.0,0.0,0.0,2.6,304.0,BRONX,13,SB,40.86173264971843,-73.90954413878711
2020,10,19,11,30,MANHATTAN,40.790417,-73.95184,EAST 101 STREET,MADISON AVENUE,,0.0,0,11.4,0.0,0.0,55.0,4.7,23.0,MANHATTAN,193,NB,40.76454441934089,-73.97071537689743
2020,10,19,15,0,BRONX,40.86558,-73.89888,WEST 192 STREET,JEROME AVENUE,,1.0,0,16.1,0.0,0.0,22.0,8.9,130.0,BRONX,166,SB,40.84389528378356,-73.91506654378382
2020,10,19,16,30,BRONX,40.862755,-73.901085,WEST FORDHAM ROAD,JEROME AVENUE,,1.0,0,16.7,0.0,0.0,31.0,10.2,141.0,BRONX,116,NB,40.84389528378356,-73.91506654378382
2020,10,19,8,30,MANHATTAN,40.83349,-73.94158,WEST 158 STREET,AMSTERDAM AVENUE,,0.0,0,12.2,0.0,0.0,4.0,7.2,117.0,MANHATTAN,218,NB,40.77138758222208,-73.9869011657756
2020,10,19,12,30,MANHATTAN,,,48 STREET,5 AVENUE,,0.0,0,11.5,0.0,0.0,59.0,5.8,68.0,MANHATTAN,207,SB,40.765210540597664,-73.97232378573453
2020,10,19,12,15,,40.8047,-73.91243,BRUCKNER BOULEVARD,EAST 138 STREET,,0.0,0,11.5,0.0,0.0,59.0,5.8,68.0,BRONX,144,EB,40.80620310993376,-73.91601445891995
2020,10,19,21,45,BRONX,40.824654,-73.89194,WESTCHESTER AVENUE,SOUTHERN BOULEVARD,,1.0,0,17.5,0.0,0.0,45.0,8.9,137.0,BRONX,148,SB,40.86812593605342,-73.87591700781218
2020,10,19,21,15,MANHATTAN,40.783146,-73.97833,WEST 79 STREET,AMSTERDAM AVENUE,,1.0,0,17.5,0.0,0.0,45.0,8.9,137.0,MANHATTAN,110,NB,40.77138758222208,-73.9869011657756
2020,10,19,23,0,MANHATTAN,40.763588,-73.97142,EAST 59 STREET,MADISON AVENUE,,0.0,0,15.4,0.0,0.0,46.0,8.4,130.0,MANHATTAN,92,NB,40.76454441934089,-73.97071537689743
2020,10,19,1,30,BRONX,40.823376,-73.90912,EAST 162 STREET,3 AVENUE,,0.0,0,13.6,0.0,0.0,1.0,10.1,117.0,MANHATTAN,40,NB,40.76250702682578,-73.96588748049983
2020,10,19,14,30,MANHATTAN,40.7736,-73.98158,WEST 66 STREET,COLUMBUS AVENUE,,0.0,0,14.1,0.0,0.0,5.0,5.4,110.0,MANHATTAN,212,SB,40.77015977626436,-73.98408803704464
2020,10,19,14,15,QUEENS,40.748993,-73.89687,69 STREET,BROADWAY,,1.0,0,14.1,0.0,0.0,5.0,5.4,110.0,MANHATTAN,116,NB,40.769281825309655,-73.9819835261734
2020,10,19,10,0,MANHATTAN,40.78654,-73.95044,EAST 97 STREET,LEXINGTON AVENUE,,0.0,0,11.5,0.0,0.0,55.0,2.2,351.0,MANHATTAN,170,SB,40.763188025501776,-73.967483153524
2020,10,19,2,0,,40.801754,-73.93121,EAST 125 STREET,1 AVENUE,,1.0,0,13.4,0.0,0.0,1.0,7.3,123.0,MANHATTAN,50,NB,40.760563048507095,-73.96128118729173
2020,10,20,17,0,MANHATTAN,40.760536,-73.95836,EAST 62 STREET,YORK AVENUE,,0.0,0,18.8,0.0,0.0,88.0,5.6,220.0,MANHATTAN,137,SB,40.75959566651487,-73.95903883827019
2020,10,20,18,45,MANHATTAN,40.800663,-73.946465,EAST 116 STREET,5 AVENUE,,0.0,0,19.2,0.0,0.0,88.0,6.5,236.0,MANHATTAN,216,SB,40.765210540597664,-73.97232378573453
2020,10,20,9,0,MANHATTAN,40.78791,-73.95579,EAST 96 STREET,5 AVENUE,,0.0,0,15.2,0.0,0.0,60.0,5.2,168.0,MANHATTAN,223,SB,40.765210540597664,-73.97232378573453
2020,10,20,9,0,MANHATTAN,40.800793,-73.93492,EAST 122 STREET,2 AVENUE,,1.0,0,15.2,0.0,0.0,60.0,5.2,168.0,MANHATTAN,345,SB,40.76155611399958,-73.96364603678819
2020,10,20,8,30,BRONX,40.862534,-73.89708,EAST FORDHAM ROAD,GRAND CONCOURSE,,1.0,0,15.1,0.0,0.0,45.0,6.6,171.0,BRONX,139,NB,40.82233428995296,-73.92483093620778
2020,10,20,8,45,MANHATTAN,40.75022,-73.979065,EAST 39 STREET,PARK AVENUE,,0.0,0,15.1,0.0,0.0,45.0,6.6,171.0,MANHATTAN,274,SB,40.763899773365175,-73.96920811990597
2020,10,20,1,45,MANHATTAN,40.75478,-73.97994,EAST 44 STREET,5 AVENUE,,2.0,0,15.0,0.0,0.0,13.0,9.9,134.0,MANHATTAN,30,SB,40.765210540597664,-73.97232378573453
2020,10,20,6,45,BROOKLYN,40.674603,-73.98178,GARFIELD PLACE,5 AVENUE,,1.0,0,14.7,0.0,0.0,14.0,9.1,146.0,MANHATTAN,195,SB,40.765210540597664,-73.97232378573453
2020,10,20,13,30,MANHATTAN,40.791046,-73.95138,EAST 102 STREET,MADISON AVENUE,,0.0,0,15.4,0.0,0.0,96.0,4.3,156.0,MANHATTAN,176,NB,40.76454441934089,-73.97071537689743
2020,10,20,19,45,MANHATTAN,40.79465,-73.971794,WEST 96 STREET,BROADWAY,,0.0,0,19.2,0.0,0.0,95.0,6.6,241.0,MANHATTAN,68,NB,40.769281825309655,-73.9819835261734
2020,10,21,16,15,BRONX,40.885098,-73.90066,WEST 238 STREET,BROADWAY,,0.0,0,18.5,0.0,0.0,100.0,8.6,195.0,MANHATTAN,153,NB,40.769281825309655,-73.9819835261734
2020,10,21,19,0,MANHATTAN,40.748302,-73.97835,EAST 37 STREET,LEXINGTON AVENUE,,1.0,0,20.3,0.0,0.0,98.0,12.6,200.0,MANHATTAN,204,SB,40.763188025501776,-73.967483153524
2020,10,21,9,45,MANHATTAN,40.731163,-73.99193,EAST 9 STREET,BROADWAY,,1.0,0,15.5,0.0,0.0,100.0,3.8,131.0,MANHATTAN,120,NB,40.769281825309655,-73.9819835261734
2020,10,21,17,45,MANHATTAN,40.771023,-73.95365,EAST 77 STREET,1 AVENUE,,1.0,0,19.6,0.0,0.0,100.0,8.9,194.0,MANHATTAN,248,NB,40.760563048507095,-73.96128118729173
2020,10,21,17,0,,,,EAST 173 STREET,PARK AVENUE,,0.0,0,19.6,0.0,0.0,100.0,8.9,194.0,MANHATTAN,203,SB,40.763899773365175,-73.96920811990597
2020,10,21,7,15,BRONX,40.834057,-73.88973,EAST 172 STREET,SOUTHERN BOULEVARD,,0.0,0,15.6,0.0,0.0,100.0,4.3,132.0,BRONX,304,SB,40.86812593605342,-73.87591700781218
2020,10,21,6,30,BRONX,40.846577,-73.913155,CLIFFORD PLACE,JEROME AVENUE,,2.0,0,16.0,0.0,0.0,100.0,3.9,124.0,BRONX,83,SB,40.84389528378356,-73.91506654378382
2020,10,21,10,15,MANHATTAN,40.784462,-73.97737,WEST 81 STREET,AMSTERDAM AVENUE,,0.0,0,15.9,0.0,0.0,100.0,2.2,90.0,MANHATTAN,185,NB,40.77138758222208,-73.9869011657756
2020,10,22,6,0,BROOKLYN,40.680035,-73.9055,EASTERN PARKWAY,BROADWAY,,0.0,0,16.8,0.0,0.0,100.0,6.0,237.0,MANHATTAN,52,SB,40.76929595125536,-73.98222151271054
2020,10,22,6,0,MANHATTAN,40.761173,-73.95789,EAST 63 STREET,YORK AVENUE,,0.0,0,16.8,0.0,0.0,100.0,6.0,237.0,MANHATTAN,63,SB,40.75959566651487,-73.95903883827019
2020,10,22,22,45,BRONX,40.817368,-73.90259,EAST 156 STREET,PROSPECT AVENUE,,0.0,0,19.0,0.0,0.0,100.0,4.5,151.0,BRONX,25,NB,40.83262036696304,-73.89655955414587
2020,10,22,9,0,MANHATTAN,40.777542,-73.957016,EAST 83 STREET,LEXINGTON AVENUE,,0.0,0,16.1,0.0,0.0,100.0,5.4,262.0,MANHATTAN,212,SB,40.763188025501776,-73.967483153524
2020,10,22,0,0,MANHATTAN,40.76685,-73.95376,EAST 72 STREET,YORK AVENUE,,0.0,0,18.2,0.0,0.0,71.0,7.5,163.0,MANHATTAN,22,SB,40.75959566651487,-73.95903883827019
2020,10,23,19,45,MANHATTAN,40.80573,-73.93855,EAST 126 STREET,PARK AVENUE,,0.0,0,18.8,0.0,0.0,100.0,9.0,143.0,MANHATTAN,144,SB,40.763899773365175,-73.96920811990597
2020,10,23,16,15,BRONX,,,MAJOR DEEGAN EXPRESSWAY,EAST 138 STREET,,0.0,0,18.6,0.0,0.0,100.0,7.1,135.0,BRONX,152,EB,40.80620310993376,-73.91601445891995
2020,10,23,18,15,BRONX,40.84678,-73.8838,EAST 181 STREET,SOUTHERN BOULEVARD,,2.0,0,18.8,0.0,0.0,100.0,8.5,144.0,BRONX,435,SB,40.86812593605342,-73.87591700781218
2020,10,23,12,30,MANHATTAN,40.750763,-73.97446,EAST 42 STREET,3 AVENUE,,1.0,0,17.6,0.1,0.1,100.0,5.2,106.0,MANHATTAN,243,NB,40.76250702682578,-73.96588748049983
2020,10,23,9,45,BROOKLYN,40.66079,-73.99401,22 STREET,5 AVENUE,,0.0,0,16.5,0.0,0.0,100.0,3.2,153.0,MANHATTAN,157,SB,40.765210540597664,-73.97232378573453
2020,10,23,21,15,MANHATTAN,40.770752,-73.95695,EAST 75 STREET,2 AVENUE,,1.0,0,18.3,0.0,0.0,100.0,8.6,147.0,MANHATTAN,421,SB,40.76155611399958,-73.96364603678819
2020,10,24,0,0,MANHATTAN,40.731018,-73.985916,EAST 12 STREET,2 AVENUE,,0.0,0,17.7,0.0,0.0,100.0,8.2,142.0,MANHATTAN,510,SB,40.76155611399958,-73.96364603678819
2020,10,24,12,45,MANHATTAN,40.76211,-73.96016,EAST 63 STREET,1 AVENUE,,0.0,0,16.9,0.0,0.0,99.0,8.2,203.0,MANHATTAN,236,NB,40.760563048507095,-73.96128118729173
2020,10,24,12,30,BRONX,40.817387,-73.92277,MORRIS AVENUE,EAST 149 STREET,,2.0,0,16.9,0.0,0.0,99.0,8.2,203.0,BRONX,179,WB,40.817742289314,-73.92413427826929
2020,10,24,12,45,BROOKLYN,40.667847,-73.99404,15 STREET,3 AVENUE,,1.0,0,16.9,0.0,0.0,99.0,8.2,203.0,MANHATTAN,242,NB,40.76250702682578,-73.96588748049983
2020,10,24,19,30,MANHATTAN,40.83349,-73.94158,WEST 158 STREET,AMSTERDAM AVENUE,,1.0,0,19.6,0.0,0.0,95.0,14.2,330.0,MANHATTAN,184,NB,40.77138758222208,-73.9869011657756
2020,10,24,22,45,QUEENS,40.748993,-73.89687,69 STREET,BROADWAY,,0.0,0,16.4,0.0,0.0,33.0,12.2,315.0,MANHATTAN,58,NB,40.769281825309655,-73.9819835261734
2020,10,24,23,45,MANHATTAN,40.80765,-73.939255,EAST 128 STREET,MADISON AVENUE,,0.0,0,15.3,0.0,0.0,12.0,16.1,318.0,MANHATTAN,132,NB,40.76454441934089,-73.97071537689743
2020,10,24,2,15,MANHATTAN,40.753,-73.969894,EAST 47 STREET,2 AVENUE,,0.0,0,17.4,0.0,0.0,100.0,7.4,151.0,MANHATTAN,268,SB,40.76155611399958,-73.96364603678819
2020,10,25,19,15,BRONX,40.834507,-73.91772,EAST 167 STREET,GRAND CONCOURSE,,0.0,0,11.2,0.0,0.0,0.0,8.5,78.0,BRONX,106,SB,40.82233716319509,-73.92501662419204
2020,10,25,13,0,MANHATTAN,40.759163,-73.97675,EAST 51 STREET,5 AVENUE,,0.0,0,8.1,0.0,0.0,0.0,13.2,22.0,MANHATTAN,184,SB,40.765210540597664,-73.97232378573453
2020,10,25,17,15,,40.600945,-73.82037,WEST 17 ROAD,CROSS BAY BOULEVARD,,1.0,0,10.9,0.0,0.0,0.0,9.5,53.0,QUEENS,126,SB,40.63505243851088,-73.830206409448
2020,10,25,23,15,MANHATTAN,40.790314,-73.93957,EAST 107 STREET,1 AVENUE,,0.0,0,10.9,0.0,0.0,20.0,8.8,55.0,MANHATTAN,147,NB,40.760563048507095,-73.96128118729173
2020,10,25,23,30,BROOKLYN,40.68532,-73.98071,ATLANTIC AVENUE,3 AVENUE,,1.0,0,10.9,0.0,0.0,20.0,8.8,55.0,MANHATTAN,97,NB,40.76250702682578,-73.96588748049983
2020,10,25,16,30,MANHATTAN,40.79507,-73.93919,EAST 113 STREET,2 AVENUE,,0.0,0,10.4,0.0,0.0,0.0,11.2,42.0,MANHATTAN,497,SB,40.76155611399958,-73.96364603678819
2020,10,25,0,0,MANHATTAN,40.787064,-73.94194,EAST 102 STREET,1 AVENUE,,1.0,0,14.5,0.0,0.0,0.0,18.2,326.0,MANHATTAN,145,NB,40.760563048507095,-73.96128118729173
2020,10,25,5,15,BRONX,40.844368,-73.88902,EAST TREMONT AVENUE,PROSPECT AVENUE,,1.0,0,9.5,0.0,0.0,0.0,15.7,349.0,BRONX,9,SB,40.83262036696304,-73.89655955414587
2020,10,26,0,0,MANHATTAN,40.82077,-73.95459,WEST 136 STREET,BROADWAY,,0.0,0,11.0,0.0,0.0,53.0,9.9,46.0,MANHATTAN,38,SB,40.76929595125536,-73.98222151271054
2020,10,26,16,0,MANHATTAN,40.796738,-73.96098,WEST 104 STREET,CENTRAL PARK WEST,,1.0,0,13.4,0.0,0.0,100.0,10.2,82.0,MANHATTAN,164,NB,40.768868315694526,-73.98132377514041
2020,10,26,7,0,MANHATTAN,40.765865,-73.95742,EAST 69 STREET,1 AVENUE,,0.0,0,11.0,0.0,0.0,100.0,15.6,82.0,MANHATTAN,361,NB,40.760563048507095,-73.96128118729173
2020,10,26,20,0,BRONX,40.84097,-73.89918,EAST 173 STREET,3 AVENUE,,0.0,0,14.3,0.0,0.0,100.0,10.6,114.0,MANHATTAN,194,NB,40.76250702682578,-73.96588748049983
2020,10,26,11,45,MANHATTAN,40.79166,-73.96469,WEST 96 STREET,CENTRAL PARK WEST,,0.0,0,11.9,0.0,0.0,100.0,16.5,79.0,MANHATTAN,95,NB,40.768868315694526,-73.98132377514041
2020,10,27,11,45,MANHATTAN,40.805668,-73.93648,EAST 127 STREET,LEXINGTON AVENUE,,1.0,0,13.8,0.0,0.0,99.0,10.5,338.0,MANHATTAN,196,SB,40.763188025501776,-73.967483153524
2020,10,27,8,0,BROOKLYN,40.696983,-73.935234,JEFFERSON STREET,BROADWAY,,0.0,0,14.3,0.0,0.0,81.0,8.9,284.0,MANHATTAN,98,NB,40.769281825309655,-73.9819835261734
2020,10,27,0,0,BROOKLYN,40.65183,-74.003334,38 STREET,5 AVENUE,,0.0,0,14.1,0.0,0.0,87.0,6.2,100.0,MANHATTAN,83,SB,40.765210540597664,-73.97232378573453
2020,10,27,20,0,MANHATTAN,40.76524,-73.95788,EAST 68 STREET,1 AVENUE,,0.0,0,14.6,0.0,0.0,0.0,0.5,225.0,MANHATTAN,192,NB,40.760563048507095,-73.96128118729173
2020,10,27,19,0,MANHATTAN,40.79094,-73.947235,EAST 104 STREET,LEXINGTON AVENUE,,0.0,0,14.7,0.0,0.0,10.0,4.1,315.0,MANHATTAN,210,SB,40.763188025501776,-73.967483153524
2020,10,27,19,45,MANHATTAN,40.827103,-73.94997,WEST 146 STREET,BROADWAY,,0.0,0,14.7,0.0,0.0,10.0,4.1,315.0,MANHATTAN,73,NB,40.769281825309655,-73.9819835261734
2020,10,27,18,15,BROOKLYN,40.612556,-74.0361,SHORE ROAD,3 AVENUE,,1.0,0,14.7,0.0,0.0,14.0,5.9,349.0,MANHATTAN,237,NB,40.76250702682578,-73.96588748049983
2020,10,27,1,15,MANHATTAN,40.785095,-73.97691,WEST 82 STREET,AMSTERDAM AVENUE,,3.0,0,14.2,0.0,0.0,76.0,6.8,122.0,MANHATTAN,25,NB,40.77138758222208,-73.9869011657756
2020,10,27,17,30,MANHATTAN,40.77428,-73.97738,WEST 69 STREET,CENTRAL PARK WEST,,1.0,0,13.9,0.0,0.0,28.0,8.8,351.0,MANHATTAN,168,NB,40.768868315694526,-73.98132377514041
2020,10,28,18,0,,40.695114,-73.93194,HART STREET,BROADWAY,,0.0,0,12.8,0.0,0.0,29.0,7.7,259.0,MANHATTAN,134,SB,40.76929595125536,-73.98222151271054
2020,10,28,17,0,MANHATTAN,40.74639,-73.977646,EAST 35 STREET,3 AVENUE,,0.0,0,12.5,0.0,0.0,96.0,6.8,295.0,MANHATTAN,248,NB,40.76250702682578,-73.96588748049983
2020,10,28,7,15,MANHATTAN,40.71137,-74.00862,ANN STREET,BROADWAY,,1.0,0,12.5,0.0,0.0,96.0,5.4,98.0,MANHATTAN,57,NB,40.769281825309655,-73.9819835261734
2020,10,28,7,45,MANHATTAN,40.772705,-73.949486,EAST 81 STREET,YORK AVENUE,,2.0,0,12.5,0.0,0.0,96.0,5.4,98.0,MANHATTAN,175,NB,40.75959566651487,-73.95903883827019
2020,10,28,9,15,MANHATTAN,40.752598,-73.96702,EAST 48 STREET,1 AVENUE,,1.0,0,12.1,0.5,0.5,100.0,6.4,52.0,MANHATTAN,336,NB,40.760563048507095,-73.96128118729173
2020,10,28,22,45,MANHATTAN,40.72543,-73.99678,EAST HOUSTON STREET,BROADWAY,,1.0,0,14.1,0.0,0.0,1.0,7.3,279.0,MANHATTAN,48,NB,40.769281825309655,-73.9819835261734
2020,10,28,22,45,MANHATTAN,40.805637,-73.9344,EAST 128 STREET,3 AVENUE,,0.0,0,14.1,0.0,0.0,1.0,7.3,279.0,MANHATTAN,152,NB,40.76250702682578,-73.96588748049983
2020,10,28,12,30,MANHATTAN,40.758663,-73.959724,EAST 59 STREET,YORK AVENUE,,1.0,0,11.8,0.2,0.2,100.0,8.2,61.0,MANHATTAN,107,SB,40.75959566651487,-73.95903883827019
2020,10,28,5,45,BROOKLYN,40.642174,-74.02064,60 STREET,3 AVENUE,,0.0,0,12.6,0.0,0.0,86.0,6.3,77.0,MANHATTAN,112,NB,40.76250702682578,-73.96588748049983
2020,10,28,5,15,QUEENS,40.73675,-73.87767,QUEENS BOULEVARD,BROADWAY,,1.0,0,12.6,0.0,0.0,86.0,6.3,77.0,MANHATTAN,24,SB,40.76929595125536,-73.98222151271054
2020,10,28,16,15,,,,W 225 STREET,BROADWAY,,1.0,0,12.5,0.1,0.1,100.0,6.6,315.0,MANHATTAN,156,NB,40.769281825309655,-73.9819835261734
2020,10,29,13,0,BROOKLYN,40.676285,-73.98701,1 STREET,3 AVENUE,,0.0,0,11.6,1.8,1.8,83.0,11.8,59.0,MANHATTAN,216,NB,40.76250702682578,-73.96588748049983
2020,10,29,11,45,MANHATTAN,,,WEST 56 STREET,12 AVENUE,,0.0,0,11.9,0.3,0.3,73.0,7.6,31.0,MANHATTAN,616,NB,40.77341475633688,-73.9929003644298
2020,10,29,11,15,BROOKLYN,40.69854,-73.94116,MARCUS GARVEY BOULEVARD,PARK AVENUE,,0.0,0,11.9,0.3,0.3,73.0,7.6,31.0,MANHATTAN,190,NB,40.76380567378792,-73.96900670900098
2020,10,29,17,30,MANHATTAN,40.77549,-73.98218,WEST 68 STREET,BROADWAY,,1.0,0,11.3,3.0,3.0,100.0,16.0,59.0,MANHATTAN,152,NB,40.769281825309655,-73.9819835261734
2020,10,29,19,45,MANHATTAN,40.747097,-73.98345,EAST 33 STREET,MADISON AVENUE,,1.0,0,11.1,4.0,4.0,100.0,19.6,43.0,MANHATTAN,212,NB,40.76454441934089,-73.97071537689743
2020,10,29,19,0,QUEENS,40.739395,-73.87792,CORONA AVENUE,BROADWAY,,1.0,0,11.1,4.0,4.0,100.0,19.6,43.0,MANHATTAN,77,NB,40.769281825309655,-73.9819835261734
2020,10,29,15,30,MANHATTAN,40.771065,-73.95965,EAST 74 STREET,3 AVENUE,,0.0,0,11.1,4.2,4.2,100.0,13.4,66.0,MANHATTAN,232,NB,40.76250702682578,-73.96588748049983
2020,10,30,14,30,BROOKLYN,40.65799,-73.996925,27 STREET,5 AVENUE,,0.0,0,4.5,1.5,1.5,100.0,24.0,13.0,MANHATTAN,204,SB,40.765210540597664,-73.97232378573453
2020,10,30,14,15,BROOKLYN,40.642174,-74.02064,60 STREET,3 AVENUE,,0.0,0,4.5,1.5,1.5,100.0,24.0,13.0,MANHATTAN,255,NB,40.76250702682578,-73.96588748049983
2020,10,30,16,15,,40.845657,-73.925446,SEDGWICK AVENUE,WASHINGTON BRIDGE,,0.0,0,4.8,0.6,0.6,99.0,21.7,7.0,MANHATTAN,351,EB,40.84675908899073,-73.92799857296622
2020,10,30,12,45,MANHATTAN,40.788055,-73.94433,EAST 102 STREET,2 AVENUE,,1.0,0,4.8,1.9,1.9,100.0,27.0,16.0,MANHATTAN,350,SB,40.76155611399958,-73.96364603678819
2020,10,30,18,30,MANHATTAN,,,WEST 86 STREET,COLUMBUS AVENUE,,1.0,0,5.2,0.5,0.5,100.0,17.1,7.0,MANHATTAN,204,SB,40.77015977626436,-73.98408803704464
2020,10,30,19,45,BRONX,40.822033,-73.91182,EAST 159 STREET,3 AVENUE,,0.0,0,5.4,0.0,0.0,98.0,15.5,1.0,MANHATTAN,214,NB,40.76250702682578,-73.96588748049983
2020,10,30,17,30,MANHATTAN,40.74892,-73.9779,EAST 38 STREET,LEXINGTON AVENUE,,0.0,0,5.0,0.6,0.6,99.0,19.9,6.0,MANHATTAN,260,SB,40.763188025501776,-73.967483153524
2020,10,30,15,45,MANHATTAN,40.766167,-73.954254,EAST 71 STREET,YORK AVENUE,,0.0,0,4.6,0.8,0.8,100.0,22.6,8.0,MANHATTAN,143,SB,40.75959566651487,-73.95903883827019
2020,10,30,15,0,MANHATTAN,40.77234,-73.95269,EAST 79 STREET,1 AVENUE,,1.0,0,4.6,0.8,0.8,100.0,22.6,8.0,MANHATTAN,280,NB,40.760563048507095,-73.96128118729173
2020,10,30,13,45,MANHATTAN,40.778137,-73.95449,EAST 85 STREET,3 AVENUE,,0.0,0,4.4,2.1,2.1,100.0,25.4,12.0,MANHATTAN,252,NB,40.76250702682578,-73.96588748049983
2020,10,30,9,30,BROOKLYN,40.661163,-74.00069,26 STREET,3 AVENUE,,0.0,0,7.1,1.2,1.2,100.0,24.0,28.0,MANHATTAN,263,NB,40.76250702682578,-73.96588748049983
2020,10,30,9,0,MANHATTAN,40.792725,-73.973206,WEST 93 STREET,BROADWAY,,0.0,0,7.1,1.2,1.2,100.0,24.0,28.0,MANHATTAN,158,SB,40.76929595125536,-73.98222151271054
2020,10,30,9,30,MANHATTAN,40.787224,-73.95417,EAST 96 STREET,MADISON AVENUE,,0.0,0,7.1,1.2,1.2,100.0,24.0,28.0,MANHATTAN,202,NB,40.76454441934089,-73.97071537689743
2020,10,30,9,0,BROOKLYN,40.66416,-73.990524,PROSPECT AVENUE,5 AVENUE,,0.0,0,7.1,1.2,1.2,100.0,24.0,28.0,MANHATTAN,176,SB,40.765210540597664,-73.97232378573453
2020,10,30,8,45,MANHATTAN,40.77139,-73.95044,EAST 79 STREET,YORK AVENUE,,1.0,0,7.5,1.2,1.2,100.0,23.2,28.0,MANHATTAN,76,SB,40.75959566651487,-73.95903883827019
2020,10,30,8,30,MANHATTAN,40.804676,-73.93223,EAST 128 STREET,2 AVENUE,,0.0,0,7.5,1.2,1.2,100.0,23.2,28.0,MANHATTAN,356,SB,40.76155611399958,-73.96364603678819
2020,10,30,8,30,MANHATTAN,40.794735,-73.96988,WEST 97 STREET,AMSTERDAM AVENUE,,0.0,0,7.5,1.2,1.2,100.0,23.2,28.0,MANHATTAN,240,NB,40.77138758222208,-73.9869011657756
2020,10,31,14,30,MANHATTAN,40.733032,-73.98445,EAST 15 STREET,2 AVENUE,,1.0,0,3.4,0.0,0.0,5.0,8.1,21.0,MANHATTAN,341,SB,40.76155611399958,-73.96364603678819
2020,10,31,22,45,,40.737907,-73.877174,JUSTICE AVENUE,BROADWAY,,1.0,0,7.3,0.0,0.0,52.0,9.1,173.0,MANHATTAN,62,SB,40.76929595125536,-73.98222151271054
2020,10,31,7,45,BRONX,40.829453,-73.90658,EAST 167 STREET,3 AVENUE,,0.0,0,3.1,0.0,0.0,0.0,12.8,338.0,MANHATTAN,136,NB,40.76250702682578,-73.96588748049983
2020,10,31,19,15,BROOKLYN,40.631687,-74.02174,72 STREET,5 AVENUE,,1.0,0,7.6,0.0,0.0,23.0,6.6,158.0,MANHATTAN,178,SB,40.765210540597664,-73.97232378573453
2020,11,1,1,45,MANHATTAN,40.804886,-73.96248,WEST 113 STREET,AMSTERDAM AVENUE,,0.0,0,6.4,0.0,0.0,71.0,6.0,163.0,MANHATTAN,91,NB,40.77138758222208,-73.9869011657756
2020,11,1,1,0,,40.84771,-73.93798,WEST 177 STREET,BROADWAY,,0.0,0,6.4,0.0,0.0,71.0,6.0,163.0,MANHATTAN,23,NB,40.769281825309655,-73.9819835261734
2020,11,1,16,30,MANHATTAN,40.784943,-73.946594,EAST 97 STREET,2 AVENUE,,0.0,1,12.4,0.0,0.0,81.0,20.2,181.0,MANHATTAN,469,SB,40.76155611399958,-73.96364603678819
2020,11,1,19,45,BRONX,40.838196,-73.901184,CLAREMONT PARKWAY,3 AVENUE,,0.0,0,11.8,1.3,1.3,99.0,15.9,183.0,MANHATTAN,210,NB,40.76250702682578,-73.96588748049983
2020,11,1,0,15,,40.617275,-74.03359,95 STREET,3 AVENUE,,0.0,0,6.5,0.0,0.0,61.0,7.0,159.0,MANHATTAN,150,NB,40.76250702682578,-73.96588748049983
2020,11,1,21,15,MANHATTAN,40.734974,-73.97987,EAST 20 STREET,1 AVENUE,,0.0,0,12.4,3.2,3.2,43.0,13.1,172.0,MANHATTAN,146,NB,40.760563048507095,-73.96128118729173
2020,11,1,9,30,MANHATTAN,40.773655,-73.95173,EAST 81 STREET,1 AVENUE,,0.0,0,7.1,0.0,0.0,20.0,9.6,193.0,MANHATTAN,151,NB,40.760563048507095,-73.96128118729173
2020,11,1,9,45,MANHATTAN,40.768486,-73.96362,EAST 69 STREET,LEXINGTON AVENUE,,1.0,0,7.1,0.0,0.0,20.0,9.6,193.0,MANHATTAN,129,SB,40.763188025501776,-73.967483153524
2020,11,14,0,45,MANHATTAN,40.844677,-73.93886,WEST 173 STREET,BROADWAY,,0.0,0,7.5,0.0,0.0,8.0,5.5,281.0,QUEENS,44,EB,40.75273971158239,-73.90566371918923
2020,11,14,9,0,,40.76758,-73.93596,11 STREET,BROADWAY,,3.0,0,6.2,0.0,0.0,0.0,11.2,291.0,QUEENS,57,EB,40.75273971158239,-73.90566371918923
2020,11,14,17,45,BROOKLYN,40.677483,-73.93033,UTICA AVENUE,ATLANTIC AVENUE,,0.0,0,10.8,0.0,0.0,0.0,14.5,300.0,QUEENS,197,WB,40.68917678940368,-73.84551630720695
2020,11,14,10,45,BROOKLYN,40.67816,-73.897484,PENNSYLVANIA AVENUE,JAMAICA AVENUE,,0.0,0,4.5,0.0,0.0,0.0,11.2,291.0,QUEENS,115,EB,40.71334904804858,-73.76223237567977
2020,11,14,11,45,QUEENS,40.74425,-73.90142,63 STREET,WOODSIDE AVENUE,,0.0,0,4.5,0.0,0.0,0.0,11.3,292.0,QUEENS,66,SB,40.74998903697761,-73.90964487809356
2020,11,15,20,45,QUEENS,40.66685,-73.73672,241 STREET,FRANCIS LEWIS BOULEVARD,,0.0,0,13.4,0.0,0.0,70.0,25.3,154.0,QUEENS,49,NB,40.72244101918724,-73.76066042760651
2020,11,15,10,45,,40.695217,-73.841995,105 STREET,JAMAICA AVENUE,,0.0,0,3.7,0.0,0.0,0.0,9.1,81.0,QUEENS,87,EB,40.71334904804858,-73.76223237567977
2020,11,15,10,0,BROOKLYN,40.701077,-73.94043,HUMBOLDT STREET,FLUSHING AVENUE,,0.0,0,3.7,0.0,0.0,0.0,9.1,81.0,QUEENS,69,SB,40.71105682026166,-73.92024125965175
2020,11,16,13,0,QUEENS,40.778606,-73.8452,123 STREET,23 AVENUE,,0.0,0,9.2,0.0,0.0,0.0,19.1,266.0,QUEENS,151,EB,40.76673996302868,-73.8855896545257
2020,11,16,15,15,,40.75476,-73.921326,41 STREET,35 AVENUE,,0.0,0,10.7,0.0,0.0,0.0,22.0,267.0,QUEENS,84,WB,40.7658652514756,-73.7848583756486
2020,11,16,12,45,,40.75117,-73.9152,37 AVENUE,48 STREET,,0.0,0,9.0,0.0,0.0,0.0,20.6,266.0,QUEENS,49,SB,40.75130466847759,-73.91516814483198
2020,11,16,19,15,BROOKLYN,40.69897,-73.95702,BEDFORD AVENUE,FLUSHING AVENUE,,1.0,0,11.5,0.0,0.0,0.0,18.4,269.0,QUEENS,102,SB,40.71105682026166,-73.92024125965175
2020,11,16,9,15,QUEENS,40.768955,-73.82669,32 AVENUE,UNION STREET,,1.0,0,10.4,0.0,0.0,0.0,17.7,265.0,QUEENS,80,SB,40.76077657899791,-73.82670338230413
2020,11,16,9,45,QUEENS,40.72498,-73.794235,175 STREET,UNION TURNPIKE,,0.0,0,10.4,0.0,0.0,0.0,17.7,265.0,QUEENS,82,WB,40.73083839582185,-73.77540634108318
2020,11,17,15,30,BROOKLYN,40.639576,-73.998146,10 AVENUE,48 STREET,,0.0,0,7.3,0.0,0.0,0.0,5.7,288.0,QUEENS,42,SB,40.75130466847759,-73.91516814483198
2020,11,17,16,0,BROOKLYN,40.63885,-73.99695,FORT HAMILTON PARKWAY,48 STREET,,1.0,0,8.2,0.0,0.0,7.0,5.8,300.0,QUEENS,61,SB,40.75130466847759,-73.91516814483198
2020,11,17,16,45,BROOKLYN,40.629986,-73.99737,13 AVENUE,58 STREET,,0.0,0,8.2,0.0,0.0,7.0,5.8,300.0,QUEENS,40,SB,40.75298876073282,-73.9030822831987
2020,11,17,20,45,,40.742874,-73.933945,VANDAM STREET,47 AVENUE,,0.0,0,7.3,0.3,0.3,48.0,20.5,304.0,QUEENS,0,EB,40.75108460121463,-73.78977772986958
2020,11,17,10,30,QUEENS,40.75869,-73.9115,47 STREET,31 AVENUE,,0.0,0,4.4,0.0,0.0,0.0,8.6,248.0,QUEENS,35,EB,40.75976405585519,-73.8809808476846
2020,11,17,11,45,QUEENS,40.742912,-73.916504,QUEENS BOULEVARD,ROOSEVELT AVENUE,,0.0,0,4.3,0.0,0.0,0.0,6.9,242.0,QUEENS,48,WB,40.76285414551059,-73.81751747374348
2020,11,17,2,0,,,,HORACE HARDING EXPRESSWAY,JUNCTION BOULEVARD,,3.0,0,7.4,0.0,0.0,6.0,8.1,257.0,QUEENS,1,SB,40.7328108590199,-73.86386341555743
2020,11,18,8,45,,40.688995,-73.78581,BREWER BOULEVARD,LINDEN BOULEVARD,,0.0,0,2.2,0.0,0.0,0.0,16.3,301.0,QUEENS,72,WB,40.69405496194271,-73.75365674193208
2020,11,18,10,45,,40.736496,-73.909225,LAUREL HILL BOULEVARD,58 STREET,,0.0,0,1.2,0.0,0.0,40.0,16.6,304.0,QUEENS,35,SB,40.75298876073282,-73.9030822831987
2020,11,18,19,0,QUEENS,40.757847,-73.91661,43 STREET,BROADWAY,,0.0,0,2.8,0.0,0.0,0.0,21.2,320.0,QUEENS,77,WB,40.75273971158239,-73.90566371918923
2020,11,18,19,15,BROOKLYN,40.69819,-73.96191,CLASSON AVENUE,FLUSHING AVENUE,,0.0,0,2.8,0.0,0.0,0.0,21.2,320.0,QUEENS,87,SB,40.71105682026166,-73.92024125965175
2020,11,18,12,0,BROOKLYN,40.652855,-73.945915,EAST 34 STREET,LINDEN BOULEVARD,,1.0,0,1.3,0.0,0.0,0.0,19.9,319.0,QUEENS,113,WB,40.68348889246835,-73.80380689916718
2020,11,19,7,0,QUEENS,40.74484,-73.85225,111 STREET,51 AVENUE,,0.0,0,-0.9,0.0,0.0,0.0,3.6,233.0,QUEENS,14,EB,40.73971537385761,-73.8730817000112
2020,11,19,14,45,BROOKLYN,40.70152,-73.94323,DEBEVOISE STREET,BROADWAY,,0.0,0,0.6,0.0,0.0,0.0,9.8,208.0,QUEENS,88,EB,40.75273971158239,-73.90566371918923
2020,11,19,9,0,,40.673588,-73.73351,BROOKVILLE BOULEVARD,MERRICK BOULEVARD,,1.0,0,-1.1,0.0,0.0,0.0,7.1,229.0,QUEENS,128,SB,40.69411509369031,-73.78126093902672
2020,11,19,12,0,QUEENS,40.726685,-73.82183,72 AVENUE,MAIN STREET,,0.0,0,-1.1,0.0,0.0,0.0,9.2,231.0,QUEENS,74,SB,40.73862664406257,-73.82497321674529
2020,11,19,16,45,QUEENS,40.75691,-73.76768,BELL BOULEVARD,47 AVENUE,,0.0,0,4.7,0.0,0.0,0.0,14.7,205.0,QUEENS,4,EB,40.75108460121463,-73.78977772986958
2020,11,19,6,30,QUEENS,40.741478,-73.92189,43 STREET,47 AVENUE,,1.0,0,-1.2,0.0,0.0,0.0,1.5,256.0,QUEENS,1,EB,40.75108460121463,-73.78977772986958
2020,11,19,10,45,,,,HORACE HARDING EXPRESSWAY,MARATHON PARKWAY,,0.0,0,-1.1,0.0,0.0,0.0,7.6,225.0,QUEENS,39,SB,40.76503332513959,-73.73553047748223
2020,11,20,0,0,BROOKLYN,40.68452,-73.913315,MACDONOUGH STREET,BROADWAY,,1.0,0,7.4,0.0,0.0,0.0,17.3,211.0,QUEENS,21,WB,40.75273971158239,-73.90566371918923
2020,11,20,11,30,BROOKLYN,40.715305,-73.96044,BEDFORD AVENUE,METROPOLITAN AVENUE,,0.0,0,6.8,0.0,0.0,0.0,14.8,227.0,QUEENS,176,WB,40.71144458872882,-73.85714261747643
2020,11,20,18,30,MANHATTAN,40.83406,-73.944885,WEST 157 STREET,BROADWAY,,0.0,0,14.3,0.0,0.0,0.0,12.5,221.0,QUEENS,100,WB,40.75273971158239,-73.90566371918923
2020,11,20,18,45,QUEENS,40.77067,-73.7355,NORTHERN BOULEVARD,LITTLE NECK PARKWAY,,1.0,0,14.3,0.0,0.0,0.0,12.5,221.0,QUEENS,70,SB,40.75813626540202,-73.72247831207733
2020,11,20,17,30,BROOKLYN,40.658577,-73.89063,PENNSYLVANIA AVENUE,LINDEN BOULEVARD,,0.0,0,13.1,0.0,0.0,0.0,13.2,223.0,QUEENS,119,WB,40.68348889246835,-73.80380689916718
2020,11,20,20,15,QUEENS,,,VANWYCK EXPRESSWAY,JEWEL AVENUE,,0.0,0,15.2,0.0,0.0,0.0,10.8,210.0,QUEENS,42,WB,40.728693624531445,-73.82809266455902
2020,11,21,13,0,QUEENS,40.66096,-73.731476,253 STREET,FRANCIS LEWIS BOULEVARD,,3.0,0,8.5,0.0,0.0,0.0,7.6,278.0,QUEENS,110,SB,40.72237759277076,-73.76077604002404
2020,11,21,20,15,BROOKLYN,40.674404,-73.86976,BELMONT AVENUE,CRESCENT STREET,,0.0,0,14.5,0.0,0.0,0.0,6.6,311.0,QUEENS,73,SB,40.76047870489906,-73.93124866306066
2020,11,21,15,30,BROOKLYN,40.68405,-73.97746,FLATBUSH AVENUE,ATLANTIC AVENUE,,3.0,0,14.4,0.0,0.0,0.0,6.3,301.0,QUEENS,247,WB,40.68917678940368,-73.84551630720695
2020,11,21,11,30,,40.694458,-73.752205,200 STREET,LINDEN BOULEVARD,,0.0,0,7.6,0.0,0.0,0.0,8.1,283.0,QUEENS,99,EB,40.69405496194271,-73.75365674193208
2020,11,21,3,30,QUEENS,40.76501,-73.8871,ASTORIA BOULEVARD,82 STREET,,0.0,0,10.4,0.0,0.0,0.0,13.4,250.0,QUEENS,7,SB,40.75463290938139,-73.88520017630373
2020,11,22,20,45,QUEENS,40.766293,-73.93363,14 STREET,BROADWAY,,0.0,0,9.6,0.0,0.0,72.0,14.1,75.0,QUEENS,53,WB,40.75273971158239,-73.90566371918923
2020,11,22,10,0,QUEENS,40.69223,-73.76027,191 STREET,LINDEN BOULEVARD,,0.0,0,6.1,0.0,0.0,0.0,12.2,24.0,QUEENS,88,EB,40.68348889246835,-73.80380689916718
2021,5,2,2,45,QUEENS,40.753437,-73.88783,79 STREET,34 AVENUE,,1.0,0,14.0,0.0,0.0,0.0,13.4,216.0,QUEENS,39,EB,40.75460772528972,-73.87622937109398
2021,5,2,9,0,BROOKLYN,40.691307,-73.91326,JEFFERSON AVENUE,CENTRAL AVENUE,,0.0,0,14.0,0.0,0.0,0.0,16.1,230.0,QUEENS,65,WB,40.61002072441424,-73.74478805097458
2021,5,3,1,15,BRONX,,,CROSS BRONX EXPRESSWAY,ROSEDALE AVENUE,,0.0,0,22.2,0.0,0.0,0.0,6.1,3.0,BRONX,7,SB,40.83613641796587,-73.86998957711124
2021,5,4,12,30,QUEENS,40.75326,-73.864456,103 STREET,37 AVENUE,,0.0,0,12.6,0.0,0.0,100.0,7.2,3.0,QUEENS,49,WB,40.74999323855268,-73.8819553147256
2021,5,4,19,45,BROOKLYN,40.695583,-73.92078,BLEECKER STREET,CENTRAL AVENUE,,0.0,0,19.2,0.0,0.0,100.0,2.6,254.0,QUEENS,124,WB,40.61002072441424,-73.74478805097458
2021,5,4,11,15,QUEENS,40.75326,-73.864456,103 STREET,37 AVENUE,,0.0,0,12.2,0.0,0.0,100.0,7.9,16.0,QUEENS,68,EB,40.74863486702506,-73.89493007901136
2021,5,5,13,45,QUEENS,40.760464,-73.826546,UNION STREET,ROOSEVELT AVENUE,,0.0,0,11.7,0.0,0.0,100.0,5.1,45.0,QUEENS,88,WB,40.7472916158062,-73.88719638905624
2021,5,5,10,15,BRONX,,,EAST FORDHAM ROAD,SOUTHERN BOULEVARD,,2.0,0,11.7,0.0,0.0,100.0,8.3,72.0,BRONX,76,SB,40.83330446064796,-73.89017824475303
2021,5,7,9,45,QUEENS,40.76278,-73.787384,195 STREET,37 AVENUE,,0.0,0,9.4,0.0,0.0,0.0,11.9,2.0,QUEENS,57,EB,40.74999323855268,-73.8819553147256
2021,5,7,20,0,QUEENS,40.744167,-73.91248,52 STREET,ROOSEVELT AVENUE,,0.0,0,16.6,0.0,0.0,5.0,11.3,121.0,QUEENS,77,EB,40.74911481110001,-73.8698570036405
2021,5,8,23,45,QUEENS,40.75004,-73.88153,85 STREET,37 AVENUE,,0.0,0,10.5,0.0,0.0,14.0,6.9,321.0,QUEENS,49,WB,40.74881807101558,-73.89314618154098
2021,5,8,2,30,BRONX,40.85592,-73.9172,WEST 179 STREET,CEDAR AVENUE,,1.0,0,12.5,0.0,0.0,0.0,10.0,120.0,BRONX,2,NB,40.85929593625287,-73.91568871710604
2021,5,8,20,45,QUEENS,40.75967,-73.92725,31 STREET,34 AVENUE,,2.0,0,11.5,0.4,0.4,68.0,8.4,155.0,QUEENS,74,EB,40.75460772528972,-73.87622937109398
2021,5,8,20,45,BRONX,40.83241,-73.89072,JENNINGS STREET,SOUTHERN BOULEVARD,,1.0,0,11.5,0.4,0.4,68.0,8.4,155.0,BRONX,57,SB,40.83330446064796,-73.89017824475303
2021,5,9,12,45,QUEENS,40.748863,-73.892715,73 STREET,37 AVENUE,,0.0,0,9.9,0.0,0.0,0.0,10.1,276.0,QUEENS,46,EB,40.7493060740395,-73.88850429683717
2021,5,9,1,15,QUEENS,40.752945,-73.89248,74 STREET,34 AVENUE,,0.0,0,9.5,0.0,0.0,1.0,6.9,279.0,QUEENS,20,WB,40.75469487662578,-73.87629127705048
